{"type": "FeatureCollection", "features": [{"type": "Feature", "properties": {"project": "cahsr-sf-sj", "stage": "entitled", "kind": "line", "segment": "shared", "name": "HSR San Francisco\u2013San Jos\u00e9 (shares Caltrain tracks)"}, "geometry": {"type": "LineString", "coordinates": [[-122.395120630783, 37.7766576693206], [-122.396534031067, 37.7755440820568], [-122.396748183143, 37.7753299298566], [-122.39697062577, 37.7750904681027], [-122.396998000132, 37.7750609997004], [-122.397248000377, 37.7747560001223], [-122.397300309276, 37.7747050859094], [-122.397472998711, 37.7745369995281], [-122.398451999776, 37.7737569994177], [-122.398720184618, 37.773495968671], [-122.399127000169, 37.7731000003027], [-122.399384289344, 37.7728883163228], [-122.399411780487, 37.7728656999188], [-122.399434630034, 37.7728468987096], [-122.399438133464, 37.7728440172488], [-122.399697761852, 37.7726304068228], [-122.399796598093, 37.7725490887083], [-122.399804000211, 37.7725429998403], [-122.399810433945, 37.7725365644568], [-122.399886716184, 37.7724602842063], [-122.399989000159, 37.7723580002666], [-122.40002174465, 37.7723085897601], [-122.400112868854, 37.7721710816056], [-122.400155999665, 37.7721059995921], [-122.40019286383, 37.7720080452134], [-122.400253457891, 37.771847039287], [-122.400259158599, 37.771831891175], [-122.400261000146, 37.7718269994411], [-122.40026292254, 37.7718128795195], [-122.40027627959, 37.7717147884172], [-122.400278588261, 37.7716978373844], [-122.400278596345, 37.7716977791578], [-122.400290225037, 37.7716123720812], [-122.400292999933, 37.7715920005638], [-122.400291940819, 37.771580592398], [-122.40028905543, 37.7715494901189], [-122.400273443609, 37.7713812204629], [-122.400269441614, 37.7713380914141], [-122.40026599927, 37.7713010001847], [-122.400247007089, 37.7712490575205], [-122.400229374956, 37.7712008285644], [-122.400226079037, 37.7711918197156], [-122.400218745191, 37.7711717590997], [-122.400175925197, 37.7710546432249], [-122.400165724827, 37.7710267446357], [-122.400148999094, 37.7709809994193], [-122.400113174281, 37.7709348792483], [-122.400082914531, 37.770895924546], [-122.399993648042, 37.77078100738], [-122.399972483734, 37.7707537612596], [-122.399897902006, 37.7706577486064], [-122.399895101059, 37.7706541413481], [-122.399891326338, 37.7706492822005], [-122.399887999877, 37.770645000356], [-122.399884803671, 37.770642414207], [-122.399849156724, 37.7706135724619], [-122.399848381478, 37.7706129454519], [-122.399772704703, 37.7705517164422], [-122.399524646616, 37.7703510174092], [-122.399002732622, 37.7699287401445], [-122.398489313996, 37.769513326437], [-122.398436999707, 37.7694710001336], [-122.398358907363, 37.7694115717075], [-122.397918878401, 37.7690767073623], [-122.397214126704, 37.7685022724864], [-122.395304737805, 37.766945882627], [-122.395260369115, 37.7669097144889], [-122.394791754862, 37.7665277195832], [-122.394521007127, 37.7663070144456], [-122.394476538724, 37.7662614040751], [-122.393964213348, 37.7657359425703], [-122.393836405541, 37.7655596592579], [-122.393671336514, 37.7653319755132], [-122.393550187918, 37.7651648733868], [-122.393494186045, 37.7650605092862], [-122.393333774783, 37.7647615600963], [-122.393312515253, 37.7647219395746], [-122.393236098267, 37.7645795250988], [-122.393227321727, 37.7645537481218], [-122.393134862626, 37.7642821490806], [-122.393007669267, 37.763908517592], [-122.392935663907, 37.7635681359643], [-122.392850625789, 37.7631661263461], [-122.392845531443, 37.7631262223251], [-122.392831505148, 37.7630163522905], [-122.392808741839, 37.762838056279], [-122.392732296106, 37.7622392240241], [-122.392679303589, 37.7618241101366], [-122.392550813961, 37.760139452124], [-122.392493706262, 37.7586261136682], [-122.392489347636, 37.7584082208115], [-122.392475443512, 37.7577130391493], [-122.39246515331, 37.757198436538], [-122.392461479201, 37.7568274759269], [-122.392455580863, 37.7562317285418], [-122.392450875487, 37.7557564838671], [-122.392453659366, 37.7555777037321], [-122.392455855747, 37.7554366708159], [-122.392460502732, 37.7551382438185], [-122.392463679175, 37.754934232297], [-122.392465359923, 37.7548263117836], [-122.392466657989, 37.754742986832], [-122.392522260111, 37.7540575494447], [-122.392869094253, 37.7517738465958], [-122.392874533552, 37.7517344925722], [-122.393121404965, 37.7499483794404], [-122.393432253494, 37.7476993251622], [-122.393607833708, 37.7464289400662], [-122.393674216513, 37.7459486239092], [-122.393751642307, 37.7453884000528], [-122.39427194652, 37.741623580284], [-122.394282270857, 37.7415490092686], [-122.394586483531, 37.7393516612855], [-122.39459047295, 37.7393227973942], [-122.394796971379, 37.737828175755], [-122.394821183671, 37.7376529348879], [-122.394825858503, 37.7376190932206], [-122.394884970344, 37.737191249156], [-122.394892611414, 37.7371359471553], [-122.394920425052, 37.7369346289113], [-122.39494931038, 37.73672555522], [-122.395123367949, 37.7354712860946], [-122.395189160561, 37.7349971747922], [-122.395246403905, 37.734584664557], [-122.39528199875, 37.7343281503685], [-122.395360993901, 37.7337588919356], [-122.395641928532, 37.731734363442], [-122.395848745863, 37.7302439040505], [-122.395853534782, 37.7302098970075], [-122.395869540963, 37.7300962445253], [-122.395962569596, 37.7294356242068], [-122.395995559327, 37.7292013460926], [-122.396098337375, 37.7284714871782], [-122.396129824224, 37.7282478883411], [-122.396234999876, 37.7275009998981], [-122.396322666464, 37.7268860450988], [-122.396450324253, 37.7259905387476], [-122.396505000212, 37.7256069996383], [-122.396513384189, 37.7255594180557], [-122.396570139749, 37.7252373201988], [-122.396622000388, 37.7249430004977], [-122.396627225888, 37.7249212675447], [-122.396715762046, 37.7245531727232], [-122.39680630504, 37.7241767265603], [-122.396824999879, 37.7240989995297], [-122.396922485054, 37.7237896345952], [-122.397054359534, 37.723371144514], [-122.397096000041, 37.7232389995446], [-122.397267104848, 37.7227643274583], [-122.397377184403, 37.7224589502561], [-122.397458005829, 37.7222347335581], [-122.397593769116, 37.7218580986829], [-122.397770449767, 37.7213679452339], [-122.397832507183, 37.7211957812379], [-122.397841123823, 37.721171876409], [-122.39995678837, 37.7152724166463], [-122.40120253248, 37.7117983236871], [-122.401264779441, 37.7115890397412], [-122.401377486568, 37.7112101071871], [-122.401525182177, 37.7107135285178], [-122.401537502571, 37.7106721066592], [-122.401553000306, 37.7106200006201], [-122.40160807961, 37.7103804104411], [-122.401663958414, 37.7101373322249], [-122.401702220357, 37.709970897157], [-122.401705236899, 37.7099468849479], [-122.401733453881, 37.7097222899679], [-122.401742971531, 37.7096465383738], [-122.401744392666, 37.7096352244159], [-122.401773825068, 37.7094009483463], [-122.40178500011, 37.7093119998284], [-122.40179560562, 37.7091296834601], [-122.401806869596, 37.7089360703458], [-122.401816433958, 37.7087716473694], [-122.401821460931, 37.708555468327], [-122.40182794497, 37.7082766407493], [-122.401828810946, 37.7082394262301], [-122.401830710883, 37.7081577473875], [-122.401830322811, 37.7079725321109], [-122.401827158046, 37.706459824926], [-122.401824419981, 37.7051501459046], [-122.401823725584, 37.7048179850382], [-122.401821400744, 37.7037041715362], [-122.401821398049, 37.70370285597], [-122.401813991439, 37.7001489367554], [-122.401813622232, 37.6999709491715], [-122.401812406811, 37.6993865921235], [-122.40181229542, 37.6993327005029], [-122.401805862584, 37.6962357902175], [-122.401804535773, 37.6955957529797], [-122.401804049784, 37.6953614140523], [-122.401803999478, 37.6953369997657], [-122.401795513992, 37.6952150703749], [-122.401789101818, 37.6951229516577], [-122.401773166603, 37.6948939850139], [-122.401757581731, 37.6946700552395], [-122.401746999577, 37.6945180001747], [-122.401736082351, 37.6944329980481], [-122.401705803736, 37.6941972288225], [-122.401668498499, 37.6939067458323], [-122.401658000787, 37.6938250000163], [-122.401618882749, 37.6936124957299], [-122.401547035493, 37.6932221697321], [-122.401517000321, 37.6930589999303], [-122.401483245226, 37.6929224100664], [-122.401386185853, 37.692529648653], [-122.401323999978, 37.6922779995593], [-122.401261610184, 37.6920768970456], [-122.401152114534, 37.6917239585302], [-122.401127000334, 37.6916430000602], [-122.400972341883, 37.6912338808489], [-122.400813999441, 37.6908150000358], [-122.400789585927, 37.6907609827607], [-122.400600433966, 37.6903424810084], [-122.400446999919, 37.6900029994259], [-122.400398842134, 37.6899090586845], [-122.400176740867, 37.6894758044361], [-122.400162999338, 37.6894489996906], [-122.400014019138, 37.6892044509923], [-122.399772040848, 37.6888072453977], [-122.399517754741, 37.6883898287962], [-122.399368000193, 37.6881439998615], [-122.399260632652, 37.6879906205455], [-122.399011447179, 37.6876346413135], [-122.39898299933, 37.6875940006187], [-122.398766361616, 37.6873121283625], [-122.398550315892, 37.6870310256425], [-122.39853799999, 37.6870149992799], [-122.398285369477, 37.6867125834985], [-122.397359685221, 37.6856044454211], [-122.396217133283, 37.6842366372085], [-122.396145504317, 37.6841508846508], [-122.395958053765, 37.6839264702883], [-122.395417255388, 37.6832790205933], [-122.395236169399, 37.6830622205034], [-122.395170000394, 37.682983000758], [-122.395111423949, 37.6829158582411], [-122.393881303338, 37.681505813668], [-122.393160092709, 37.6806790825603], [-122.39304400073, 37.6805460004961], [-122.3925619908, 37.6799631106413], [-122.392184040814, 37.6795060520779], [-122.392055000518, 37.679350000152], [-122.391663253307, 37.6789157855562], [-122.391603000606, 37.6788490005313], [-122.391402943098, 37.6786042142557], [-122.39113830211, 37.6782804000563], [-122.391035000344, 37.6781540004337], [-122.39086682135, 37.6779255324078], [-122.390647565945, 37.6776276753599], [-122.390611000021, 37.677578000408], [-122.390468753593, 37.6773476983992], [-122.39033800021, 37.6771359993729], [-122.390292972156, 37.6770484021243], [-122.390128180709, 37.6767278076128], [-122.390118000102, 37.6767080001045], [-122.38998680385, 37.6763993431412], [-122.389928000131, 37.6762610005635], [-122.38984908493, 37.6760314765643], [-122.389764000998, 37.6757839990995], [-122.389755252305, 37.6757471962923], [-122.389703119476, 37.6755278415989], [-122.389657999794, 37.6753379993522], [-122.38963563893, 37.6751865722856], [-122.389591932298, 37.6748905884154], [-122.38958033954, 37.6748120780634], [-122.389578999253, 37.674802999892], [-122.389569140243, 37.6746193280815], [-122.389557270803, 37.6743981889647], [-122.389552000387, 37.6742999993452], [-122.389566999558, 37.6738510001326], [-122.389575475162, 37.6737779222921], [-122.389609803383, 37.6734819178713], [-122.389619999261, 37.6733939999033], [-122.38963176809, 37.6733356490496], [-122.38963587339, 37.6733152888812], [-122.389712077476, 37.6729374497842], [-122.389716000419, 37.672918000333], [-122.389821018866, 37.6725476172209], [-122.389827999674, 37.6725229998905], [-122.389949310865, 37.6721889152732], [-122.390004798003, 37.6720361087692], [-122.390019000368, 37.6719969996335], [-122.390063793961, 37.67190266066], [-122.390106541192, 37.6718126325922], [-122.390216999836, 37.6715799996731], [-122.390309860484, 37.6714174008654], [-122.390466000256, 37.6711439996776], [-122.390514166125, 37.6710729115206], [-122.390686674999, 37.6708183077502], [-122.390776998804, 37.6706849996609], [-122.390842648584, 37.670601897876], [-122.390994557291, 37.6704096026966], [-122.391108000139, 37.6702659999569], [-122.391168957119, 37.6701997596349], [-122.391374822236, 37.6699760567895], [-122.391584206952, 37.6697485284881], [-122.391685000622, 37.6696389998555], [-122.39198705195, 37.6693269252756], [-122.39315632248, 37.6681188307535], [-122.393827548152, 37.6674252945255], [-122.393929396444, 37.6673200602403], [-122.394896814631, 37.6663204572195], [-122.396225999655, 37.6649470000075], [-122.396882641178, 37.6642678760886], [-122.397781328365, 37.6633383960284], [-122.398549950278, 37.6625434148666], [-122.398992748746, 37.6620854212449], [-122.40095186838, 37.660058994348], [-122.402772571102, 37.6581756186806], [-122.403248312589, 37.6576834838276], [-122.403785112565, 37.6571281766834], [-122.404278558947, 37.6566177069687], [-122.404398001642, 37.6564941429246], [-122.404988124715, 37.6558836498658], [-122.405399396809, 37.655458172252], [-122.406320826643, 37.6545049002161], [-122.406630999639, 37.6541839999342], [-122.406786472862, 37.654011765254], [-122.407270999872, 37.6534750004497], [-122.407333816365, 37.6534008321684], [-122.407823343398, 37.6528228463217], [-122.408090001103, 37.6525079998158], [-122.408890992909, 37.6515253885466], [-122.409005972774, 37.6513843360311], [-122.409154781396, 37.6512004106762], [-122.409181520649, 37.6511673609628], [-122.409233185456, 37.6511035018877], [-122.40925086969, 37.651081644868], [-122.409252397725, 37.6510797579563], [-122.409442856734, 37.650844348102], [-122.409737255314, 37.6504804665525], [-122.409839976769, 37.6503535017959], [-122.409860079268, 37.6503281189182], [-122.40989747254, 37.6502809015363], [-122.4100291979, 37.650114575372], [-122.41027168284, 37.6498083846664], [-122.410390887481, 37.6496578635675], [-122.410444734296, 37.6495855478395], [-122.410708655733, 37.6492311098524], [-122.410844999332, 37.6490479992434], [-122.410911490833, 37.6489430426138], [-122.411125697706, 37.6486049157483], [-122.411244952653, 37.6484166675692], [-122.411317830277, 37.6483016271755], [-122.411461229244, 37.6480752657736], [-122.411468999671, 37.648063000706], [-122.411613667958, 37.6477811084381], [-122.411631257869, 37.6477468366657], [-122.411754901985, 37.6475059060288], [-122.411904454412, 37.6472144962238], [-122.41191599956, 37.6471919993353], [-122.41203551951, 37.6469039284553], [-122.412143940775, 37.6466426083948], [-122.412272520235, 37.6463326940375], [-122.41237597202, 37.6460833500047], [-122.412383999365, 37.6460640002098], [-122.412384568897, 37.6460622049265], [-122.412438023148, 37.645893362029], [-122.412456561681, 37.6458348060443], [-122.412552745196, 37.6455309961649], [-122.412655285191, 37.6452071130622], [-122.412674000692, 37.6451480003049], [-122.412737170222, 37.6448727589762], [-122.41281608722, 37.6445289046894], [-122.412892618293, 37.6441954452148], [-122.412897999201, 37.6441719999562], [-122.412941162352, 37.6438799041755], [-122.412990307385, 37.6435473259447], [-122.412997262142, 37.6435002635853], [-122.413027306296, 37.6432463291953], [-122.41306768467, 37.6429050530106], [-122.41307315002, 37.6428588516476], [-122.413076042595, 37.6428344051455], [-122.413082983878, 37.6426887637764], [-122.413091416363, 37.6425118425856], [-122.413106473026, 37.6421958917864], [-122.413117000383, 37.6419749996429], [-122.413116102067, 37.6418951548853], [-122.413111941969, 37.6415245465598], [-122.413103000139, 37.640727999506], [-122.413102601287, 37.6407106464597], [-122.413074402272, 37.6394821343779], [-122.41307008407, 37.6392939925437], [-122.413058856926, 37.6388047942292], [-122.413057293857, 37.6387366827142], [-122.413023582779, 37.6372677105173], [-122.412965216541, 37.634723910891], [-122.41294400013, 37.6337990002758], [-122.412937919434, 37.6337422758688], [-122.412906199023, 37.6334463892606], [-122.412881407318, 37.6332151350565], [-122.412880000556, 37.6332020003288], [-122.412839667996, 37.6330442952006], [-122.41282959878, 37.6330049257791], [-122.412771460714, 37.6327775879483], [-122.412739263297, 37.6326516863749], [-122.412726052673, 37.6326000327622], [-122.412724000022, 37.6325920001872], [-122.41272280167, 37.6325890129597], [-122.412700339296, 37.6325329108283], [-122.412645596861, 37.6323962010113], [-122.412611521965, 37.6323111042414], [-122.412569981172, 37.6322073611189], [-122.412534999876, 37.6321199996877], [-122.412484163316, 37.632022383043], [-122.412376694265, 37.6318160149131], [-122.412256993754, 37.631586160697], [-122.412208999463, 37.6314939999774], [-122.411655601315, 37.6305342038578], [-122.411478069961, 37.6302262868893], [-122.411121153129, 37.6296072426535], [-122.409469054303, 37.6267416176741], [-122.408917000035, 37.6257839999172], [-122.40869976045, 37.6254252427952], [-122.408472198324, 37.6250494296194], [-122.407857992316, 37.6240350696294], [-122.407027489955, 37.6226634372957], [-122.406824999808, 37.622328999547], [-122.406588126644, 37.6219890033579], [-122.406307925937, 37.6215868117341], [-122.406299000277, 37.6215739994042], [-122.405761630769, 37.6208607646026], [-122.40551481056, 37.620533161523], [-122.404820075078, 37.6196110172255], [-122.402171313411, 37.616094972416], [-122.401028146127, 37.6145773683252], [-122.401000000112, 37.6145399993548], [-122.399635092683, 37.6127544714846], [-122.399556000514, 37.6126510006524], [-122.39945776345, 37.6125347470993], [-122.399278572907, 37.6123226896413], [-122.399168516708, 37.6121924460501], [-122.398834441339, 37.6117970912699], [-122.39882000092, 37.6117800004579], [-122.398719536034, 37.6116764386065], [-122.398561128913, 37.6115131493021], [-122.398267521749, 37.6112104871242], [-122.398138999782, 37.6110779999825], [-122.397375554859, 37.6103275816172], [-122.396532512915, 37.6094988965067], [-122.394310037783, 37.6073141463375], [-122.392090856773, 37.6051324519856], [-122.390279892686, 37.6033519434374], [-122.386977041609, 37.600104323223], [-122.386126407104, 37.5992678474647], [-122.385887606155, 37.5990824230198], [-122.385718938477, 37.598940442493], [-122.385378112269, 37.5985986105498], [-122.38533739523, 37.5985577723609], [-122.384733817191, 37.5979524011263], [-122.384281590005, 37.5975108912816], [-122.384042032675, 37.5972852719766], [-122.383751139322, 37.5970324224086], [-122.38337469042, 37.596730946883], [-122.382964021097, 37.5964353051447], [-122.382582682665, 37.5961863431818], [-122.382359211467, 37.5960513373952], [-122.382186679237, 37.5959471052271], [-122.381732006837, 37.595703975985], [-122.381419116437, 37.5955483735934], [-122.381089112233, 37.5953966592757], [-122.380641773679, 37.5951982652433], [-122.379639542181, 37.5947761883347], [-122.379148204145, 37.5945680662042], [-122.378793755884, 37.5944085715631], [-122.378389156476, 37.5942108752891], [-122.377812431776, 37.5939697952935], [-122.376202526819, 37.5932908866136], [-122.370239784847, 37.590776041397], [-122.367062999745, 37.5894360000931], [-122.363622659717, 37.5880094709958], [-122.3627132179, 37.5876323461528], [-122.361969522439, 37.5873239440011], [-122.361279998983, 37.5870380001504], [-122.359742999499, 37.5863720003939], [-122.357554949605, 37.5854526843434], [-122.350701527131, 37.5825727693808], [-122.344896586815, 37.5801329333033], [-122.342814798637, 37.5792578375699], [-122.340741086312, 37.5783860776345], [-122.338719316374, 37.577536095018], [-122.334642152557, 37.5758218230895], [-122.333089508912, 37.5751689420158], [-122.333073000572, 37.5751620003726], [-122.332454999182, 37.5748739999271], [-122.332285878753, 37.5747849592465], [-122.331685024406, 37.5744686173797], [-122.33161051095, 37.574429384971], [-122.331573406935, 37.5744098499235], [-122.331265998953, 37.5742480003132], [-122.33110623897, 37.5741535970151], [-122.330652500818, 37.5738854781518], [-122.330505222028, 37.5737931234626], [-122.33005142818, 37.5735085594307], [-122.330032854613, 37.5734969128734], [-122.329691633146, 37.5732638838023], [-122.329446586211, 37.5730965351914], [-122.329252392006, 37.5729639139661], [-122.328717532391, 37.5725473420915], [-122.328638666598, 37.5724810039638], [-122.32813903262, 37.572060728448], [-122.327815999342, 37.5717890000637], [-122.327308479054, 37.5713366158575], [-122.327244128239, 37.5712792549789], [-122.325768862777, 37.5699372400342], [-122.325764900308, 37.5699334848754], [-122.324502987421, 37.5687379912203], [-122.323624163782, 37.5679354693863], [-122.322419930821, 37.5668357491138], [-122.321584663795, 37.5660729449], [-122.320760629304, 37.565320377247], [-122.319975791003, 37.5646035839465], [-122.317478819466, 37.5623229649413], [-122.31736766373, 37.5622231154398], [-122.315910244199, 37.5609139139601], [-122.315365999884, 37.5604250004123], [-122.314601464407, 37.559726090967], [-122.31367327475, 37.5588775482116], [-122.313116204289, 37.5583682673768], [-122.313011999716, 37.558273000084], [-122.312973362278, 37.5582366404031], [-122.312470437771, 37.5577633419612], [-122.312332999126, 37.5576339998594], [-122.312199320828, 37.5574953293126], [-122.311915716405, 37.5572011340569], [-122.311850999975, 37.5571340003367], [-122.311627752458, 37.5568629161083], [-122.311349702318, 37.5565252827171], [-122.311193000199, 37.5563350003807], [-122.311106948782, 37.5562112461348], [-122.310910000342, 37.5559280000598], [-122.310811523427, 37.5557673081241], [-122.310651998803, 37.5555070001832], [-122.310574632297, 37.5553629610322], [-122.310409804019, 37.5550560902469], [-122.310311999942, 37.5548739996662], [-122.310157580443, 37.5545429931755], [-122.309796540344, 37.5537690679371], [-122.309529767654, 37.5531971970409], [-122.309353930522, 37.5528202626567], [-122.309044998998, 37.5521579999259], [-122.308802320022, 37.5516786648295], [-122.308642000388, 37.5513619997802], [-122.308534841256, 37.5511862856926], [-122.30826076706, 37.5507368665929], [-122.308108999387, 37.5504879996558], [-122.308016916681, 37.5503604674475], [-122.30775302399, 37.5499949795037], [-122.307495999817, 37.5496389998735], [-122.30739798284, 37.5495231478571], [-122.306562100468, 37.5485351336403], [-122.305274821852, 37.5470135029575], [-122.30411555047, 37.5456431123531], [-122.301683158819, 37.5427675278193], [-122.301147909335, 37.5421347147003], [-122.300232540433, 37.5410524614583], [-122.299881999843, 37.5406379997474], [-122.298211319366, 37.5388054685903], [-122.297515139394, 37.5380418004495], [-122.296986902159, 37.537462355848], [-122.29698057802, 37.5374555545809], [-122.29604403403, 37.5364481801929], [-122.295672000349, 37.5360480001835], [-122.295579313076, 37.5359554155192], [-122.295258892099, 37.5356353427967], [-122.29506599596, 37.5354426514114], [-122.294843308092, 37.5352202027407], [-122.294743000411, 37.53511999922], [-122.294578981515, 37.534974237395], [-122.294301860233, 37.5347279635029], [-122.294176999798, 37.5346169992611], [-122.293830948988, 37.5343339781501], [-122.293606000061, 37.5341499997829], [-122.293549665811, 37.5341065831358], [-122.292831269604, 37.5335528925815], [-122.292298727642, 37.533142438268], [-122.292161355472, 37.5330365586729], [-122.291671210399, 37.5326761932162], [-122.291311341702, 37.5324116087646], [-122.291037429203, 37.5322102188013], [-122.290844000362, 37.5320680003426], [-122.290695085739, 37.5319655678356], [-122.290316758461, 37.5317053285105], [-122.289531221271, 37.5311649737658], [-122.288820591897, 37.5306761336388], [-122.28875483971, 37.5306320118415], [-122.286821009449, 37.529334321368], [-122.284380832099, 37.5276967327532], [-122.283268835457, 37.5269504344581], [-122.283073000928, 37.5268190006405], [-122.282897952517, 37.5266934996801], [-122.282590766419, 37.5264732598027], [-122.282217999712, 37.5262060009659], [-122.28218800766, 37.5261821323784], [-122.281792324031, 37.5258672519689], [-122.281552000438, 37.5256759994031], [-122.281456809561, 37.5255969474299], [-122.281022610665, 37.5252363593694], [-122.280484296129, 37.5247892973454], [-122.280031041271, 37.5244128697932], [-122.279064811555, 37.5236103978446], [-122.276300442999, 37.5213143889173], [-122.276175101966, 37.5212102787172], [-122.275801383943, 37.5208998609716], [-122.275627785413, 37.5207556808565], [-122.275282037335, 37.5204685203295], [-122.27516520155, 37.5203714889323], [-122.274593911657, 37.5198970274012], [-122.273616652426, 37.5190853847538], [-122.272679777857, 37.5183072560111], [-122.272102003025, 37.5178273684065], [-122.271991999827, 37.5177359994713], [-122.271612330466, 37.5174272944084], [-122.271588724537, 37.5174094793921], [-122.271122999266, 37.5170580004998], [-122.271118440316, 37.5170547043887], [-122.270380135645, 37.5165210523966], [-122.269641503988, 37.5159871514783], [-122.269067873085, 37.5155725070085], [-122.268648000521, 37.515268999494], [-122.268618549254, 37.5152459140472], [-122.268221131878, 37.5149343727542], [-122.267652999563, 37.5144889997196], [-122.267584823721, 37.51443043079], [-122.266999816553, 37.5139278563662], [-122.264628999924, 37.5118909994909], [-122.263927756148, 37.5112725186123], [-122.263341325151, 37.510755286557], [-122.262665979805, 37.5101706276422], [-122.262032493257, 37.5096221929235], [-122.261285470436, 37.508975448805], [-122.261282447605, 37.5089728250274], [-122.260418579119, 37.5082224664493], [-122.259759640603, 37.5076500958691], [-122.259115999499, 37.5070910004584], [-122.258969470801, 37.5069616103559], [-122.258607776729, 37.5066422249022], [-122.258545418377, 37.5065871587488], [-122.257921438699, 37.5060361536347], [-122.257199692674, 37.5053988015524], [-122.256310999245, 37.5046139994982], [-122.254932163437, 37.5034305844681], [-122.25486092434, 37.5033694398984], [-122.252130528272, 37.5009910433991], [-122.252129303868, 37.5009899786672], [-122.251090519921, 37.5000802216833], [-122.249851325428, 37.49899490163], [-122.24985047113, 37.4989941547298], [-122.248225673902, 37.4975712214572], [-122.2462549669, 37.4958452454651], [-122.245251905359, 37.4949666996637], [-122.24507300048, 37.494809999511], [-122.24447643469, 37.4943102807782], [-122.244302999653, 37.4941649994359], [-122.243651637529, 37.4936599386631], [-122.243417000271, 37.4934779996575], [-122.243072326578, 37.4932321917778], [-122.242631407386, 37.4929177404005], [-122.242520999946, 37.4928389994107], [-122.242178145341, 37.4926145106918], [-122.241592907306, 37.4922313107578], [-122.241567879344, 37.4922149237927], [-122.241483999155, 37.4921599995287], [-122.241466711975, 37.4921490979211], [-122.239396530928, 37.4908435584887], [-122.236717580478, 37.4891539779235], [-122.234744320464, 37.4879093730614], [-122.23283872515, 37.4867073726973], [-122.231537567563, 37.4858865929726], [-122.228779833964, 37.4841468822601], [-122.228771410461, 37.4841415709433], [-122.227184585919, 37.4831407798291], [-122.226146291554, 37.4824859129625], [-122.225209989212, 37.4818953548024], [-122.223628006589, 37.4808975033908], [-122.222870429462, 37.4804196358096], [-122.221302103927, 37.4794303249265], [-122.220973339398, 37.4792231958814], [-122.220927222586, 37.4791941388997], [-122.220873718029, 37.4791604303629], [-122.220826899633, 37.4791309327965], [-122.22046018847, 37.4788998914114], [-122.219697859255, 37.4784195872382], [-122.218815644476, 37.4778637333553], [-122.217669457953, 37.4771415360973], [-122.217644767758, 37.4771259799147], [-122.214939050207, 37.4754210373189], [-122.212255364737, 37.4737298332413], [-122.212236781288, 37.473718121192], [-122.212146479043, 37.4736612113572], [-122.206698661274, 37.4702276462464], [-122.206457762759, 37.4700758036913], [-122.206367510819, 37.4700189146112], [-122.206043197442, 37.4698106222952], [-122.203480932757, 37.4681992604051], [-122.202948111419, 37.4678641646204], [-122.202799334238, 37.4677705941504], [-122.197230441535, 37.4642678897974], [-122.19425251469, 37.4623945855228], [-122.19329130476, 37.4617898857684], [-122.192910000464, 37.4615499996065], [-122.189712999674, 37.4594769998314], [-122.189691485922, 37.4594633488559], [-122.189484293993, 37.459331863964], [-122.189339827827, 37.459240186], [-122.186329968569, 37.4573300324275], [-122.186318560863, 37.4573227938658], [-122.185937754234, 37.4570811070806], [-122.185898873352, 37.4570564298539], [-122.18571700044, 37.4569409995682], [-122.185566256847, 37.4568469226804], [-122.184736647411, 37.4563291618128], [-122.184734755559, 37.4563279809224], [-122.182453265604, 37.4549040260789], [-122.181383000198, 37.4542360000885], [-122.180632931191, 37.4537595016815], [-122.180076149089, 37.4534057856463], [-122.179286907247, 37.4529043808566], [-122.178196697445, 37.4522117501756], [-122.176396297546, 37.4510678699157], [-122.174708763776, 37.4499956367745], [-122.172501939991, 37.44859337017], [-122.172152000374, 37.4483710000211], [-122.17032842394, 37.4472305342385], [-122.17030080883, 37.4472132630405], [-122.169696000099, 37.4468350001967], [-122.169631670843, 37.446792091908], [-122.169239079216, 37.4465302327095], [-122.168758344893, 37.4462095768613], [-122.168719999407, 37.4461840002751], [-122.167949567388, 37.4456356099739], [-122.167046969835, 37.4449931309878], [-122.166585999347, 37.4446649998249], [-122.166301852341, 37.4444812811773], [-122.165988999671, 37.4442790000015], [-122.164999781168, 37.4436586084548], [-122.164707048963, 37.4434750171422], [-122.164122234933, 37.4431082489753], [-122.163431825738, 37.4426752522344], [-122.162738051455, 37.4422401489523], [-122.162395000119, 37.4420249999625], [-122.16211862354, 37.4418708284803], [-122.161547279748, 37.4415521105037], [-122.160492202159, 37.4409635291702], [-122.160453432668, 37.4409419014533], [-122.159754652971, 37.4405450745689], [-122.159751000421, 37.4405429990157], [-122.159277551436, 37.4402553374829], [-122.158803000217, 37.439967000106], [-122.158703543241, 37.4399043913547], [-122.156200665281, 37.4383287189884], [-122.156190719134, 37.4383224593338], [-122.15414874339, 37.4370366633915], [-122.152475009539, 37.4359826813092], [-122.151742401086, 37.4355213261883], [-122.147435013434, 37.4328085587599], [-122.145825401329, 37.4317947376531], [-122.144511255899, 37.4309669784463], [-122.143156562315, 37.4301136437005], [-122.142264104047, 37.4295514556514], [-122.141791981873, 37.4292540438075], [-122.140367945535, 37.4283569488799], [-122.140009102715, 37.4281308832743], [-122.138327226534, 37.4270690513389], [-122.136720339019, 37.4260545104512], [-122.135843365909, 37.4255007926977], [-122.134666637565, 37.4247577863675], [-122.132584293329, 37.423442892066], [-122.130423581865, 37.4220784187975], [-122.12720949961, 37.4200485758895], [-122.124257737096, 37.418184216215], [-122.123320027991, 37.4175919137525], [-122.1232882438, 37.4175718481972], [-122.121908163826, 37.4167005331597], [-122.120809904221, 37.4160071200114], [-122.118701772946, 37.4146760312575], [-122.117175412209, 37.4137122188655], [-122.116487017037, 37.4132775208803], [-122.115396886287, 37.4125891198784], [-122.114129745205, 37.4117889100765], [-122.111977046713, 37.4104293890384], [-122.110551718598, 37.4095291808627], [-122.109609558341, 37.4089341098834], [-122.108838981694, 37.4084473981863], [-122.108648594549, 37.4083271442031], [-122.108098999869, 37.4079800000798], [-122.107623034702, 37.4076809933727], [-122.107180769833, 37.4074031519328], [-122.106947640847, 37.4072566948596], [-122.106262136454, 37.4068260374641], [-122.106199999985, 37.4067870001915], [-122.105986251253, 37.4066616779003], [-122.105654293213, 37.4064670482067], [-122.105527999966, 37.4063929999649], [-122.105169149959, 37.4062083931714], [-122.10513643152, 37.4061915620602], [-122.104692976383, 37.4059634293791], [-122.104108999583, 37.4056630003066], [-122.103832879923, 37.405545630434], [-122.102721000062, 37.4050729993346], [-122.102521996277, 37.4049941850932], [-122.101514140427, 37.40459501903], [-122.099889849849, 37.4039516854057], [-122.09802422687, 37.4032127233558], [-122.097516542191, 37.4030116222863], [-122.094854498933, 37.4019571048372], [-122.089759293269, 37.3999384759039], [-122.089522019456, 37.3998444636607], [-122.086694372673, 37.3987240441899], [-122.085159923505, 37.3981159931158], [-122.08301898935, 37.3972675608308], [-122.082949445374, 37.397240001386], [-122.082757665841, 37.3971639971564], [-122.081616099354, 37.3967115770285], [-122.081251610622, 37.3965671201638], [-122.080052949013, 37.3960920480552], [-122.078436447727, 37.3954513391344], [-122.076056140396, 37.39450783218], [-122.074457466177, 37.3938741053373], [-122.074379000134, 37.3938430004433], [-122.071265672921, 37.3926002664727], [-122.068737042957, 37.3915908263655], [-122.06558012769, 37.3903304559816], [-122.063935999616, 37.3896739999673], [-122.063232369915, 37.3894077499203], [-122.063130084144, 37.3893690447397], [-122.063016736518, 37.389326153475], [-122.062812667133, 37.3892489328637], [-122.062611999668, 37.3891729997559], [-122.062205729395, 37.389038784795], [-122.05964395519, 37.3881924331136], [-122.057921361971, 37.3876232853503], [-122.057148069716, 37.3873677757449], [-122.055573851232, 37.3868476063741], [-122.053559253444, 37.3861818773028], [-122.051007746983, 37.3853386575322], [-122.050588505935, 37.3852007205047], [-122.050388239118, 37.3851348282718], [-122.05035139831, 37.3851227062074], [-122.050324157798, 37.3851137433161], [-122.048377926293, 37.3844733645471], [-122.04492238767, 37.3833362609438], [-122.042531353556, 37.3825493673463], [-122.040928815683, 37.3820219308381], [-122.039296065671, 37.3814845208215], [-122.037968308968, 37.3810474751536], [-122.036479796051, 37.3805574886457], [-122.034443211097, 37.3798870467246], [-122.034427503156, 37.3798818757668], [-122.034362269297, 37.3798604002985], [-122.034104475268, 37.3797755312721], [-122.033488281289, 37.3795726684047], [-122.031379025324, 37.3788782292282], [-122.030698000829, 37.3786539994787], [-122.0285316183, 37.3779301492434], [-122.02616999952, 37.3771410002526], [-122.023812765417, 37.3763737834403], [-122.022065012184, 37.3758048964763], [-122.021985139378, 37.3757788967896], [-122.020403248384, 37.3752639646463], [-122.018280207771, 37.3745728315153], [-122.018121000251, 37.3745209997539], [-122.017783297485, 37.3744185775581], [-122.017243982226, 37.3742550064378], [-122.017089000381, 37.3742079995741], [-122.016790566569, 37.374136645773], [-122.016295266064, 37.3740182185304], [-122.015754764131, 37.3738889821934], [-122.015482999503, 37.3738240002176], [-122.014083216779, 37.3735391042818], [-122.010628525267, 37.3728358918884], [-122.010302162833, 37.3727694540842], [-122.007799849913, 37.3722600190057], [-122.006767337106, 37.3720497983376], [-122.003915000127, 37.3714689991774], [-122.002085152555, 37.3710987514119], [-122.001522999426, 37.3709849997738], [-122.001468743878, 37.3709767234031], [-122.001022013484, 37.3709085734199], [-122.000566669145, 37.3708391076342], [-122.000271000347, 37.3707940004937], [-122.000023275534, 37.3707750775179], [-121.999434055268, 37.3707300645755], [-121.999020890424, 37.3706985010282], [-121.998817999629, 37.3706830005316], [-121.998726765831, 37.3706793467203], [-121.997035792411, 37.3706116212461], [-121.996486877755, 37.3705896312465], [-121.995600099534, 37.3705540997], [-121.995561367773, 37.3705525483625], [-121.994534844931, 37.3705114089923], [-121.99355540998, 37.37047214934], [-121.992977999865, 37.3704489991859], [-121.992852123436, 37.3704499693979], [-121.991708304873, 37.3704587612741], [-121.990800108121, 37.3704657340915], [-121.990665271895, 37.3704667692697], [-121.99010178387, 37.3704710913167], [-121.98860835627, 37.3704825346737], [-121.986133640494, 37.3705014534397], [-121.986094021197, 37.3705017575678], [-121.985478565633, 37.3705064537045], [-121.98532258037, 37.3705076445156], [-121.981666840507, 37.3705354729386], [-121.981280022353, 37.3705384106999], [-121.979609000516, 37.370543000461], [-121.979574268053, 37.3705417689573], [-121.978905222593, 37.3705180455506], [-121.978621999055, 37.3705080000456], [-121.978362698552, 37.3704889720521], [-121.977775360256, 37.3704458729472], [-121.977739383627, 37.3704432335992], [-121.977128455572, 37.3703661263305], [-121.976759046768, 37.3703194996896], [-121.976453931286, 37.3702629981082], [-121.975880865424, 37.3701568777101], [-121.975217154159, 37.370033965764], [-121.975131266235, 37.3700108383202], [-121.974518661025, 37.3698458875725], [-121.974065664882, 37.3697239117839], [-121.974040000015, 37.3697169995811], [-121.973369156127, 37.3694992884237], [-121.972875766338, 37.3693391634097], [-121.972716786991, 37.3692748143156], [-121.972118863846, 37.369032799716], [-121.971676516332, 37.3688537516738], [-121.968875388715, 37.3676319825439], [-121.968582367253, 37.3675041688046], [-121.96358788519, 37.365325858656], [-121.962074898571, 37.3646659109039], [-121.959777435672, 37.3636637207734], [-121.959544507011, 37.363562109117], [-121.959463760145, 37.3635268848245], [-121.955779127767, 37.3619199690736], [-121.949361843652, 37.3591208483858], [-121.947375886849, 37.3582544874881], [-121.947155249836, 37.358158256601], [-121.945144000068, 37.3572810004594], [-121.943008171038, 37.3563538462481], [-121.942385836176, 37.3560836812905], [-121.941934635765, 37.3558878063576], [-121.941617066041, 37.3557499415566], [-121.9407542396, 37.355375358287], [-121.940385309598, 37.3552151895652], [-121.940341264301, 37.3551960677218], [-121.939546963147, 37.3549148313212], [-121.93943542922, 37.35480279461], [-121.938140091818, 37.3542403999262], [-121.937573335722, 37.3539862104536], [-121.937489208495, 37.3539484795544], [-121.937155482571, 37.3537988018279], [-121.936336947565, 37.3533895346095], [-121.936001796913, 37.3532201578734], [-121.935899187748, 37.3531683020776], [-121.935594090233, 37.3530141126537], [-121.935451789007, 37.3529421959937], [-121.934413000568, 37.3524140000337], [-121.933349000013, 37.3518580000081], [-121.932985198493, 37.3516741279791], [-121.931975416655, 37.3511637477388], [-121.930610338546, 37.350473765831], [-121.928876503809, 37.349597351798], [-121.926571067464, 37.3484319307524], [-121.924139361228, 37.3472025870699], [-121.923789129658, 37.3470255200955], [-121.923763307585, 37.3470124663485], [-121.922351133501, 37.3462984909836], [-121.92189520885, 37.3460679764836], [-121.92133164357, 37.3457830344369], [-121.920762384767, 37.3454952068429], [-121.920619222955, 37.3454228209224], [-121.918251758838, 37.3442257304021], [-121.916872183717, 37.3435281166507], [-121.91548657551, 37.3428274225925], [-121.914644394152, 37.3424015200943], [-121.914444899887, 37.342300632403], [-121.914288256159, 37.3422214122272], [-121.914202780561, 37.3421781854749], [-121.914090150689, 37.3421212263383], [-121.914007721279, 37.3420795385992], [-121.914000250889, 37.3420757605552], [-121.913990159215, 37.34207065841], [-121.913105000657, 37.3416230002421], [-121.913049995914, 37.3416004553924], [-121.912815550896, 37.3415043617065], [-121.912702249982, 37.341457920678], [-121.91260249207, 37.3414170317519], [-121.912591650303, 37.3414125873331], [-121.912437642232, 37.3413494627027], [-121.91239336517, 37.3413353481063], [-121.912221955834, 37.3412807116022], [-121.912181882888, 37.3412679396771], [-121.912080627484, 37.3412356631137], [-121.912034565469, 37.3412209814258], [-121.911828287127, 37.3411552291117], [-121.911479929443, 37.3410441881671], [-121.911252517336, 37.3409716993969], [-121.911244403752, 37.3409691111486], [-121.911241888469, 37.3409683105343], [-121.911226623398, 37.3409634447129], [-121.911165437347, 37.3409439414294], [-121.911127542815, 37.3409318615038], [-121.911036998923, 37.3409030008012], [-121.910842779565, 37.3408168792845], [-121.910798571673, 37.3407972774035], [-121.910732730553, 37.3407680824043], [-121.910604000176, 37.3407110007844], [-121.910555527981, 37.3406840861899], [-121.910434636304, 37.3406169607135], [-121.910431109518, 37.3406150016632], [-121.910338351278, 37.3405634964039], [-121.910233000455, 37.3405049997964], [-121.910075165561, 37.3404007178122], [-121.909840999021, 37.340245999368], [-121.909834198775, 37.3402405492814], [-121.909707568659, 37.3401390623263], [-121.909696926318, 37.3401305332962], [-121.90956399991, 37.3400239996162], [-121.909542468191, 37.3400044618069], [-121.909213212283, 37.3397057053854], [-121.909163065629, 37.3396602038579], [-121.909160782112, 37.3396581305091], [-121.909107760849, 37.339610021374], [-121.909063108291, 37.3395695035451], [-121.908980999579, 37.3394950007061], [-121.908937022554, 37.3394481813316], [-121.908832849422, 37.3393372785628], [-121.908679922025, 37.339174469459], [-121.908624999927, 37.3391160003381], [-121.908545192699, 37.3390007525074], [-121.908400304325, 37.338791520709], [-121.908311999932, 37.3386640006795], [-121.908291168001, 37.3386238651615], [-121.90814689138, 37.3383459135229], [-121.908040491324, 37.3381409302441], [-121.908003874197, 37.3380703877893], [-121.907845836284, 37.3377659205719], [-121.907737477901, 37.3375571567246], [-121.907733180361, 37.3375488773816], [-121.907712999708, 37.33750999974], [-121.907623087331, 37.3373832103354], [-121.90761343134, 37.337369594241], [-121.907604917108, 37.3373575901632], [-121.907495999074, 37.337203999651], [-121.907432222283, 37.3371300822793], [-121.907300999979, 37.3369780004794], [-121.907254648707, 37.3369351421113], [-121.907251380636, 37.3369321201833], [-121.906908917697, 37.3366154734525], [-121.9061199184, 37.3358859336913], [-121.905657884306, 37.3354587097508], [-121.90548684328, 37.3353005534382], [-121.905478665017, 37.3352929902397], [-121.905087718206, 37.3349314893199], [-121.905083101763, 37.3349272216524], [-121.904719447567, 37.3345909543978], [-121.904596446645, 37.3344772224226], [-121.904327999495, 37.3342290001153], [-121.904299412408, 37.3341980190533], [-121.90413148584, 37.3340160437155], [-121.903931348381, 37.3337991561133], [-121.903915945868, 37.3337824666016], [-121.903881099319, 37.33374470555], [-121.903814045473, 37.3336506724706], [-121.903762749874, 37.3335787401211], [-121.903689801283, 37.3334764470415], [-121.903635999384, 37.3334010003241], [-121.90363503639, 37.3333993460782], [-121.903536513661, 37.3332302420976], [-121.903481349916, 37.3331355626732], [-121.903451027284, 37.3330513272131], [-121.903395691062, 37.332897616469], [-121.90338758197, 37.3328624813568], [-121.903347822536, 37.3326901833572], [-121.903338583363, 37.3326501510742], [-121.903316715674, 37.3323610860155], [-121.903313906642, 37.3323239635289], [-121.903304785149, 37.3322033996057], [-121.903279741017, 37.3318723472818], [-121.903265301497, 37.3316814756069], [-121.903196610921, 37.3313995532682], [-121.903127443339, 37.3312174032934], [-121.903084022371, 37.3311030583494], [-121.902982085146, 37.3308172502287], [-121.902930712292, 37.3306190979221], [-121.902882801544, 37.3299247150001]]}}, {"type": "Feature", "properties": {"project": "the-portal", "stage": "entitled", "kind": "line", "segment": "tunnel", "name": "The Portal (schematic)"}, "geometry": {"type": "LineString", "coordinates": [[-122.395120630783, 37.7766576693206], [-122.3925, 37.779], [-122.3935, 37.785], [-122.396038, 37.790065]]}}, {"type": "Feature", "properties": {"project": "bart-silicon-valley-phase-2", "stage": "infrastructure", "kind": "line", "segment": "tunnel", "name": "BART Silicon Valley Phase II (schematic)"}, "geometry": {"type": "LineString", "coordinates": [[-121.874681, 37.368473], [-121.87, 37.356], [-121.8735, 37.35], [-121.886, 37.337], [-121.902394, 37.330656], [-121.93735, 37.352956]]}}, {"type": "Feature", "properties": {"project": "the-portal", "stage": "entitled", "kind": "station", "name": "Salesforce Transit Center"}, "geometry": {"type": "Point", "coordinates": [-122.396038, 37.790065]}}, {"type": "Feature", "properties": {"project": "the-portal", "stage": "entitled", "kind": "station-footprint", "name": "Salesforce Transit Center"}, "geometry": {"type": "Polygon", "coordinates": [[[-122.39535115128851, 37.790065], [-122.3953544586528, 37.790011797282254], [-122.3953643488939, 37.78995910693576], [-122.39538072676342, 37.789907436397364], [-122.3954034345335, 37.78985728328259], [-122.39543225351593, 37.78980913059336], [-122.39546690616814, 37.78976344206639], [-122.39550705876616, 37.789720657707164], [-122.39555232461845, 37.78968118955246], [-122.3956022677902, 37.789645417702175], [-122.39565640730132, 37.78961368665878], [-122.39571422175871, 37.78958630200958], [-122.39577515437759, 37.78956352748371], [-122.39583861834345, 37.7895455824123], [-122.39590400246371, 37.789532639616205], [-122.39597067705347, 37.78952482374163], [-122.396038, 37.78952221005971], [-122.39610532294654, 37.78952482374163], [-122.39617199753633, 37.789532639616205], [-122.39623738165656, 37.7895455824123], [-122.39630084562242, 37.78956352748371], [-122.3963617782413, 37.78958630200958], [-122.39641959269872, 37.78961368665878], [-122.39647373220981, 37.789645417702175], [-122.39652367538156, 37.78968118955246], [-122.39656894123388, 37.789720657707164], [-122.39660909383187, 37.78976344206639], [-122.39664374648407, 37.78980913059336], [-122.3966725654665, 37.78985728328259], [-122.39669527323659, 37.789907436397364], [-122.3967116511061, 37.78995910693576], [-122.39672154134723, 37.790011797282254], [-122.3967248487115, 37.790065], [-122.39672154134723, 37.79011820271774], [-122.3967116511061, 37.790170893064236], [-122.39669527323659, 37.79022256360263], [-122.3966725654665, 37.7902727167174], [-122.39664374648407, 37.790320869406635], [-122.39660909383187, 37.79036655793361], [-122.39656894123388, 37.79040934229283], [-122.39652367538156, 37.790448810447536], [-122.39647373220981, 37.79048458229782], [-122.39641959269872, 37.790516313341215], [-122.3963617782413, 37.790543697990415], [-122.39630084562242, 37.79056647251629], [-122.39623738165656, 37.790584417587695], [-122.39617199753633, 37.79059736038379], [-122.39610532294654, 37.79060517625837], [-122.396038, 37.79060778994029], [-122.39597067705347, 37.79060517625837], [-122.39590400246371, 37.79059736038379], [-122.39583861834345, 37.790584417587695], [-122.39577515437759, 37.79056647251629], [-122.39571422175871, 37.790543697990415], [-122.39565640730132, 37.790516313341215], [-122.3956022677902, 37.79048458229782], [-122.39555232461845, 37.790448810447536], [-122.39550705876616, 37.79040934229283], [-122.39546690616814, 37.79036655793361], [-122.39543225351593, 37.790320869406635], [-122.3954034345335, 37.7902727167174], [-122.39538072676342, 37.79022256360263], [-122.3953643488939, 37.790170893064236], [-122.3953544586528, 37.79011820271774], [-122.39535115128851, 37.790065]]]}}, {"type": "Feature", "properties": {"project": "cahsr-sf-sj", "stage": "entitled", "kind": "station", "name": "4th and King"}, "geometry": {"type": "Point", "coordinates": [-122.395120630783, 37.7766576693206]}}, {"type": "Feature", "properties": {"project": "cahsr-sf-sj", "stage": "entitled", "kind": "station-footprint", "name": "4th and King"}, "geometry": {"type": "Polygon", "coordinates": [[[-122.39443390665576, 37.7766576693206], [-122.39443721342016, 37.776604466602855], [-122.39444710186731, 37.77655177625636], [-122.39446347676613, 37.776500105717965], [-122.39448618041737, 37.776449952603194], [-122.39451499417245, 37.77640179991396], [-122.39454964053917, 37.77635611138699], [-122.3945897858541, 37.776313327027765], [-122.39463504349584, 37.77627385887306], [-122.39468497760862, 37.776238087022776], [-122.39473910729961, 37.77620635597938], [-122.39479691127033, 37.77617897133018], [-122.39485783283692, 37.77615619680431], [-122.39492128529136, 37.7761382517329], [-122.39498665755187, 37.776125308936805], [-122.39505332004785, 37.77611749306223], [-122.395120630783, 37.77611487938031], [-122.39518794151815, 37.77611749306223], [-122.3952546040141, 37.776125308936805], [-122.39531997627464, 37.7761382517329], [-122.39538342872908, 37.77615619680431], [-122.39544435029566, 37.77617897133018], [-122.39550215426638, 37.77620635597938], [-122.39555628395738, 37.776238087022776], [-122.39560621807016, 37.77627385887306], [-122.3956514757119, 37.776313327027765], [-122.3956916210268, 37.77635611138699], [-122.39572626739351, 37.77640179991396], [-122.3957550811486, 37.776449952603194], [-122.39577778479983, 37.776500105717965], [-122.39579415969865, 37.77655177625636], [-122.39580404814583, 37.776604466602855], [-122.3958073549102, 37.7766576693206], [-122.39580404814583, 37.77671087203834], [-122.39579415969865, 37.776763562384836], [-122.39577778479983, 37.776815232923234], [-122.3957550811486, 37.776865386038004], [-122.39572626739351, 37.776913538727236], [-122.3956916210268, 37.77695922725421], [-122.3956514757119, 37.77700201161343], [-122.39560621807016, 37.77704147976814], [-122.39555628395738, 37.77707725161842], [-122.39550215426638, 37.777108982661815], [-122.39544435029566, 37.777136367311016], [-122.39538342872908, 37.77715914183689], [-122.39531997627464, 37.777177086908296], [-122.3952546040141, 37.77719002970439], [-122.39518794151815, 37.77719784557897], [-122.395120630783, 37.77720045926089], [-122.39505332004785, 37.77719784557897], [-122.39498665755187, 37.77719002970439], [-122.39492128529136, 37.777177086908296], [-122.39485783283692, 37.77715914183689], [-122.39479691127033, 37.777136367311016], [-122.39473910729961, 37.777108982661815], [-122.39468497760862, 37.77707725161842], [-122.39463504349584, 37.77704147976814], [-122.3945897858541, 37.77700201161343], [-122.39454964053917, 37.77695922725421], [-122.39451499417245, 37.776913538727236], [-122.39448618041737, 37.776865386038004], [-122.39446347676613, 37.776815232923234], [-122.39444710186731, 37.776763562384836], [-122.39443721342016, 37.77671087203834], [-122.39443390665576, 37.7766576693206]]]}}, {"type": "Feature", "properties": {"project": "cahsr-sf-sj", "stage": "entitled", "kind": "station", "name": "Millbrae"}, "geometry": {"type": "Point", "coordinates": [-122.386757, 37.600237]}}, {"type": "Feature", "properties": {"project": "cahsr-sf-sj", "stage": "entitled", "kind": "station-footprint", "name": "Millbrae"}, "geometry": {"type": "Polygon", "coordinates": [[[-122.3860719075292, 37.600237], [-122.3860752064367, 37.600183797282256], [-122.38608507138893, 37.60013110693576], [-122.38610140738099, 37.600079436397365], [-122.38612405708837, 37.600029283282595], [-122.38615280238197, 37.59998113059336], [-122.38618736642893, 37.59993544206639], [-122.38622741635855, 37.599892657707166], [-122.38627256646815, 37.59985318955246], [-122.38632238193749, 37.59981741770218], [-122.38637638301635, 37.599785686658784], [-122.38643404964485, 37.59975830200958], [-122.3864948264618, 37.59973552748371], [-122.38655812815323, 37.5997175824123], [-122.38662334508926, 37.599704639616206], [-122.38668984919515, 37.59969682374163], [-122.386757, 37.59969421005971], [-122.38682415080486, 37.59969682374163], [-122.38689065491074, 37.599704639616206], [-122.38695587184678, 37.5997175824123], [-122.3870191735382, 37.59973552748371], [-122.38707995035516, 37.59975830200958], [-122.38713761698365, 37.599785686658784], [-122.38719161806252, 37.59981741770218], [-122.38724143353186, 37.59985318955246], [-122.38728658364143, 37.599892657707166], [-122.38732663357108, 37.59993544206639], [-122.38736119761803, 37.59998113059336], [-122.38738994291164, 37.600029283282595], [-122.38741259261901, 37.600079436397365], [-122.38742892861107, 37.60013110693576], [-122.38743879356328, 37.600183797282256], [-122.3874420924708, 37.600237], [-122.38743879356328, 37.600290202717744], [-122.38742892861107, 37.60034289306424], [-122.38741259261901, 37.600394563602634], [-122.38738994291164, 37.600444716717405], [-122.38736119761803, 37.60049286940664], [-122.38732663357108, 37.60053855793361], [-122.38728658364143, 37.600581342292834], [-122.38724143353186, 37.60062081044754], [-122.38719161806252, 37.60065658229782], [-122.38713761698365, 37.600688313341216], [-122.38707995035516, 37.60071569799042], [-122.3870191735382, 37.60073847251629], [-122.38695587184678, 37.6007564175877], [-122.38689065491074, 37.600769360383794], [-122.38682415080486, 37.60077717625837], [-122.386757, 37.60077978994029], [-122.38668984919515, 37.60077717625837], [-122.38662334508926, 37.600769360383794], [-122.38655812815323, 37.6007564175877], [-122.3864948264618, 37.60073847251629], [-122.38643404964485, 37.60071569799042], [-122.38637638301635, 37.600688313341216], [-122.38632238193749, 37.60065658229782], [-122.38627256646815, 37.60062081044754], [-122.38622741635855, 37.600581342292834], [-122.38618736642893, 37.60053855793361], [-122.38615280238197, 37.60049286940664], [-122.38612405708837, 37.600444716717405], [-122.38610140738099, 37.600394563602634], [-122.38608507138893, 37.60034289306424], [-122.3860752064367, 37.600290202717744], [-122.3860719075292, 37.600237]]]}}, {"type": "Feature", "properties": {"project": "cahsr-sf-sj", "stage": "entitled", "kind": "station", "name": "San Jos\u00e9 Diridon"}, "geometry": {"type": "Point", "coordinates": [-121.902394, 37.330656]}}, {"type": "Feature", "properties": {"project": "cahsr-sf-sj", "stage": "entitled", "kind": "station-footprint", "name": "San Jos\u00e9 Diridon"}, "geometry": {"type": "Polygon", "coordinates": [[[-121.90171137341206, 37.330656], [-121.90171466044565, 37.33060279728225], [-121.90172448989053, 37.33055010693576], [-121.90174076708375, 37.33049843639736], [-121.90176333526703, 37.33044828328259], [-121.9017919770965, 37.33040013059336], [-121.90182641673557, 37.33035444206639], [-121.9018663225118, 37.33031165770716], [-121.90191131011063, 37.33027218955246], [-121.90196094627701, 37.330236417702174], [-121.90201475298748, 37.33020468665878], [-121.902072212054, 37.33017730200958], [-121.9021327701143, 37.33015452748371], [-121.90219584396122, 37.3301365824123], [-121.90226082615915, 37.330123639616204], [-121.90232709089393, 37.33011582374163], [-121.902394, 37.33011321005971], [-121.9024609091061, 37.33011582374163], [-121.90252717384088, 37.330123639616204], [-121.9025921560388, 37.3301365824123], [-121.90265522988572, 37.33015452748371], [-121.90271578794604, 37.33017730200958], [-121.90277324701255, 37.33020468665878], [-121.90282705372302, 37.330236417702174], [-121.9028766898894, 37.33027218955246], [-121.90292167748824, 37.33031165770716], [-121.90296158326446, 37.33035444206639], [-121.90299602290354, 37.33040013059336], [-121.90302466473297, 37.33044828328259], [-121.90304723291628, 37.33049843639736], [-121.9030635101095, 37.33055010693576], [-121.90307333955438, 37.33060279728225], [-121.90307662658797, 37.330656], [-121.90307333955438, 37.33070920271774], [-121.9030635101095, 37.330761893064235], [-121.90304723291628, 37.33081356360263], [-121.90302466473297, 37.3308637167174], [-121.90299602290354, 37.330911869406634], [-121.90296158326446, 37.33095755793361], [-121.90292167748824, 37.33100034229283], [-121.9028766898894, 37.331039810447535], [-121.90282705372302, 37.33107558229782], [-121.90277324701255, 37.331107313341214], [-121.90271578794604, 37.331134697990414], [-121.90265522988572, 37.33115747251629], [-121.9025921560388, 37.331175417587694], [-121.90252717384088, 37.33118836038379], [-121.9024609091061, 37.331196176258366], [-121.902394, 37.33119878994029], [-121.90232709089393, 37.331196176258366], [-121.90226082615915, 37.33118836038379], [-121.90219584396122, 37.331175417587694], [-121.9021327701143, 37.33115747251629], [-121.902072212054, 37.331134697990414], [-121.90201475298748, 37.331107313341214], [-121.90196094627701, 37.33107558229782], [-121.90191131011063, 37.331039810447535], [-121.9018663225118, 37.33100034229283], [-121.90182641673557, 37.33095755793361], [-121.9017919770965, 37.330911869406634], [-121.90176333526703, 37.3308637167174], [-121.90174076708375, 37.33081356360263], [-121.90172448989053, 37.330761893064235], [-121.90171466044565, 37.33070920271774], [-121.90171137341206, 37.330656]]]}}, {"type": "Feature", "properties": {"project": "bart-silicon-valley-phase-2", "stage": "infrastructure", "kind": "station", "name": "Santa Clara"}, "geometry": {"type": "Point", "coordinates": [-121.93735, 37.352956]}}, {"type": "Feature", "properties": {"project": "bart-silicon-valley-phase-2", "stage": "infrastructure", "kind": "station-footprint", "name": "Santa Clara"}, "geometry": {"type": "Polygon", "coordinates": [[[-121.9366671706784, 37.352956], [-121.93667045868823, 37.352902797282255], [-121.93668029105235, 37.35285010693576], [-121.93669657307974, 37.352798436397364], [-121.93671914796558, 37.352748283282594], [-121.93674779830137, 37.35270013059336], [-121.93678224816871, 37.35265444206639], [-121.93682216579656, 37.352611657707165], [-121.9368671667563, 37.35257218955246], [-121.93691681766414, 37.352536417702176], [-121.93697064035469, 37.35250468665878], [-121.93702811648599, 37.35247730200958], [-121.9370886925315, 37.35245452748371], [-121.93715178511074, 37.3524365824123], [-121.93721678660775, 37.352423639616205], [-121.93728307102255, 37.35241582374163], [-121.93735, 37.35241321005971], [-121.93741692897741, 37.35241582374163], [-121.93748321339221, 37.352423639616205], [-121.93754821488922, 37.3524365824123], [-121.93761130746849, 37.35245452748371], [-121.93767188351397, 37.35247730200958], [-121.93772935964527, 37.35250468665878], [-121.93778318233582, 37.352536417702176], [-121.93783283324366, 37.35257218955246], [-121.9378778342034, 37.352611657707165], [-121.93791775183125, 37.35265444206639], [-121.9379522016986, 37.35270013059336], [-121.93798085203439, 37.352748283282594], [-121.93800342692022, 37.352798436397364], [-121.9380197089476, 37.35285010693576], [-121.93802954131174, 37.352902797282255], [-121.93803282932156, 37.352956], [-121.93802954131174, 37.35300920271774], [-121.9380197089476, 37.353061893064236], [-121.93800342692022, 37.35311356360263], [-121.93798085203439, 37.353163716717404], [-121.9379522016986, 37.353211869406636], [-121.93791775183125, 37.35325755793361], [-121.9378778342034, 37.35330034229283], [-121.93783283324366, 37.35333981044754], [-121.93778318233582, 37.35337558229782], [-121.93772935964527, 37.353407313341215], [-121.93767188351397, 37.353434697990416], [-121.93761130746849, 37.35345747251629], [-121.93754821488922, 37.353475417587696], [-121.93748321339221, 37.35348836038379], [-121.93741692897741, 37.35349617625837], [-121.93735, 37.35349878994029], [-121.93728307102255, 37.35349617625837], [-121.93721678660775, 37.35348836038379], [-121.93715178511074, 37.353475417587696], [-121.9370886925315, 37.35345747251629], [-121.93702811648599, 37.353434697990416], [-121.93697064035469, 37.353407313341215], [-121.93691681766414, 37.35337558229782], [-121.9368671667563, 37.35333981044754], [-121.93682216579656, 37.35330034229283], [-121.93678224816871, 37.35325755793361], [-121.93674779830137, 37.353211869406636], [-121.93671914796558, 37.353163716717404], [-121.93669657307974, 37.35311356360263], [-121.93668029105235, 37.353061893064236], [-121.93667045868823, 37.35300920271774], [-121.9366671706784, 37.352956]]]}}]}