{
 "type": "FeatureCollection",
 "properties": {
  "project": "alameda-point",
  "source": "traced: Alameda Point Site A Development Plan (BAR Architects, July 25, 2022), Open Space & Parcel Diagrams, Parcel Diagram, p. 12",
  "sourceUrl": "https://legistar1.granicus.com/alameda/attachments/73ff7e59-888e-443a-afc5-9a808b1d2091.pdf",
  "sourceLabel": "Site A development plan (PDF)",
  "accuracy": "traced",
  "accuracyNote": "The dotted Site A boundary traced from the plan's Parcel Diagram, georeferenced to OpenStreetMap street centrelines at 8 intersections (RMS 2.5 m). 68.5 acres as drawn; the diagram states +/- 67.8 acres. Approximate boundary: parcel lines were not available.",
  "license": "Shape traced from a public City of Alameda document. Georeference: OpenStreetMap contributors (ODbL 1.0), via Overture Maps.",
  "georeference": {
   "scale_m_per_unit": 0.2422,
   "rotation_deg": -2.186,
   "rms_m": 2.54,
   "controls": [
    {
     "label": "Ardent Way / Coronado Avenue",
     "residual_m": 1.11
    },
    {
     "label": "Ardent Way / West Atlantic Avenue",
     "residual_m": 1.93
    },
    {
     "label": "Orion Street / Coronado Avenue",
     "residual_m": 1.99
    },
    {
     "label": "Orion Street / West Atlantic Avenue",
     "residual_m": 2.67
    },
    {
     "label": "Corsair Street / Coronado Avenue",
     "residual_m": 3.78
    },
    {
     "label": "Corsair Street / West Atlantic Avenue",
     "residual_m": 2.61
    },
    {
     "label": "Skylark Street / Coronado Avenue",
     "residual_m": 3.61
    },
    {
     "label": "Skylark Street / West Atlantic Avenue",
     "residual_m": 1.16
    }
   ],
   "dash_offset_px": 9.5
  }
 },
 "features": [
  {
   "type": "Feature",
   "properties": {
    "kind": "site",
    "name": "Project site"
   },
   "geometry": {
    "type": "Polygon",
    "coordinates": [
     [
      [
       -122.2999495,
       37.7805991
      ],
      [
       -122.3027958,
       37.7807023
      ],
      [
       -122.3028267,
       37.7801658
      ],
      [
       -122.2981545,
       37.7799965
      ],
      [
       -122.2981522,
       37.779968
      ],
      [
       -122.2981412,
       37.7799676
      ],
      [
       -122.2981828,
       37.7792458
      ],
      [
       -122.2975783,
       37.7792239
      ],
      [
       -122.2975719,
       37.7793364
      ],
      [
       -122.2975575,
       37.7793468
      ],
      [
       -122.2975569,
       37.7793564
      ],
      [
       -122.2975062,
       37.7793568
      ],
      [
       -122.2961074,
       37.7793061
      ],
      [
       -122.2960945,
       37.7792948
      ],
      [
       -122.2960803,
       37.7793051
      ],
      [
       -122.2913725,
       37.7791342
      ],
      [
       -122.2913692,
       37.7791909
      ],
      [
       -122.2913775,
       37.7791912
      ],
      [
       -122.2913795,
       37.7792031
      ],
      [
       -122.2913779,
       37.7792315
      ],
      [
       -122.2913853,
       37.779247
      ],
      [
       -122.2913825,
       37.7792941
      ],
      [
       -122.2913907,
       37.7792953
      ],
      [
       -122.2913913,
       37.7793325
      ],
      [
       -122.2913984,
       37.7793524
      ],
      [
       -122.291396,
       37.7793951
      ],
      [
       -122.2914097,
       37.7793956
      ],
      [
       -122.2914145,
       37.7794076
      ],
      [
       -122.2914125,
       37.7794437
      ],
      [
       -122.2914234,
       37.7794441
      ],
      [
       -122.2914284,
       37.779454
      ],
      [
       -122.2914262,
       37.7794923
      ],
      [
       -122.2914399,
       37.7794928
      ],
      [
       -122.291445,
       37.7795486
      ],
      [
       -122.2914597,
       37.7801522
      ],
      [
       -122.291465,
       37.7801568
      ],
      [
       -122.2914623,
       37.7802026
      ],
      [
       -122.2914674,
       37.7802093
      ],
      [
       -122.2914648,
       37.7802551
      ],
      [
       -122.2914719,
       37.7803231
      ],
      [
       -122.2914719,
       37.7805132
      ],
      [
       -122.2914772,
       37.7805178
      ],
      [
       -122.2914794,
       37.7807189
      ],
      [
       -122.2914843,
       37.7807278
      ],
      [
       -122.2914818,
       37.7807714
      ],
      [
       -122.2914888,
       37.7807935
      ],
      [
       -122.2914868,
       37.7809246
      ],
      [
       -122.291492,
       37.7809291
      ],
      [
       -122.2914892,
       37.7809771
      ],
      [
       -122.2914944,
       37.7809838
      ],
      [
       -122.2914917,
       37.7810296
      ],
      [
       -122.2914967,
       37.7810386
      ],
      [
       -122.2914983,
       37.7812977
      ],
      [
       -122.2915038,
       37.7812979
      ],
      [
       -122.2915056,
       37.7813142
      ],
      [
       -122.2915105,
       37.7814686
      ],
      [
       -122.2915187,
       37.7814689
      ],
      [
       -122.2915114,
       37.7815963
      ],
      [
       -122.2915191,
       37.7817015
      ],
      [
       -122.2915163,
       37.7817494
      ],
      [
       -122.2915214,
       37.7817562
      ],
      [
       -122.2915188,
       37.781802
      ],
      [
       -122.2915236,
       37.7818131
      ],
      [
       -122.2915287,
       37.7821083
      ],
      [
       -122.2915338,
       37.782115
      ],
      [
       -122.2915311,
       37.7821608
      ],
      [
       -122.2915364,
       37.7821654
      ],
      [
       -122.2915336,
       37.7822133
      ],
      [
       -122.2915407,
       37.7822813
      ],
      [
       -122.2915408,
       37.7824714
      ],
      [
       -122.291546,
       37.782476
      ],
      [
       -122.2915434,
       37.7825218
      ],
      [
       -122.2915485,
       37.7825285
      ],
      [
       -122.291546,
       37.7825721
      ],
      [
       -122.2915512,
       37.7825767
      ],
      [
       -122.2915507,
       37.7827287
      ],
      [
       -122.2954976,
       37.7828676
      ],
      [
       -122.2957588,
       37.7828727
      ],
      [
       -122.2970144,
       37.7829182
      ],
      [
       -122.2970229,
       37.7829142
      ],
      [
       -122.2984543,
       37.7829683
      ],
      [
       -122.2984731,
       37.7829546
      ],
      [
       -122.2985682,
       37.7813029
      ],
      [
       -122.2985819,
       37.7813034
      ],
      [
       -122.2985838,
       37.7812717
      ],
      [
       -122.2985909,
       37.7812644
      ],
      [
       -122.2986336,
       37.781266
      ],
      [
       -122.2986356,
       37.7812529
      ],
      [
       -122.2999065,
       37.781299
      ],
      [
       -122.2999495,
       37.7805991
      ]
     ]
    ]
   }
  }
 ]
}
