{
 "type": "FeatureCollection",
 "properties": {
  "project": "bart-silicon-valley-phase-2",
  "source": "GIS: VTA, BSVII_Alignment_2022 (track alignment) and BSV Phase II Stations, public hosted feature services on gis.vta.org",
  "sourceLabel": "VTA GIS alignment",
  "sourceUrl": "https://gis.vta.org/gis/rest/services/Hosted/BSVII_Alignment_2022/FeatureServer/22",
  "accuracy": "official",
  "accuracyNote": "Alignment from VTA's published GIS layer of the project's tracks (dated 2022 in its name), drawn as the centreline between the two tracks. 6.5 miles as drawn including the tail track west of Santa Clara (6.2 miles from Berryessa/North San José to the Santa Clara station; VTA and FTA describe about 6 miles); the tunnel section is 5.0 miles (FTA: about five). Station points are VTA's published station sites, not platform outlines. The design may shift as VTA re-baselines the project; Newhall Yard and the portals are not drawn. The site shown is a 60 m corridor around the alignment, for selecting it on the map; it is not a property line.",
  "license": "VTA public GIS service (gis.vta.org, ArcGIS Enterprise hosted feature services shared publicly); no license or terms of use stated on the service or its portal item.",
  "lengthMiles": 6.54,
  "tunnelMiles": 5.02,
  "berryessaToSantaClaraMiles": 6.22,
  "layers": {
   "alignment": "https://gis.vta.org/gis/rest/services/Hosted/BSVII_Alignment_2022/FeatureServer/22",
   "stations": "https://gis.vta.org/gis/rest/services/Hosted/BSV_Phase_II_Stations/FeatureServer/0",
   "phase1Stations": "https://gis.vta.org/gis/rest/services/Hosted/BSV_Phase_II_Construction/FeatureServer/11"
  },
  "corridor": true,
  "corridorMetres": 60
 },
 "features": [
  {
   "type": "Feature",
   "properties": {
    "kind": "site",
    "name": "Alignment corridor"
   },
   "geometry": {
    "type": "MultiPolygon",
    "coordinates": [
     [
      [
       [
        -121.901078,
        37.331464
       ],
       [
        -121.901337,
        37.331212
       ],
       [
        -121.901714,
        37.331124
       ],
       [
        -121.902089,
        37.331219
       ],
       [
        -121.902316,
        37.331431
       ],
       [
        -121.904564,
        37.331376
       ],
       [
        -121.905323,
        37.331421
       ],
       [
        -121.906531,
        37.331709
       ],
       [
        -121.907385,
        37.33212
       ],
       [
        -121.908135,
        37.332699
       ],
       [
        -121.908691,
        37.333389
       ],
       [
        -121.909734,
        37.335975
       ],
       [
        -121.91045,
        37.337046
       ],
       [
        -121.916772,
        37.342902
       ],
       [
        -121.918169,
        37.344034
       ],
       [
        -121.919914,
        37.345014
       ],
       [
        -121.928221,
        37.348975
       ],
       [
        -121.938716,
        37.354586
       ],
       [
        -121.939202,
        37.354786
       ],
       [
        -121.94069,
        37.355144
       ],
       [
        -121.941328,
        37.355418
       ],
       [
        -121.941903,
        37.355815
       ],
       [
        -121.94258,
        37.35651
       ],
       [
        -121.942679,
        37.356814
       ],
       [
        -121.94255,
        37.35711
       ],
       [
        -121.942173,
        37.357315
       ],
       [
        -121.941659,
        37.357259
       ],
       [
        -121.940903,
        37.356544
       ],
       [
        -121.940479,
        37.356268
       ],
       [
        -121.938308,
        37.355647
       ],
       [
        -121.934067,
        37.353412
       ],
       [
        -121.933937,
        37.353606
       ],
       [
        -121.93367,
        37.35376
       ],
       [
        -121.933411,
        37.353799
       ],
       [
        -121.933092,
        37.353732
       ],
       [
        -121.932851,
        37.353554
       ],
       [
        -121.932743,
        37.353305
       ],
       [
        -121.932795,
        37.353046
       ],
       [
        -121.932991,
        37.352839
       ],
       [
        -121.92749,
        37.349885
       ],
       [
        -121.919207,
        37.345937
       ],
       [
        -121.917293,
        37.344859
       ],
       [
        -121.915758,
        37.34362
       ],
       [
        -121.909353,
        37.33768
       ],
       [
        -121.908479,
        37.336381
       ],
       [
        -121.90748,
        37.333874
       ],
       [
        -121.907078,
        37.333375
       ],
       [
        -121.906572,
        37.332985
       ],
       [
        -121.905765,
        37.332625
       ],
       [
        -121.904858,
        37.332467
       ],
       [
        -121.89983,
        37.332599
       ],
       [
        -121.899247,
        37.332717
       ],
       [
        -121.898595,
        37.332972
       ],
       [
        -121.890847,
        37.336651
       ],
       [
        -121.890765,
        37.336878
       ],
       [
        -121.890541,
        37.33707
       ],
       [
        -121.89023,
        37.337156
       ],
       [
        -121.889886,
        37.337107
       ],
       [
        -121.867768,
        37.347634
       ],
       [
        -121.867046,
        37.348022
       ],
       [
        -121.866488,
        37.348509
       ],
       [
        -121.866117,
        37.349134
       ],
       [
        -121.865999,
        37.349684
       ],
       [
        -121.866059,
        37.353498
       ],
       [
        -121.866174,
        37.354137
       ],
       [
        -121.866432,
        37.354641
       ],
       [
        -121.866947,
        37.355173
       ],
       [
        -121.870094,
        37.357377
       ],
       [
        -121.870966,
        37.358072
       ],
       [
        -121.871667,
        37.3588
       ],
       [
        -121.8723,
        37.359677
       ],
       [
        -121.872877,
        37.360893
       ],
       [
        -121.874338,
        37.365274
       ],
       [
        -121.874287,
        37.365585
       ],
       [
        -121.874027,
        37.365821
       ],
       [
        -121.873647,
        37.365902
       ],
       [
        -121.873275,
        37.3658
       ],
       [
        -121.873015,
        37.365501
       ],
       [
        -121.87147,
        37.360921
       ],
       [
        -121.870759,
        37.359674
       ],
       [
        -121.870231,
        37.35906
       ],
       [
        -121.869581,
        37.358475
       ],
       [
        -121.865966,
        37.355919
       ],
       [
        -121.865382,
        37.355344
       ],
       [
        -121.86496,
        37.35466
       ],
       [
        -121.864732,
        37.353833
       ],
       [
        -121.864666,
        37.351735
       ],
       [
        -121.864498,
        37.351373
       ],
       [
        -121.864652,
        37.351036
       ],
       [
        -121.864635,
        37.34985
       ],
       [
        -121.86473,
        37.349109
       ],
       [
        -121.864937,
        37.348551
       ],
       [
        -121.865351,
        37.347921
       ],
       [
        -121.866159,
        37.347205
       ],
       [
        -121.867056,
        37.346714
       ],
       [
        -121.897918,
        37.332035
       ],
       [
        -121.8985,
        37.331792
       ],
       [
        -121.899276,
        37.331584
       ],
       [
        -121.901078,
        37.331464
       ]
      ]
     ],
     [
      [
       [
        -121.873906,
        37.368305
       ],
       [
        -121.87424,
        37.367988
       ],
       [
        -121.874756,
        37.367952
       ],
       [
        -121.875153,
        37.368219
       ],
       [
        -121.875198,
        37.368631
       ],
       [
        -121.874864,
        37.368948
       ],
       [
        -121.874348,
        37.368984
       ],
       [
        -121.873951,
        37.368717
       ],
       [
        -121.873906,
        37.368305
       ]
      ]
     ]
    ]
   }
  }
 ]
}
