{
 "type": "FeatureCollection",
 "properties": {
  "project": "brisbane-baylands",
  "source": "City of Brisbane, Baylands Specific Plan Boundary (marked draft, 2022)",
  "sourceLabel": "Brisbane\u2019s draft plan boundary",
  "sourceUrl": "https://services9.arcgis.com/UGpGSV1ugL0pHSgX/arcgis/rest/services/Baylands_Specific_Plan_Boundary_DRAFT_Map_WFL1/FeatureServer/1",
  "query": "https://services9.arcgis.com/UGpGSV1ugL0pHSgX/arcgis/rest/services/Baylands_Specific_Plan_Boundary_DRAFT_Map_WFL1/FeatureServer/1/query?where=1%3D1&outFields=%2A&outSR=4326&f=geojson",
  "accuracy": "approximate",
  "accuracyNote": "The city's draft specific plan boundary layer, about 700 acres against the plan's 680.1. Approximate until a final layer or the 2026 plan figures are traced. 642.7 acres as drawn.",
  "license": "City of Brisbane public layer (no license stated)",
  "features_used": 1
 },
 "features": [
  {
   "type": "Feature",
   "properties": {
    "kind": "site",
    "name": "Project site"
   },
   "geometry": {
    "type": "MultiPolygon",
    "coordinates": [
     [
      [
       [
        -122.4016439,
        37.7083476
       ],
       [
        -122.4014848,
        37.7083475
       ],
       [
        -122.4010926,
        37.705256
       ],
       [
        -122.3982248,
        37.7054846
       ],
       [
        -122.3972333,
        37.7055091
       ],
       [
        -122.3968014,
        37.7060288
       ],
       [
        -122.3969219,
        37.7066358
       ],
       [
        -122.3958012,
        37.7069127
       ],
       [
        -122.3954304,
        37.7068316
       ],
       [
        -122.3922008,
        37.6925351
       ],
       [
        -122.3921885,
        37.692146
       ],
       [
        -122.3922944,
        37.6913847
       ],
       [
        -122.3925328,
        37.6913871
       ],
       [
        -122.3925281,
        37.6911231
       ],
       [
        -122.3924908,
        37.6908565
       ],
       [
        -122.3924211,
        37.6905942
       ],
       [
        -122.3923198,
        37.6903385
       ],
       [
        -122.3922077,
        37.6901351
       ],
       [
        -122.3919639,
        37.6897909
       ],
       [
        -122.3919577,
        37.689727
       ],
       [
        -122.3920074,
        37.6896513
       ],
       [
        -122.3919404,
        37.6894914
       ],
       [
        -122.3918564,
        37.6894919
       ],
       [
        -122.391804,
        37.6894771
       ],
       [
        -122.3917298,
        37.689413
       ],
       [
        -122.3915919,
        37.6891464
       ],
       [
        -122.391265,
        37.6883913
       ],
       [
        -122.3892403,
        37.6793635
       ],
       [
        -122.3891745,
        37.6788995
       ],
       [
        -122.3891446,
        37.6784331
       ],
       [
        -122.3891672,
        37.677733
       ],
       [
        -122.3892271,
        37.6772684
       ],
       [
        -122.3893228,
        37.6768077
       ],
       [
        -122.3894538,
        37.6763525
       ],
       [
        -122.3896195,
        37.6759046
       ],
       [
        -122.3898542,
        37.6765294
       ],
       [
        -122.3900508,
        37.6769352
       ],
       [
        -122.3901551,
        37.677118
       ],
       [
        -122.3901626,
        37.6770235
       ],
       [
        -122.3903542,
        37.6773647
       ],
       [
        -122.3905679,
        37.6776975
       ],
       [
        -122.3909804,
        37.6782513
       ],
       [
        -122.3946106,
        37.6826316
       ],
       [
        -122.3946209,
        37.6826732
       ],
       [
        -122.3945377,
        37.6831491
       ],
       [
        -122.3946447,
        37.683274
       ],
       [
        -122.3951809,
        37.6834174
       ],
       [
        -122.396953,
        37.6852338
       ],
       [
        -122.3977778,
        37.686268
       ],
       [
        -122.399155,
        37.687915
       ],
       [
        -122.3992667,
        37.6879171
       ],
       [
        -122.3991881,
        37.688054
       ],
       [
        -122.3995098,
        37.6885403
       ],
       [
        -122.3998498,
        37.6891014
       ],
       [
        -122.4001054,
        37.6895617
       ],
       [
        -122.4004163,
        37.6901854
       ],
       [
        -122.4008204,
        37.691139
       ],
       [
        -122.4010475,
        37.691785
       ],
       [
        -122.4013241,
        37.6927669
       ],
       [
        -122.4014651,
        37.6934283
       ],
       [
        -122.4015712,
        37.6940939
       ],
       [
        -122.4016507,
        37.7007747
       ],
       [
        -122.4016439,
        37.7083476
       ]
      ],
      [
       [
        -122.4002633,
        37.6905411
       ],
       [
        -122.3998625,
        37.6897109
       ],
       [
        -122.3995622,
        37.6891682
       ],
       [
        -122.3992373,
        37.6886376
       ],
       [
        -122.3986797,
        37.688749
       ],
       [
        -122.3982722,
        37.6901057
       ],
       [
        -122.3982505,
        37.6902859
       ],
       [
        -122.3982606,
        37.6904665
       ],
       [
        -122.3983024,
        37.6906441
       ],
       [
        -122.3994901,
        37.6942572
       ],
       [
        -122.3999216,
        37.6941683
       ],
       [
        -122.400837,
        37.6937817
       ],
       [
        -122.4012768,
        37.693646
       ],
       [
        -122.4010787,
        37.6926948
       ],
       [
        -122.4008056,
        37.6917531
       ],
       [
        -122.4005569,
        37.6910693
       ],
       [
        -122.4003294,
        37.6905262
       ],
       [
        -122.4002633,
        37.6905411
       ]
      ],
      [
       [
        -122.3991518,
        37.7036071
       ],
       [
        -122.400527,
        37.7035005
       ],
       [
        -122.4003283,
        37.701932
       ],
       [
        -122.3989561,
        37.7020421
       ],
       [
        -122.3991518,
        37.7036071
       ]
      ],
      [
       [
        -122.3997821,
        37.6947233
       ],
       [
        -122.3998721,
        37.6947232
       ],
       [
        -122.3999828,
        37.6944501
       ],
       [
        -122.399727,
        37.6945498
       ],
       [
        -122.3997821,
        37.6947233
       ]
      ]
     ],
     [
      [
       [
        -122.40825,
        37.7006685
       ],
       [
        -122.4082757,
        37.7011375
       ],
       [
        -122.4082483,
        37.7014504
       ],
       [
        -122.408188,
        37.7017574
       ],
       [
        -122.4080371,
        37.7022072
       ],
       [
        -122.4078971,
        37.7024973
       ],
       [
        -122.4070983,
        37.7039636
       ],
       [
        -122.4069021,
        37.7043605
       ],
       [
        -122.4052194,
        37.7081315
       ],
       [
        -122.4048759,
        37.7080365
       ],
       [
        -122.4047362,
        37.7083465
       ],
       [
        -122.4019896,
        37.7083475
       ],
       [
        -122.4019976,
        37.6993045
       ],
       [
        -122.4019456,
        37.6943154
       ],
       [
        -122.4018603,
        37.6936946
       ],
       [
        -122.4017452,
        37.6930771
       ],
       [
        -122.4016004,
        37.6924635
       ],
       [
        -122.401328,
        37.6915525
       ],
       [
        -122.400891,
        37.6904243
       ],
       [
        -122.4005774,
        37.6897535
       ],
       [
        -122.4001421,
        37.6889528
       ],
       [
        -122.3998216,
        37.6884302
       ],
       [
        -122.3994772,
        37.6879173
       ],
       [
        -122.3987925,
        37.6869894
       ],
       [
        -122.3981698,
        37.6862683
       ],
       [
        -122.3985645,
        37.6862686
       ],
       [
        -122.399948,
        37.6879169
       ],
       [
        -122.4011251,
        37.6879187
       ],
       [
        -122.4016133,
        37.6882999
       ],
       [
        -122.4021274,
        37.6887627
       ],
       [
        -122.4025856,
        37.6892611
       ],
       [
        -122.4029842,
        37.6897909
       ],
       [
        -122.4031032,
        37.6899738
       ],
       [
        -122.4020624,
        37.6901534
       ],
       [
        -122.4018429,
        37.6901756
       ],
       [
        -122.4004713,
        37.6885412
       ],
       [
        -122.4001609,
        37.6887021
       ],
       [
        -122.4008442,
        37.6898844
       ],
       [
        -122.4010099,
        37.690037
       ],
       [
        -122.4011469,
        37.6901169
       ],
       [
        -122.4012985,
        37.6901754
       ],
       [
        -122.4013997,
        37.6901428
       ],
       [
        -122.4018121,
        37.6906297
       ],
       [
        -122.4019431,
        37.6904988
       ],
       [
        -122.402094,
        37.6903798
       ],
       [
        -122.4023563,
        37.6902359
       ],
       [
        -122.402651,
        37.6901393
       ],
       [
        -122.4031502,
        37.6900501
       ],
       [
        -122.4033997,
        37.6905033
       ],
       [
        -122.4055138,
        37.6947672
       ],
       [
        -122.4054019,
        37.6949105
       ],
       [
        -122.405481,
        37.6950045
       ],
       [
        -122.4056565,
        37.6950552
       ],
       [
        -122.4080231,
        37.6998369
       ],
       [
        -122.4081114,
        37.7000629
       ],
       [
        -122.4075214,
        37.7002158
       ],
       [
        -122.4077738,
        37.7008399
       ],
       [
        -122.4078066,
        37.7008701
       ],
       [
        -122.4078684,
        37.7008852
       ],
       [
        -122.4080149,
        37.700877
       ],
       [
        -122.4081302,
        37.7008537
       ],
       [
        -122.4082121,
        37.7007894
       ],
       [
        -122.40825,
        37.7006685
       ]
      ]
     ]
    ]
   }
  }
 ]
}
