{
 "type": "FeatureCollection",
 "properties": {
  "project": "brooklyn-basin",
  "source": "City of Oakland zoning, D-OTN (Ordinance 12759)",
  "sourceLabel": "Oakland zoning",
  "sourceUrl": "https://services.arcgis.com/9tC74aDHuml0x5Yz/arcgis/rest/services/Zoning_Group_Layers_/FeatureServer/0",
  "query": "https://services.arcgis.com/9tC74aDHuml0x5Yz/arcgis/rest/services/Zoning_Group_Layers_/FeatureServer/0/query?where=BASEZONE+%3D+%27D-OTN%27&outFields=%2A&outSR=4326&f=geojson",
  "accuracy": "approximate",
  "accuracyNote": "The development parcels zoned D-OTN (about 31 acres). The parks and open space, about half the 64-acre site, sit in a larger open-space zone and aren't drawn yet. 31.1 acres as drawn.",
  "license": "City of Oakland Planning & Building (for reference only)",
  "features_used": 3
 },
 "features": [
  {
   "type": "Feature",
   "properties": {
    "kind": "site",
    "name": "Project site"
   },
   "geometry": {
    "type": "MultiPolygon",
    "coordinates": [
     [
      [
       [
        -122.2602441,
        37.7875885
       ],
       [
        -122.2585477,
        37.7887928
       ],
       [
        -122.2586023,
        37.7888524
       ],
       [
        -122.2583394,
        37.7890332
       ],
       [
        -122.25842,
        37.789154
       ],
       [
        -122.2584583,
        37.7892694
       ],
       [
        -122.2584634,
        37.7893885
       ],
       [
        -122.2584258,
        37.7895282
       ],
       [
        -122.2563204,
        37.7891067
       ],
       [
        -122.2541949,
        37.7887545
       ],
       [
        -122.2542956,
        37.788741
       ],
       [
        -122.2543743,
        37.7887042
       ],
       [
        -122.2544468,
        37.7886224
       ],
       [
        -122.2545298,
        37.7883684
       ],
       [
        -122.2546764,
        37.7881334
       ],
       [
        -122.2548805,
        37.7879273
       ],
       [
        -122.2551335,
        37.7877588
       ],
       [
        -122.2553384,
        37.7876654
       ],
       [
        -122.258203,
        37.7865804
       ],
       [
        -122.2593522,
        37.7870202
       ],
       [
        -122.2594101,
        37.7870531
       ],
       [
        -122.2594715,
        37.7871275
       ],
       [
        -122.2594833,
        37.7872301
       ],
       [
        -122.2594286,
        37.7873239
       ],
       [
        -122.2593095,
        37.7873874
       ],
       [
        -122.2593364,
        37.7874303
       ],
       [
        -122.2598079,
        37.7872289
       ],
       [
        -122.2602441,
        37.7875885
       ]
      ]
     ],
     [
      [
       [
        -122.261918,
        37.7888183
       ],
       [
        -122.2614011,
        37.7891851
       ],
       [
        -122.2610053,
        37.7888379
       ],
       [
        -122.2606736,
        37.7890755
       ],
       [
        -122.2610603,
        37.789427
       ],
       [
        -122.2601841,
        37.790049
       ],
       [
        -122.2596206,
        37.7898378
       ],
       [
        -122.2590381,
        37.7896622
       ],
       [
        -122.2593227,
        37.7894608
       ],
       [
        -122.2594127,
        37.7895342
       ],
       [
        -122.2612606,
        37.788238
       ],
       [
        -122.261918,
        37.7888183
       ]
      ]
     ],
     [
      [
       [
        -122.2631313,
        37.7899567
       ],
       [
        -122.2631086,
        37.7900086
       ],
       [
        -122.2630578,
        37.7900457
       ],
       [
        -122.2629771,
        37.7900587
       ],
       [
        -122.2628877,
        37.7900276
       ],
       [
        -122.2626467,
        37.7901563
       ],
       [
        -122.262481,
        37.7903125
       ],
       [
        -122.2623719,
        37.7904976
       ],
       [
        -122.2621644,
        37.7906494
       ],
       [
        -122.2616232,
        37.7905914
       ],
       [
        -122.2611692,
        37.7904739
       ],
       [
        -122.2608216,
        37.7903377
       ],
       [
        -122.2623963,
        37.7892686
       ],
       [
        -122.2631068,
        37.7898834
       ],
       [
        -122.2631313,
        37.7899567
       ]
      ]
     ]
    ]
   }
  }
 ]
}
