{
 "type": "FeatureCollection",
 "properties": {
  "project": "cahsr-sf-sj",
  "source": "GIS: U.S. DOT Bureau of Transportation Statistics, NTAD North American Rail Network Lines, Caltrain-owned (JPBX) main line, routed between the FRA nodes nearest Fourth and King and San José Diridon (65 arcs)",
  "sourceLabel": "U.S. DOT/BTS National Transportation Atlas (rail network); Caltrain GTFS stations",
  "sourceUrl": "https://services.arcgis.com/xOi1kZaI0eWDREZv/arcgis/rest/services/NTAD_North_American_Rail_Network_Lines/FeatureServer/0",
  "accuracy": "approximate",
  "accuracyNote": "Approximate alignment (shared Caltrain corridor): the federal rail network's centreline for Caltrain's existing tracks, 46.8 miles from Fourth and King to San José Diridon. High-speed trains would share these tracks (Final EIR/EIS Alternative A, about 49 miles to West Alma Avenue); the line is not the Authority's engineered alignment and shows one centreline for a two-to-four-track corridor. It is split at Scott Boulevard, the ROD's south limit for this section (ROD point, 'approximate'). Stations are Caltrain's GTFS station points. The site shown is a 60 m corridor around the alignment, for selecting it on the map; it is not a property line.",
  "license": "Line: Public domain: 'a work of the United States government as defined in 17 U.S.C. § 101 ... available for unrestricted public use' (service copyright text). Stations: Peninsula Corridor Joint Powers Board developer licence: non-exclusive, limited and revocable rights to use, reproduce and redistribute the data (https://www.caltrain.com/developer-resources).",
  "otherSources": [
   "https://hsr.ca.gov/wp-content/uploads/2022/10/FJ-Final-ROD-Combined-A11Y.pdf",
   "https://www.caltrain.com/developer-resources"
  ],
  "fraArcIds": [
   343266,
   328489,
   345753,
   333486,
   345754,
   328951,
   338136,
   536108,
   536109,
   332375,
   340430,
   329788,
   337896,
   340785,
   343209,
   345868,
   535325,
   535326,
   342019,
   536461,
   536462,
   336743,
   329990,
   334095,
   535353,
   535354,
   535352,
   337692,
   330202,
   340771,
   344031,
   326720,
   345835,
   326755,
   332548,
   336453,
   324842,
   535286,
   535287,
   524250,
   535337,
   535338,
   325494,
   327641,
   323984,
   524273,
   332060,
   333117,
   343532,
   339262,
   331119,
   340393,
   327989,
   341412,
   536124,
   536125,
   329819,
   334510,
   327525,
   341261,
   343461,
   325860,
   324154,
   334753,
   327332
  ],
  "check": "Compared locally (not published) with the Authority's Alignment_Hybrid layer, section 'San Francisco to San Jose': median 3 m, 95th percentile 11 m, max 33 m apart, sampled every 100 m.",
  "corridor": true,
  "corridorMetres": 60
 },
 "features": [
  {
   "type": "Feature",
   "properties": {
    "kind": "site",
    "name": "Alignment corridor"
   },
   "geometry": {
    "type": "Polygon",
    "coordinates": [
     [
      [
       -121.902378,
       37.329564
      ],
      [
       -121.903019,
       37.329175
      ],
      [
       -121.903348,
       37.329165
      ],
      [
       -121.903644,
       37.32928
      ],
      [
       -121.903858,
       37.329543
      ],
      [
       -121.903831,
       37.329907
      ],
      [
       -121.903576,
       37.330148
      ],
      [
       -121.903604,
       37.330549
      ],
      [
       -121.90393,
       37.331578
      ],
      [
       -121.904056,
       37.332774
      ],
      [
       -121.90445,
       37.333449
      ],
      [
       -121.907859,
       37.336671
      ],
      [
       -121.908302,
       37.337244
      ],
      [
       -121.909195,
       37.338822
      ],
      [
       -121.910059,
       37.339654
      ],
      [
       -121.910643,
       37.340074
      ],
      [
       -121.911328,
       37.340414
      ],
      [
       -121.913467,
       37.341166
      ],
      [
       -121.936698,
       37.352932
      ],
      [
       -121.939974,
       37.354474
      ],
      [
       -121.940665,
       37.354721
      ],
      [
       -121.973157,
       37.368847
      ],
      [
       -121.975402,
       37.369513
      ],
      [
       -121.976889,
       37.369788
      ],
      [
       -121.978668,
       37.369968
      ],
      [
       -121.992971,
       37.369908
      ],
      [
       -122.000336,
       37.370256
      ],
      [
       -122.004082,
       37.370945
      ],
      [
       -122.01565,
       37.3733
      ],
      [
       -122.01733,
       37.373702
      ],
      [
       -122.026426,
       37.37664
      ],
      [
       -122.062902,
       37.388684
      ],
      [
       -122.103022,
       37.404589
      ],
      [
       -122.104476,
       37.405209
      ],
      [
       -122.105929,
       37.405957
      ],
      [
       -122.159219,
       37.43954
      ],
      [
       -122.162814,
       37.4416
      ],
      [
       -122.166408,
       37.443854
      ],
      [
       -122.170123,
       37.446415
      ],
      [
       -122.241905,
       37.491736
      ],
      [
       -122.24389,
       37.49309
      ],
      [
       -122.245575,
       37.494446
      ],
      [
       -122.26814,
       37.514112
      ],
      [
       -122.272097,
       37.517049
      ],
      [
       -122.282685,
       37.525814
      ],
      [
       -122.291305,
       37.531671
      ],
      [
       -122.294078,
       37.533761
      ],
      [
       -122.295249,
       37.534759
      ],
      [
       -122.300432,
       37.54032
      ],
      [
       -122.308085,
       37.549369
      ],
      [
       -122.309272,
       37.55116
      ],
      [
       -122.31127,
       37.555282
      ],
      [
       -122.312405,
       37.556821
      ],
      [
       -122.327753,
       37.570921
      ],
      [
       -122.329712,
       37.572565
      ],
      [
       -122.331656,
       37.573805
      ],
      [
       -122.333404,
       37.574689
      ],
      [
       -122.367381,
       37.588958
      ],
      [
       -122.38142,
       37.594924
      ],
      [
       -122.383014,
       37.595768
      ],
      [
       -122.384543,
       37.59692
      ],
      [
       -122.398667,
       37.610738
      ],
      [
       -122.400137,
       37.61237
      ],
      [
       -122.407438,
       37.622094
      ],
      [
       -122.409535,
       37.625559
      ],
      [
       -122.412837,
       37.631287
      ],
      [
       -122.41339,
       37.632484
      ],
      [
       -122.413624,
       37.633789
      ],
      [
       -122.413783,
       37.640723
      ],
      [
       -122.413753,
       37.642885
      ],
      [
       -122.413334,
       37.64528
      ],
      [
       -122.412562,
       37.647361
      ],
      [
       -122.412076,
       37.648306
      ],
      [
       -122.410966,
       37.649946
      ],
      [
       -122.407184,
       37.654499
      ],
      [
       -122.391671,
       37.67057
      ],
      [
       -122.390846,
       37.671787
      ],
      [
       -122.390487,
       37.672658
      ],
      [
       -122.390295,
       37.673462
      ],
      [
       -122.390233,
       37.674296
      ],
      [
       -122.390331,
       37.675256
      ],
      [
       -122.390756,
       37.676519
      ],
      [
       -122.391211,
       37.677322
      ],
      [
       -122.392165,
       37.678544
      ],
      [
       -122.399105,
       37.686716
      ],
      [
       -122.399963,
       37.687881
      ],
      [
       -122.400793,
       37.689245
      ],
      [
       -122.401466,
       37.690659
      ],
      [
       -122.401985,
       37.692149
      ],
      [
       -122.402331,
       37.693747
      ],
      [
       -122.402484,
       37.695307
      ],
      [
       -122.402511,
       37.708157
      ],
      [
       -122.40238,
       37.710025
      ],
      [
       -122.401857,
       37.711946
      ],
      [
       -122.397754,
       37.723379
      ],
      [
       -122.397294,
       37.725031
      ],
      [
       -122.393147,
       37.754764
      ],
      [
       -122.393231,
       37.760115
      ],
      [
       -122.393526,
       37.763094
      ],
      [
       -122.393881,
       37.764402
      ],
      [
       -122.394531,
       37.765434
      ],
      [
       -122.395036,
       37.765952
      ],
      [
       -122.400424,
       37.770312
      ],
      [
       -122.400803,
       37.77083
      ],
      [
       -122.40097,
       37.77165
      ],
      [
       -122.400809,
       37.772261
      ],
      [
       -122.400523,
       37.772694
      ],
      [
       -122.398935,
       37.774139
      ],
      [
       -122.39798,
       37.7749
      ],
      [
       -122.397014,
       37.775928
      ],
      [
       -122.395551,
       37.777077
      ],
      [
       -122.395118,
       37.777198
      ],
      [
       -122.394637,
       37.777039
      ],
      [
       -122.394258,
       37.776558
      ],
      [
       -122.394312,
       37.776146
      ],
      [
       -122.394654,
       37.775903
      ],
      [
       -122.395126,
       37.775891
      ],
      [
       -122.396025,
       37.775183
      ],
      [
       -122.396945,
       37.774195
      ],
      [
       -122.399416,
       37.772061
      ],
      [
       -122.39959,
       37.77172
      ],
      [
       -122.399592,
       37.771397
      ],
      [
       -122.399348,
       37.77098
      ],
      [
       -122.393982,
       37.766638
      ],
      [
       -122.393374,
       37.766006
      ],
      [
       -122.392609,
       37.764791
      ],
      [
       -122.392179,
       37.763256
      ],
      [
       -122.391999,
       37.761857
      ],
      [
       -122.391813,
       37.758642
      ],
      [
       -122.391787,
       37.754708
      ],
      [
       -122.395948,
       37.724868
      ],
      [
       -122.396441,
       37.72309
      ],
      [
       -122.400544,
       37.711662
      ],
      [
       -122.401028,
       37.709895
      ],
      [
       -122.40115,
       37.708153
      ],
      [
       -122.401123,
       37.695352
      ],
      [
       -122.400982,
       37.693892
      ],
      [
       -122.400659,
       37.692395
      ],
      [
       -122.400167,
       37.690984
      ],
      [
       -122.399541,
       37.689669
      ],
      [
       -122.398764,
       37.688393
      ],
      [
       -122.397964,
       37.687306
      ],
      [
       -122.391032,
       37.679144
      ],
      [
       -122.39,
       37.677816
      ],
      [
       -122.389473,
       37.676881
      ],
      [
       -122.388989,
       37.675438
      ],
      [
       -122.388872,
       37.674323
      ],
      [
       -122.388943,
       37.673344
      ],
      [
       -122.389174,
       37.672373
      ],
      [
       -122.38958,
       37.671389
      ],
      [
       -122.390559,
       37.669947
      ],
      [
       -122.406085,
       37.653861
      ],
      [
       -122.40981,
       37.649376
      ],
      [
       -122.410849,
       37.647839
      ],
      [
       -122.41173,
       37.645913
      ],
      [
       -122.412009,
       37.645033
      ],
      [
       -122.412397,
       37.642799
      ],
      [
       -122.412265,
       37.633827
      ],
      [
       -122.412065,
       37.632728
      ],
      [
       -122.411586,
       37.63171
      ],
      [
       -122.406221,
       37.622578
      ],
      [
       -122.398983,
       37.612942
      ],
      [
       -122.397606,
       37.611413
      ],
      [
       -122.383532,
       37.597642
      ],
      [
       -122.382161,
       37.596611
      ],
      [
       -122.380317,
       37.595673
      ],
      [
       -122.332756,
       37.57564
      ],
      [
       -122.330861,
       37.574682
      ],
      [
       -122.32881,
       37.573374
      ],
      [
       -122.326733,
       37.571635
      ],
      [
       -122.3125,
       37.558628
      ],
      [
       -122.311312,
       37.557463
      ],
      [
       -122.310599,
       37.556597
      ],
      [
       -122.310041,
       37.555744
      ],
      [
       -122.308021,
       37.551581
      ],
      [
       -122.306919,
       37.549925
      ],
      [
       -122.299325,
       37.540948
      ],
      [
       -122.294224,
       37.535469
      ],
      [
       -122.293126,
       37.534533
      ],
      [
       -122.290392,
       37.532471
      ],
      [
       -122.281738,
       37.526589
      ],
      [
       -122.271136,
       37.517813
      ],
      [
       -122.267177,
       37.514874
      ],
      [
       -122.244576,
       37.495178
      ],
      [
       -122.242954,
       37.493873
      ],
      [
       -122.241058,
       37.492581
      ],
      [
       -122.169277,
       37.44726
      ],
      [
       -122.165566,
       37.444702
      ],
      [
       -122.161991,
       37.442459
      ],
      [
       -122.158383,
       37.440391
      ],
      [
       -122.105143,
       37.406839
      ],
      [
       -122.103765,
       37.40613
      ],
      [
       -122.102411,
       37.405554
      ],
      [
       -122.062337,
       37.389667
      ],
      [
       -122.025911,
       37.377641
      ],
      [
       -122.016871,
       37.37472
      ],
      [
       -122.015302,
       37.374345
      ],
      [
       -122.003748,
       37.371993
      ],
      [
       -122.000175,
       37.37133
      ],
      [
       -121.992964,
       37.37099
      ],
      [
       -121.97856,
       37.371047
      ],
      [
       -121.976653,
       37.370854
      ],
      [
       -121.975064,
       37.370561
      ],
      [
       -121.972569,
       37.369821
      ],
      [
       -121.940042,
       37.355682
      ],
      [
       -121.939214,
       37.355386
      ],
      [
       -121.938991,
       37.355225
      ],
      [
       -121.935977,
       37.353848
      ],
      [
       -121.912768,
       37.342093
      ],
      [
       -121.910708,
       37.341376
      ],
      [
       -121.909846,
       37.340949
      ],
      [
       -121.909056,
       37.340381
      ],
      [
       -121.908083,
       37.33944
      ],
      [
       -121.907686,
       37.338871
      ],
      [
       -121.907103,
       37.337748
      ],
      [
       -121.906764,
       37.337309
      ],
      [
       -121.903815,
       37.334582
      ],
      [
       -121.903022,
       37.333629
      ],
      [
       -121.90273,
       37.332996
      ],
      [
       -121.902592,
       37.33175
      ],
      [
       -121.902255,
       37.330649
      ],
      [
       -121.902225,
       37.329796
      ],
      [
       -121.902378,
       37.329564
      ]
     ]
    ]
   }
  }
 ]
}
