{
 "type": "FeatureCollection",
 "properties": {
  "project": "candlestick-point",
  "source": "DataSF Former Redevelopment Agency Project Areas, \u201cBayview Hunters Point Area B Zone 1\u201d",
  "sourceLabel": "DataSF redevelopment project areas",
  "sourceUrl": "https://data.sf.gov/d/m288-24sn",
  "query": "https://data.sf.gov/resource/m288-24sn.geojson?%24where=project_ar+%3D+%27Bayview+Hunters+Point+Area+B+Zone+1%27&%24limit=5000",
  "accuracy": "official",
  "accuracyNote": "Zone 1 of Bayview Hunters Point Area B, the Candlestick Point redevelopment area (about 272 acres). 271.1 acres as drawn.",
  "license": "ODC Public Domain Dedication and License (DataSF)",
  "features_used": 1
 },
 "features": [
  {
   "type": "Feature",
   "properties": {
    "kind": "site",
    "name": "Project site"
   },
   "geometry": {
    "type": "Polygon",
    "coordinates": [
     [
      [
       -122.3932561,
       37.7084021
      ],
      [
       -122.3913798,
       37.7099341
      ],
      [
       -122.3911777,
       37.7100757
      ],
      [
       -122.3909822,
       37.7101644
      ],
      [
       -122.3907816,
       37.7102274
      ],
      [
       -122.3905454,
       37.7102709
      ],
      [
       -122.3893466,
       37.7103455
      ],
      [
       -122.3893311,
       37.7103354
      ],
      [
       -122.3889414,
       37.7103577
      ],
      [
       -122.3886866,
       37.7103889
      ],
      [
       -122.3881672,
       37.7105303
      ],
      [
       -122.3867227,
       37.7109664
      ],
      [
       -122.3866888,
       37.7109514
      ],
      [
       -122.3865257,
       37.7110024
      ],
      [
       -122.3867555,
       37.7112025
      ],
      [
       -122.3870314,
       37.7111311
      ],
      [
       -122.3870912,
       37.7111797
      ],
      [
       -122.3871505,
       37.7111486
      ],
      [
       -122.3893822,
       37.7130265
      ],
      [
       -122.3878862,
       37.7134644
      ],
      [
       -122.3880032,
       37.7137838
      ],
      [
       -122.3881626,
       37.7141047
      ],
      [
       -122.388341,
       37.7143889
      ],
      [
       -122.3885974,
       37.7147291
      ],
      [
       -122.3880361,
       37.7153572
      ],
      [
       -122.3882106,
       37.7158855
      ],
      [
       -122.3878093,
       37.7163567
      ],
      [
       -122.3879248,
       37.7164348
      ],
      [
       -122.3868542,
       37.717637
      ],
      [
       -122.3862823,
       37.717313
      ],
      [
       -122.3860815,
       37.717533
      ],
      [
       -122.3877616,
       37.7184895
      ],
      [
       -122.3879686,
       37.7182696
      ],
      [
       -122.3881486,
       37.7183717
      ],
      [
       -122.387949,
       37.7185959
      ],
      [
       -122.3898192,
       37.7196575
      ],
      [
       -122.3877606,
       37.7219314
      ],
      [
       -122.3840163,
       37.7198061
      ],
      [
       -122.3834629,
       37.7204149
      ],
      [
       -122.3834054,
       37.7204552
      ],
      [
       -122.3833867,
       37.7203425
      ],
      [
       -122.3833553,
       37.7203468
      ],
      [
       -122.383296,
       37.7202485
      ],
      [
       -122.383273,
       37.7201715
      ],
      [
       -122.3831911,
       37.7200895
      ],
      [
       -122.3828739,
       37.7199286
      ],
      [
       -122.3826918,
       37.7198717
      ],
      [
       -122.3823774,
       37.7196729
      ],
      [
       -122.381984,
       37.7194841
      ],
      [
       -122.3817277,
       37.7193311
      ],
      [
       -122.3816253,
       37.7191979
      ],
      [
       -122.3815427,
       37.7190139
      ],
      [
       -122.3813549,
       37.7188083
      ],
      [
       -122.3812565,
       37.7187616
      ],
      [
       -122.3811928,
       37.7187556
      ],
      [
       -122.3807855,
       37.7187799
      ],
      [
       -122.3806867,
       37.7187647
      ],
      [
       -122.3804145,
       37.7186832
      ],
      [
       -122.3802257,
       37.7185436
      ],
      [
       -122.3800308,
       37.7184606
      ],
      [
       -122.3799727,
       37.7184499
      ],
      [
       -122.3798352,
       37.7183676
      ],
      [
       -122.3797249,
       37.7183366
      ],
      [
       -122.3797054,
       37.7182797
      ],
      [
       -122.3797135,
       37.7182207
      ],
      [
       -122.3798471,
       37.7180456
      ],
      [
       -122.379874,
       37.7179712
      ],
      [
       -122.379861,
       37.7178825
      ],
      [
       -122.3798089,
       37.7178258
      ],
      [
       -122.3795107,
       37.7177248
      ],
      [
       -122.3792715,
       37.7177772
      ],
      [
       -122.3791844,
       37.7177694
      ],
      [
       -122.3788824,
       37.7176149
      ],
      [
       -122.378768,
       37.7175862
      ],
      [
       -122.3786776,
       37.7175231
      ],
      [
       -122.3784718,
       37.7174478
      ],
      [
       -122.3783324,
       37.7172517
      ],
      [
       -122.3782589,
       37.7172011
      ],
      [
       -122.3781248,
       37.7171547
      ],
      [
       -122.377981,
       37.7171689
      ],
      [
       -122.3779156,
       37.7171551
      ],
      [
       -122.3776011,
       37.7170163
      ],
      [
       -122.3770176,
       37.7166886
      ],
      [
       -122.3768092,
       37.7165604
      ],
      [
       -122.3766435,
       37.7164284
      ],
      [
       -122.3764611,
       37.7163378
      ],
      [
       -122.3764259,
       37.7163057
      ],
      [
       -122.3762942,
       37.7162512
      ],
      [
       -122.3762267,
       37.7161895
      ],
      [
       -122.3761966,
       37.7161238
      ],
      [
       -122.376195,
       37.7160581
      ],
      [
       -122.3762271,
       37.7159421
      ],
      [
       -122.3765883,
       37.7155137
      ],
      [
       -122.3767996,
       37.7151813
      ],
      [
       -122.3770295,
       37.7149498
      ],
      [
       -122.3770516,
       37.7148911
      ],
      [
       -122.3771317,
       37.7147779
      ],
      [
       -122.3771542,
       37.714675
      ],
      [
       -122.3773891,
       37.7143887
      ],
      [
       -122.3774156,
       37.714332
      ],
      [
       -122.3774633,
       37.7142999
      ],
      [
       -122.3776187,
       37.7142466
      ],
      [
       -122.3778898,
       37.7141726
      ],
      [
       -122.3778871,
       37.7141145
      ],
      [
       -122.3778193,
       37.7140709
      ],
      [
       -122.3778333,
       37.7140404
      ],
      [
       -122.378234,
       37.7137215
      ],
      [
       -122.3783839,
       37.7136957
      ],
      [
       -122.3784345,
       37.7136075
      ],
      [
       -122.3784438,
       37.7135413
      ],
      [
       -122.378601,
       37.7133471
      ],
      [
       -122.3786573,
       37.7132918
      ],
      [
       -122.3788381,
       37.713183
      ],
      [
       -122.3789543,
       37.7130641
      ],
      [
       -122.3790788,
       37.7128452
      ],
      [
       -122.3793711,
       37.712462
      ],
      [
       -122.3794636,
       37.7122746
      ],
      [
       -122.3795159,
       37.7122126
      ],
      [
       -122.3795921,
       37.7120606
      ],
      [
       -122.3797104,
       37.7119156
      ],
      [
       -122.3797821,
       37.7117659
      ],
      [
       -122.3800372,
       37.7115957
      ],
      [
       -122.3800819,
       37.7115179
      ],
      [
       -122.3801355,
       37.7113533
      ],
      [
       -122.3801658,
       37.7109295
      ],
      [
       -122.3801481,
       37.7107184
      ],
      [
       -122.3801168,
       37.710622
      ],
      [
       -122.3800869,
       37.7105879
      ],
      [
       -122.3798732,
       37.7105057
      ],
      [
       -122.3797945,
       37.7105036
      ],
      [
       -122.3796104,
       37.7103898
      ],
      [
       -122.3794037,
       37.7103113
      ],
      [
       -122.378952,
       37.7099482
      ],
      [
       -122.3788792,
       37.7098089
      ],
      [
       -122.3788861,
       37.7097779
      ],
      [
       -122.3788416,
       37.7096838
      ],
      [
       -122.3787357,
       37.709507
      ],
      [
       -122.3785401,
       37.7093172
      ],
      [
       -122.3784251,
       37.708952
      ],
      [
       -122.3783001,
       37.7088004
      ],
      [
       -122.378083,
       37.7086713
      ],
      [
       -122.3778869,
       37.7085831
      ],
      [
       -122.3778377,
       37.7085719
      ],
      [
       -122.3776992,
       37.708593
      ],
      [
       -122.3775234,
       37.7086679
      ],
      [
       -122.3771233,
       37.7087885
      ],
      [
       -122.3769911,
       37.7088626
      ],
      [
       -122.3768727,
       37.7088967
      ],
      [
       -122.3767908,
       37.7089579
      ],
      [
       -122.3765892,
       37.7092461
      ],
      [
       -122.3763903,
       37.7095575
      ],
      [
       -122.3763951,
       37.7096357
      ],
      [
       -122.3762813,
       37.7096723
      ],
      [
       -122.3760014,
       37.7096888
      ],
      [
       -122.3757584,
       37.7096521
      ],
      [
       -122.3756054,
       37.7095876
      ],
      [
       -122.375519,
       37.7095427
      ],
      [
       -122.3753919,
       37.7094202
      ],
      [
       -122.3749484,
       37.7091849
      ],
      [
       -122.3747298,
       37.7090966
      ],
      [
       -122.3745396,
       37.7089767
      ],
      [
       -122.3744728,
       37.7089004
      ],
      [
       -122.3744262,
       37.7087639
      ],
      [
       -122.3744593,
       37.7086518
      ],
      [
       -122.3745368,
       37.7085819
      ],
      [
       -122.3747154,
       37.7085189
      ],
      [
       -122.3749543,
       37.708507
      ],
      [
       -122.3756277,
       37.70843
      ],
      [
       -122.3760447,
       37.7084005
      ],
      [
       -122.3764402,
       37.7084222
      ],
      [
       -122.3771945,
       37.7084336
      ],
      [
       -122.377368,
       37.7084522
      ],
      [
       -122.3777603,
       37.7084418
      ],
      [
       -122.3783445,
       37.7084554
      ],
      [
       -122.3785168,
       37.7084441
      ],
      [
       -122.3787486,
       37.7084775
      ],
      [
       -122.3790029,
       37.7084702
      ],
      [
       -122.379194,
       37.7084447
      ],
      [
       -122.3794028,
       37.7084442
      ],
      [
       -122.3794624,
       37.7084485
      ],
      [
       -122.3797402,
       37.7085283
      ],
      [
       -122.3803317,
       37.7087864
      ],
      [
       -122.38046,
       37.7088136
      ],
      [
       -122.3805831,
       37.7088317
      ],
      [
       -122.3807847,
       37.7088256
      ],
      [
       -122.3812835,
       37.7088835
      ],
      [
       -122.3815938,
       37.7088779
      ],
      [
       -122.3818612,
       37.708892
      ],
      [
       -122.3819119,
       37.7089044
      ],
      [
       -122.3819987,
       37.7089699
      ],
      [
       -122.3820288,
       37.7090122
      ],
      [
       -122.3821533,
       37.709096
      ],
      [
       -122.3823013,
       37.7091418
      ],
      [
       -122.38253,
       37.709166
      ],
      [
       -122.3827158,
       37.709158
      ],
      [
       -122.3827726,
       37.7091734
      ],
      [
       -122.3830685,
       37.7091625
      ],
      [
       -122.3834319,
       37.7092317
      ],
      [
       -122.3838376,
       37.7092216
      ],
      [
       -122.3840114,
       37.7092499
      ],
      [
       -122.3841205,
       37.7092843
      ],
      [
       -122.384425,
       37.7092909
      ],
      [
       -122.3848162,
       37.7094723
      ],
      [
       -122.3851459,
       37.7091098
      ],
      [
       -122.387012,
       37.7101683
      ],
      [
       -122.3882997,
       37.70874
      ],
      [
       -122.3899864,
       37.7096962
      ],
      [
       -122.3903893,
       37.7092511
      ],
      [
       -122.3905722,
       37.7093499
      ],
      [
       -122.3914205,
       37.7084068
      ],
      [
       -122.3932561,
       37.7084021
      ]
     ]
    ]
   }
  }
 ]
}
