{
 "type": "FeatureCollection",
 "properties": {
  "project": "concord-naval-weapons-station",
  "source": "traced: Navy-City of Concord Term Sheet for the Economic Development Conveyance of NWS Concord (executed Sept 23, 2026), Exhibit A, Economic Development Conveyance (EDC) Property map (Navy, dated 2026-03-30), p. 15",
  "sourceUrl": "https://www.concordreuseproject.org/DocumentCenter/View/2384",
  "sourceLabel": "Navy term sheet map (PDF)",
  "accuracy": "traced",
  "accuracyNote": "The EDC Property fills read from the vector map, georeferenced by fitting its road lines to OpenStreetMap roads and tracks (RMS 4.7 m over the closest 60% of 5,823 points; median 7 m). 2,406 acres as drawn; the City's staff report gives approximately 2,422. The water tank parcel (EDC share to be sited later) and road strips left white on the map are not included.",
  "license": "Shape traced from a public U.S. Navy / City of Concord document. Georeference: OpenStreetMap contributors (ODbL 1.0), via Overture Maps.",
  "georeference": {
   "scale_m_per_unit": 13.83913,
   "rotation_deg": -8.451,
   "rms_m": 4.69,
   "controls": [
    {
     "label": "map road lines vs OpenStreetMap roads and tracks: trimmed RMS over the closest 60% of 5823 points",
     "residual_m": 4.69
    }
   ],
   "method": "trimmed ICP",
   "points": 5823,
   "inlier_share": 0.6,
   "median_m": 6.98,
   "p90_m": 34.05
  }
 },
 "features": [
  {
   "type": "Feature",
   "properties": {
    "kind": "site",
    "name": "Project site"
   },
   "geometry": {
    "type": "MultiPolygon",
    "coordinates": [
     [
      [
       [
        -122.0027911,
        37.9929408
       ],
       [
        -122.0031195,
        37.9922809
       ],
       [
        -122.0031991,
        37.9921771
       ],
       [
        -121.998492,
        37.9892802
       ],
       [
        -121.981607,
        37.9766982
       ],
       [
        -121.9815322,
        37.9768322
       ],
       [
        -121.98109,
        37.9765021
       ],
       [
        -121.9809564,
        37.9765697
       ],
       [
        -121.9807246,
        37.976587
       ],
       [
        -121.9811183,
        37.9763385
       ],
       [
        -121.9776422,
        37.9737453
       ],
       [
        -121.9754787,
        37.9755642
       ],
       [
        -121.9702725,
        37.9716854
       ],
       [
        -121.9681421,
        37.973477
       ],
       [
        -121.9675385,
        37.9738657
       ],
       [
        -121.9671137,
        37.9740502
       ],
       [
        -121.9615407,
        37.9760947
       ],
       [
        -121.9610492,
        37.9763181
       ],
       [
        -121.9622731,
        37.9763638
       ],
       [
        -121.9635197,
        37.9763328
       ],
       [
        -121.9652788,
        37.9764211
       ],
       [
        -121.96563,
        37.9764757
       ],
       [
        -121.9676297,
        37.977387
       ],
       [
        -121.9680217,
        37.9777739
       ],
       [
        -121.9687023,
        37.9773803
       ],
       [
        -121.9696452,
        37.9759086
       ],
       [
        -121.9700872,
        37.9760974
       ],
       [
        -121.9701582,
        37.9761866
       ],
       [
        -121.9702455,
        37.976229
       ],
       [
        -121.9702903,
        37.9763623
       ],
       [
        -121.9705892,
        37.9766361
       ],
       [
        -121.9709049,
        37.9770094
       ],
       [
        -121.9708691,
        37.9771471
       ],
       [
        -121.9709064,
        37.9773257
       ],
       [
        -121.9711136,
        37.9775747
       ],
       [
        -121.9711383,
        37.9778374
       ],
       [
        -121.9710934,
        37.9779979
       ],
       [
        -121.9708186,
        37.9779824
       ],
       [
        -121.9708009,
        37.9785391
       ],
       [
        -121.9707023,
        37.9791349
       ],
       [
        -121.9717053,
        37.9794499
       ],
       [
        -121.9724446,
        37.9798179
       ],
       [
        -121.9724751,
        37.9798938
       ],
       [
        -121.9721483,
        37.9804244
       ],
       [
        -121.9716867,
        37.9808744
       ],
       [
        -121.9716534,
        37.9808645
       ],
       [
        -121.9715526,
        37.9810772
       ],
       [
        -121.9714952,
        37.981072
       ],
       [
        -121.9713376,
        37.9812689
       ],
       [
        -121.9711437,
        37.9816791
       ],
       [
        -121.9710013,
        37.9817838
       ],
       [
        -121.9705945,
        37.9826118
       ],
       [
        -121.970564,
        37.9827786
       ],
       [
        -121.9705785,
        37.9828922
       ],
       [
        -121.9706514,
        37.9830498
       ],
       [
        -121.9707433,
        37.9831571
       ],
       [
        -121.9708462,
        37.9832341
       ],
       [
        -121.9709777,
        37.9833
       ],
       [
        -121.9713372,
        37.9833787
       ],
       [
        -121.9713954,
        37.9832365
       ],
       [
        -121.9716744,
        37.9829142
       ],
       [
        -121.9730359,
        37.9816741
       ],
       [
        -121.9734563,
        37.9812725
       ],
       [
        -121.9752325,
        37.980483
       ],
       [
        -121.9752048,
        37.9804583
       ],
       [
        -121.9752042,
        37.9804263
       ],
       [
        -121.975434,
        37.9802697
       ],
       [
        -121.9754836,
        37.980273
       ],
       [
        -121.9755709,
        37.9803339
       ],
       [
        -121.9763501,
        37.9799906
       ],
       [
        -121.976033,
        37.9797501
       ],
       [
        -121.9760357,
        37.9797274
       ],
       [
        -121.97619,
        37.9796049
       ],
       [
        -121.9763117,
        37.9795801
       ],
       [
        -121.9763514,
        37.9795914
       ],
       [
        -121.9766673,
        37.979851
       ],
       [
        -121.9769604,
        37.9797312
       ],
       [
        -121.9771487,
        37.979624
       ],
       [
        -121.9771523,
        37.9795982
       ],
       [
        -121.9807098,
        37.976612
       ],
       [
        -121.9807842,
        37.9766209
       ],
       [
        -121.9810644,
        37.9765997
       ],
       [
        -121.980922,
        37.9766731
       ],
       [
        -121.977228,
        37.9797741
       ],
       [
        -121.9771206,
        37.9798387
       ],
       [
        -121.9757308,
        37.9804508
       ],
       [
        -121.9758512,
        37.9805433
       ],
       [
        -121.9758672,
        37.9805904
       ],
       [
        -121.9757352,
        37.9807607
       ],
       [
        -121.9756914,
        37.9807847
       ],
       [
        -121.9756447,
        37.9807866
       ],
       [
        -121.9753947,
        37.9805988
       ],
       [
        -121.9736174,
        37.9813809
       ],
       [
        -121.9731543,
        37.9818176
       ],
       [
        -121.972179,
        37.9826303
       ],
       [
        -121.972077,
        37.9827344
       ],
       [
        -121.971887,
        37.9829618
       ],
       [
        -121.971999,
        37.9830213
       ],
       [
        -121.9716052,
        37.9834769
       ],
       [
        -121.9718982,
        37.983657
       ],
       [
        -121.9719909,
        37.9836894
       ],
       [
        -121.9722012,
        37.9837276
       ],
       [
        -121.9723574,
        37.9840526
       ],
       [
        -121.9725117,
        37.9842571
       ],
       [
        -121.9727227,
        37.984434
       ],
       [
        -121.9729892,
        37.9845981
       ],
       [
        -121.9733568,
        37.9849174
       ],
       [
        -121.9736623,
        37.9854966
       ],
       [
        -121.973716,
        37.9857704
       ],
       [
        -121.9737515,
        37.9858614
       ],
       [
        -121.9739588,
        37.9861065
       ],
       [
        -121.9742793,
        37.9861954
       ],
       [
        -121.9744988,
        37.9861912
       ],
       [
        -121.9748097,
        37.9860896
       ],
       [
        -121.9749244,
        37.9859951
       ],
       [
        -121.974969,
        37.9860518
       ],
       [
        -121.9749907,
        37.9861734
       ],
       [
        -121.9748472,
        37.9867013
       ],
       [
        -121.9749687,
        37.9868703
       ],
       [
        -121.9751122,
        37.9869664
       ],
       [
        -121.9756382,
        37.9871411
       ],
       [
        -121.9757819,
        37.9871696
       ],
       [
        -121.9759944,
        37.9871505
       ],
       [
        -121.9761888,
        37.9870729
       ],
       [
        -121.9765159,
        37.9870611
       ],
       [
        -121.9765954,
        37.9872279
       ],
       [
        -121.9770389,
        37.9876834
       ],
       [
        -121.9774638,
        37.9879714
       ],
       [
        -121.9780284,
        37.9881166
       ],
       [
        -121.9786043,
        37.9881666
       ],
       [
        -121.9791924,
        37.9884373
       ],
       [
        -121.9792675,
        37.9885697
       ],
       [
        -121.9796969,
        37.9888501
       ],
       [
        -121.9798475,
        37.9889131
       ],
       [
        -121.9800761,
        37.988792
       ],
       [
        -121.9801373,
        37.9887263
       ],
       [
        -121.9805103,
        37.9888321
       ],
       [
        -121.9804607,
        37.9891839
       ],
       [
        -121.9804888,
        37.9893606
       ],
       [
        -121.9805498,
        37.9894855
       ],
       [
        -121.9806157,
        37.9895583
       ],
       [
        -121.9806044,
        37.9895676
       ],
       [
        -121.9808531,
        37.989772
       ],
       [
        -121.9808761,
        37.9897556
       ],
       [
        -121.9810154,
        37.9898052
       ],
       [
        -121.9811505,
        37.9898319
       ],
       [
        -121.9813981,
        37.9898345
       ],
       [
        -121.9818225,
        37.9896501
       ],
       [
        -121.982224,
        37.9897441
       ],
       [
        -121.9826434,
        37.990238
       ],
       [
        -121.9831915,
        37.9906655
       ],
       [
        -121.9830281,
        37.9911517
       ],
       [
        -121.9831393,
        37.9914094
       ],
       [
        -121.9831662,
        37.9917864
       ],
       [
        -121.9832389,
        37.9920411
       ],
       [
        -121.9833957,
        37.9924123
       ],
       [
        -121.9835392,
        37.9925973
       ],
       [
        -121.9837054,
        37.992721
       ],
       [
        -121.984447,
        37.993188
       ],
       [
        -121.9847368,
        37.99347
       ],
       [
        -121.9848198,
        37.9935552
       ],
       [
        -121.9848003,
        37.993591
       ],
       [
        -121.9849573,
        37.9938903
       ],
       [
        -121.9851797,
        37.9942185
       ],
       [
        -121.9857046,
        37.994531
       ],
       [
        -121.9859967,
        37.9946624
       ],
       [
        -121.9861707,
        37.9947191
       ],
       [
        -121.9864346,
        37.9947709
       ],
       [
        -121.9866612,
        37.9947832
       ],
       [
        -121.986826,
        37.9948383
       ],
       [
        -121.9868466,
        37.994899
       ],
       [
        -121.9869461,
        37.9948215
       ],
       [
        -121.9875408,
        37.9950328
       ],
       [
        -121.9877636,
        37.9950717
       ],
       [
        -121.9880873,
        37.9950394
       ],
       [
        -121.9884963,
        37.9950632
       ],
       [
        -121.9888286,
        37.9950222
       ],
       [
        -121.9878124,
        37.9977791
       ],
       [
        -121.9880149,
        37.9983336
       ],
       [
        -121.9885726,
        37.9994659
       ],
       [
        -121.9892417,
        38.0003911
       ],
       [
        -121.989877,
        38.0010728
       ],
       [
        -121.9904396,
        38.001965
       ],
       [
        -121.9908554,
        38.0025124
       ],
       [
        -121.991363,
        38.0028413
       ],
       [
        -121.9928321,
        38.003543
       ],
       [
        -121.9936321,
        38.0039614
       ],
       [
        -121.9934379,
        38.0032529
       ],
       [
        -121.9938426,
        38.0025579
       ],
       [
        -121.9950196,
        38.0018882
       ],
       [
        -121.994845,
        38.0021183
       ],
       [
        -121.9947277,
        38.0021934
       ],
       [
        -121.9947476,
        38.0022149
       ],
       [
        -121.994948,
        38.002095
       ],
       [
        -121.9957313,
        38.0000027
       ],
       [
        -121.9962134,
        38.0002242
       ],
       [
        -121.9954054,
        38.0019624
       ],
       [
        -121.9941536,
        38.0026873
       ],
       [
        -121.9938044,
        38.003275
       ],
       [
        -121.9945084,
        38.0058958
       ],
       [
        -121.9951081,
        38.0064787
       ],
       [
        -121.9969818,
        38.0074152
       ],
       [
        -121.9979755,
        38.0081874
       ],
       [
        -121.9999233,
        38.0022399
       ],
       [
        -121.9999626,
        38.0022355
       ],
       [
        -121.9999383,
        38.0021943
       ],
       [
        -122.0008034,
        37.9995524
       ],
       [
        -122.0003052,
        37.9994522
       ],
       [
        -121.998987,
        37.9995265
       ],
       [
        -121.9975307,
        37.9996786
       ],
       [
        -121.9975353,
        37.9997066
       ],
       [
        -121.9965413,
        38.0000457
       ],
       [
        -121.9964671,
        38.00018
       ],
       [
        -121.9958642,
        37.9999059
       ],
       [
        -121.9961801,
        37.9993452
       ],
       [
        -121.9977867,
        37.9992446
       ],
       [
        -121.9988324,
        37.9992655
       ],
       [
        -122.0007425,
        37.9991226
       ],
       [
        -122.0009392,
        37.9991353
       ],
       [
        -122.0014874,
        37.997455
       ],
       [
        -122.001706,
        37.9952074
       ],
       [
        -122.0017324,
        37.9950889
       ],
       [
        -122.002493,
        37.9934363
       ],
       [
        -122.0027911,
        37.9929408
       ]
      ]
     ],
     [
      [
       [
        -121.996772,
        38.0117361
       ],
       [
        -121.9969322,
        38.0110976
       ],
       [
        -121.996635,
        38.0110537
       ],
       [
        -121.9962832,
        38.0110373
       ],
       [
        -121.9960782,
        38.0110471
       ],
       [
        -121.995749,
        38.0110929
       ],
       [
        -121.9954883,
        38.0111581
       ],
       [
        -121.9952601,
        38.0112369
       ],
       [
        -121.994959,
        38.0113801
       ],
       [
        -121.9948072,
        38.0114727
       ],
       [
        -121.9945836,
        38.0116417
       ],
       [
        -121.9943335,
        38.0118997
       ],
       [
        -121.9943856,
        38.011846
       ],
       [
        -121.9958828,
        38.0113912
       ],
       [
        -121.9959578,
        38.011511
       ],
       [
        -121.9938185,
        38.0125567
       ],
       [
        -121.9938558,
        38.0125017
       ],
       [
        -121.9930369,
        38.0135334
       ],
       [
        -121.9953879,
        38.0126038
       ],
       [
        -121.996497,
        38.0124219
       ],
       [
        -121.9966691,
        38.0118936
       ],
       [
        -121.996772,
        38.0117361
       ]
      ]
     ],
     [
      [
       [
        -122.0222425,
        38.009275
       ],
       [
        -122.0222101,
        38.0074843
       ],
       [
        -122.0220618,
        38.0077644
       ],
       [
        -122.02115,
        38.0086224
       ],
       [
        -122.020979,
        38.0087313
       ],
       [
        -122.0196179,
        38.009324
       ],
       [
        -122.0192159,
        38.0094288
       ],
       [
        -122.0179788,
        38.0097003
       ],
       [
        -122.0177997,
        38.0091996
       ],
       [
        -122.0194068,
        38.0088775
       ],
       [
        -122.0204456,
        38.0081055
       ],
       [
        -122.0215808,
        38.0066424
       ],
       [
        -122.022896,
        38.0050396
       ],
       [
        -122.0234945,
        38.0034806
       ],
       [
        -122.0231049,
        38.0012103
       ],
       [
        -122.0230591,
        38.0010889
       ],
       [
        -122.0224474,
        37.9999382
       ],
       [
        -122.0223729,
        37.9998287
       ],
       [
        -122.0226783,
        37.9996951
       ],
       [
        -122.022203,
        37.99908
       ],
       [
        -122.0231688,
        37.998732
       ],
       [
        -122.0207393,
        37.9958709
       ],
       [
        -122.0204869,
        37.9960077
       ],
       [
        -122.0201906,
        37.9956571
       ],
       [
        -122.020438,
        37.9955128
       ],
       [
        -122.019328,
        37.9942468
       ],
       [
        -122.0187422,
        37.9938732
       ],
       [
        -122.017889,
        37.9938385
       ],
       [
        -122.0178807,
        37.9932099
       ],
       [
        -122.0183286,
        37.993204
       ],
       [
        -122.0170033,
        37.9917806
       ],
       [
        -122.0186886,
        37.9908363
       ],
       [
        -122.0188396,
        37.9902283
       ],
       [
        -122.0191529,
        37.9900108
       ],
       [
        -122.0202928,
        37.9899425
       ],
       [
        -122.0212724,
        37.9898001
       ],
       [
        -122.0210878,
        37.9890325
       ],
       [
        -122.0192819,
        37.9864988
       ],
       [
        -122.0188124,
        37.9861504
       ],
       [
        -122.0176551,
        37.9856205
       ],
       [
        -122.0177554,
        37.9855735
       ],
       [
        -122.017342,
        37.9853845
       ],
       [
        -122.0167155,
        37.9848933
       ],
       [
        -122.0157694,
        37.9836289
       ],
       [
        -122.0131272,
        37.98486
       ],
       [
        -122.0113563,
        37.9860799
       ],
       [
        -122.0111889,
        37.9861392
       ],
       [
        -122.0110608,
        37.9862285
       ],
       [
        -122.0109622,
        37.9863518
       ],
       [
        -122.0104663,
        37.986697
       ],
       [
        -122.0105157,
        37.986729
       ],
       [
        -122.010281,
        37.986953
       ],
       [
        -122.0102542,
        37.987047
       ],
       [
        -122.0098588,
        37.9904694
       ],
       [
        -122.0098413,
        37.9904783
       ],
       [
        -122.0097704,
        37.9908838
       ],
       [
        -122.0097045,
        37.9914259
       ],
       [
        -122.0096453,
        37.9920892
       ],
       [
        -122.0107137,
        37.9933728
       ],
       [
        -122.0115655,
        37.9941697
       ],
       [
        -122.011594,
        37.9941506
       ],
       [
        -122.0119701,
        37.9943459
       ],
       [
        -122.0131162,
        37.9956884
       ],
       [
        -122.0141924,
        37.9962613
       ],
       [
        -122.0141125,
        37.9963539
       ],
       [
        -122.0129778,
        37.9957511
       ],
       [
        -122.0128297,
        37.9955777
       ],
       [
        -122.0120819,
        37.9952826
       ],
       [
        -122.0138143,
        37.9993839
       ],
       [
        -122.0124021,
        38.001895
       ],
       [
        -122.011494,
        38.0022306
       ],
       [
        -122.0099158,
        38.0020796
       ],
       [
        -122.0090103,
        38.0014701
       ],
       [
        -122.0090389,
        38.0014406
       ],
       [
        -122.0096118,
        38.0017736
       ],
       [
        -122.0097049,
        38.0017827
       ],
       [
        -122.0093531,
        38.0015658
       ],
       [
        -122.0088518,
        38.0011824
       ],
       [
        -122.0083521,
        38.0009054
       ],
       [
        -122.0078517,
        38.0007019
       ],
       [
        -122.0077824,
        38.0007567
       ],
       [
        -122.0080752,
        38.000916
       ],
       [
        -122.0080501,
        38.0009481
       ],
       [
        -122.0077218,
        38.0008047
       ],
       [
        -122.007575,
        38.0009209
       ],
       [
        -122.0065176,
        38.0000961
       ],
       [
        -122.0067952,
        38.0000163
       ],
       [
        -122.00743,
        38.0004273
       ],
       [
        -122.0087374,
        38.0009972
       ],
       [
        -122.0099342,
        38.001805
       ],
       [
        -122.0105906,
        38.0018689
       ],
       [
        -122.0119517,
        37.9994538
       ],
       [
        -122.0130462,
        37.9983496
       ],
       [
        -122.0116884,
        37.9951238
       ],
       [
        -122.0113215,
        37.9943369
       ],
       [
        -122.0113566,
        37.9943134
       ],
       [
        -122.0105875,
        37.9935945
       ],
       [
        -122.0095299,
        37.9925257
       ],
       [
        -122.0094798,
        37.9924349
       ],
       [
        -122.009383,
        37.9919445
       ],
       [
        -122.0095388,
        37.9906314
       ],
       [
        -122.0061692,
        37.9923369
       ],
       [
        -122.0046036,
        37.9911489
       ],
       [
        -122.0035639,
        37.9921114
       ],
       [
        -122.0033194,
        37.9923966
       ],
       [
        -122.0032072,
        37.9925657
       ],
       [
        -122.0019669,
        37.9950173
       ],
       [
        -122.0019263,
        37.9951369
       ],
       [
        -122.0019051,
        37.995281
       ],
       [
        -122.0017973,
        37.9967164
       ],
       [
        -122.0016906,
        37.9974905
       ],
       [
        -122.0011607,
        37.9991173
       ],
       [
        -122.0048026,
        37.9988893
       ],
       [
        -122.0057174,
        37.9996008
       ],
       [
        -122.0056558,
        37.999651
       ],
       [
        -122.0066007,
        38.0003924
       ],
       [
        -122.0061985,
        38.0005082
       ],
       [
        -122.0050444,
        37.9996617
       ],
       [
        -122.002884,
        38.0000098
       ],
       [
        -122.0010018,
        37.999592
       ],
       [
        -122.0001194,
        38.0022874
       ],
       [
        -122.0000642,
        38.0022841
       ],
       [
        -122.0000615,
        38.0023109
       ],
       [
        -122.0001001,
        38.0023466
       ],
       [
        -121.998165,
        38.0082575
       ],
       [
        -121.9994004,
        38.0086037
       ],
       [
        -121.9999509,
        38.0089053
       ],
       [
        -122.001682,
        38.0099197
       ],
       [
        -122.0022734,
        38.0108001
       ],
       [
        -122.0037574,
        38.0112877
       ],
       [
        -122.0044868,
        38.0116099
       ],
       [
        -122.0039693,
        38.0117461
       ],
       [
        -122.0027203,
        38.0112173
       ],
       [
        -122.0018398,
        38.0110343
       ],
       [
        -122.0018799,
        38.0108699
       ],
       [
        -122.00143,
        38.0100792
       ],
       [
        -121.9992423,
        38.0088801
       ],
       [
        -121.9980381,
        38.0086479
       ],
       [
        -121.9974887,
        38.0103181
       ],
       [
        -121.9974143,
        38.0106751
       ],
       [
        -121.9973158,
        38.0108983
       ],
       [
        -121.9973814,
        38.0109127
       ],
       [
        -121.9972092,
        38.0114446
       ],
       [
        -121.9971084,
        38.01193
       ],
       [
        -121.9972387,
        38.0119398
       ],
       [
        -121.9972984,
        38.0124992
       ],
       [
        -121.9977244,
        38.0126005
       ],
       [
        -121.9979826,
        38.0127382
       ],
       [
        -121.9980451,
        38.0127374
       ],
       [
        -121.9988705,
        38.0125857
       ],
       [
        -122.0007341,
        38.0123139
       ],
       [
        -122.0016001,
        38.012257
       ],
       [
        -122.0060524,
        38.0116125
       ],
       [
        -122.0061253,
        38.0116421
       ],
       [
        -122.0103519,
        38.0110308
       ],
       [
        -122.0105664,
        38.0111577
       ],
       [
        -122.0117237,
        38.0109825
       ],
       [
        -122.011687,
        38.0108344
       ],
       [
        -122.0220558,
        38.0093308
       ],
       [
        -122.0220505,
        38.0093005
       ],
       [
        -122.0222425,
        38.009275
       ]
      ],
      [
       [
        -122.0000586,
        38.0046315
       ],
       [
        -122.0001334,
        38.0050729
       ],
       [
        -122.0001901,
        38.0063902
       ],
       [
        -121.9996878,
        38.00547
       ],
       [
        -121.9996814,
        38.0053967
       ],
       [
        -121.9997665,
        38.00493
       ],
       [
        -121.999808,
        38.0048417
       ],
       [
        -122.0001071,
        38.0044751
       ],
       [
        -122.0001491,
        38.0044945
       ],
       [
        -122.0000586,
        38.0046315
       ]
      ],
      [
       [
        -122.00432,
        38.0051051
       ],
       [
        -122.0046043,
        38.0050093
       ],
       [
        -122.00565,
        38.004803
       ],
       [
        -122.0058187,
        38.004797
       ],
       [
        -122.0060158,
        38.0047505
       ],
       [
        -122.0060738,
        38.004895
       ],
       [
        -122.0038006,
        38.0055951
       ],
       [
        -122.0036448,
        38.0057634
       ],
       [
        -122.0037095,
        38.0055707
       ],
       [
        -122.00432,
        38.0051051
       ]
      ]
     ],
     [
      [
       [
        -122.0225739,
        38.0099113
       ],
       [
        -122.0225429,
        38.0099161
       ],
       [
        -122.0224568,
        38.0096077
       ],
       [
        -122.0191351,
        38.0100903
       ],
       [
        -122.0140375,
        38.0108996
       ],
       [
        -122.0140213,
        38.0108328
       ],
       [
        -122.0067134,
        38.0118937
       ],
       [
        -122.0067863,
        38.0119232
       ],
       [
        -122.0024685,
        38.0125508
       ],
       [
        -122.0038248,
        38.013608
       ],
       [
        -122.0054545,
        38.0134421
       ],
       [
        -122.0055397,
        38.0131476
       ],
       [
        -122.0056012,
        38.0131947
       ],
       [
        -122.0056647,
        38.0131943
       ],
       [
        -122.0056052,
        38.0131448
       ],
       [
        -122.0058468,
        38.0130826
       ],
       [
        -122.0058125,
        38.0131935
       ],
       [
        -122.0058642,
        38.0131932
       ],
       [
        -122.00579,
        38.0134177
       ],
       [
        -122.0062774,
        38.0134009
       ],
       [
        -122.0115247,
        38.0125325
       ],
       [
        -122.0117369,
        38.0132387
       ],
       [
        -122.0119042,
        38.0136441
       ],
       [
        -122.0122567,
        38.0141393
       ],
       [
        -122.0125465,
        38.0144135
       ],
       [
        -122.0155135,
        38.0157699
       ],
       [
        -122.0157424,
        38.0154353
       ],
       [
        -122.0158883,
        38.0154982
       ],
       [
        -122.0159116,
        38.0154598
       ],
       [
        -122.0174865,
        38.0161291
       ],
       [
        -122.0194861,
        38.0156799
       ],
       [
        -122.0224981,
        38.0138874
       ],
       [
        -122.0234775,
        38.0128035
       ],
       [
        -122.0230087,
        38.0115824
       ],
       [
        -122.0225432,
        38.0099172
       ],
       [
        -122.0225739,
        38.0099113
       ]
      ]
     ],
     [
      [
       [
        -122.0230381,
        37.9934016
       ],
       [
        -122.0234869,
        37.9932204
       ],
       [
        -122.0229373,
        37.9908875
       ],
       [
        -122.0217802,
        37.9910588
       ],
       [
        -122.0220232,
        37.9920848
       ],
       [
        -122.0224246,
        37.9927058
       ],
       [
        -122.0222745,
        37.992817
       ],
       [
        -122.0225636,
        37.9930571
       ],
       [
        -122.0230381,
        37.9934016
       ]
      ]
     ]
    ]
   }
  }
 ]
}
