{
 "type": "FeatureCollection",
 "properties": {
  "project": "downtown-west",
  "source": "City of San Jos\u00e9 Zoning Districts, rezoning file PDC19-039 (16 DC(PD) polygons)",
  "sourceLabel": "San Jos\u00e9 zoning",
  "sourceUrl": "https://geo.sanjoseca.gov/server/rest/services/OPN/OPN_OpenDataService/MapServer/401",
  "query": "https://geo.sanjoseca.gov/server/rest/services/OPN/OPN_OpenDataService/MapServer/401/query?where=REZONINGFILE+like+%27PDC19-039%25%27+or+REZONINGFILE+%3D+%2719039%27&outFields=%2A&outSR=4326&f=geojson",
  "accuracy": "approximate",
  "accuracyNote": "The planned development zoning approved May 25, 2021: about 58 net acres, without the streets and creek in the 80-acre gross figure. 62.8 acres as drawn.",
  "license": "CC-BY 4.0, City of San Jos\u00e9",
  "features_used": 16
 },
 "features": [
  {
   "type": "Feature",
   "properties": {
    "kind": "site",
    "name": "Project site"
   },
   "geometry": {
    "type": "MultiPolygon",
    "coordinates": [
     [
      [
       [
        -121.8992277,
        37.3319277
       ],
       [
        -121.8989103,
        37.3320619
       ],
       [
        -121.8979118,
        37.3325357
       ],
       [
        -121.8976655,
        37.3322008
       ],
       [
        -121.8976469,
        37.3321514
       ],
       [
        -121.8974383,
        37.3319103
       ],
       [
        -121.8970148,
        37.3312482
       ],
       [
        -121.897003,
        37.3311993
       ],
       [
        -121.896947,
        37.3311615
       ],
       [
        -121.8968933,
        37.3308479
       ],
       [
        -121.8969065,
        37.3308369
       ],
       [
        -121.8968893,
        37.3308132
       ],
       [
        -121.8972667,
        37.330641
       ],
       [
        -121.8975555,
        37.3306222
       ],
       [
        -121.899229,
        37.3302638
       ],
       [
        -121.8992693,
        37.3306616
       ],
       [
        -121.8992839,
        37.3313071
       ],
       [
        -121.8992137,
        37.3318436
       ],
       [
        -121.8992277,
        37.3319277
       ]
      ]
     ],
     [
      [
       [
        -121.9000789,
        37.3318702
       ],
       [
        -121.899465,
        37.3318978
       ],
       [
        -121.8994873,
        37.3317328
       ],
       [
        -121.8995132,
        37.3317292
       ],
       [
        -121.8996307,
        37.3311936
       ],
       [
        -121.8996328,
        37.3311077
       ],
       [
        -121.8995264,
        37.3303016
       ],
       [
        -121.8995353,
        37.3300951
       ],
       [
        -121.899588,
        37.3298176
       ],
       [
        -121.8999533,
        37.3298016
       ],
       [
        -121.899976,
        37.3299382
       ],
       [
        -121.9001127,
        37.3318292
       ],
       [
        -121.9000789,
        37.3318702
       ]
      ]
     ],
     [
      [
       [
        -121.9005222,
        37.3255813
       ],
       [
        -121.9001803,
        37.3257788
       ],
       [
        -121.8996934,
        37.3252436
       ],
       [
        -121.9002159,
        37.324943
       ],
       [
        -121.9002916,
        37.3249282
       ],
       [
        -121.9003614,
        37.324941
       ],
       [
        -121.9004072,
        37.3249671
       ],
       [
        -121.9004431,
        37.3250119
       ],
       [
        -121.90052,
        37.3252434
       ],
       [
        -121.9005484,
        37.3255257
       ],
       [
        -121.9005222,
        37.3255813
       ]
      ]
     ],
     [
      [
       [
        -121.9021921,
        37.3237469
       ],
       [
        -121.9021716,
        37.323717
       ],
       [
        -121.902097,
        37.3238986
       ],
       [
        -121.9013814,
        37.3239294
       ],
       [
        -121.9012136,
        37.3240324
       ],
       [
        -121.9009337,
        37.3237213
       ],
       [
        -121.9009081,
        37.3237309
       ],
       [
        -121.9001696,
        37.3229193
       ],
       [
        -121.9001699,
        37.3228884
       ],
       [
        -121.9014495,
        37.322141
       ],
       [
        -121.9016683,
        37.3223932
       ],
       [
        -121.9019158,
        37.3227218
       ],
       [
        -121.9020552,
        37.3229461
       ],
       [
        -121.9020206,
        37.3229759
       ],
       [
        -121.9021208,
        37.3230699
       ],
       [
        -121.9021866,
        37.3232102
       ],
       [
        -121.9022543,
        37.3234029
       ],
       [
        -121.9022563,
        37.3234695
       ],
       [
        -121.902243,
        37.3235871
       ],
       [
        -121.9021921,
        37.3237469
       ]
      ]
     ],
     [
      [
       [
        -121.9018476,
        37.3290893
       ],
       [
        -121.9010657,
        37.3291067
       ],
       [
        -121.9001388,
        37.3291488
       ],
       [
        -121.9000908,
        37.3284977
       ],
       [
        -121.900098,
        37.3283454
       ],
       [
        -121.9001371,
        37.3281525
       ],
       [
        -121.9002099,
        37.327964
       ],
       [
        -121.9003144,
        37.3277857
       ],
       [
        -121.9005125,
        37.3275576
       ],
       [
        -121.9006482,
        37.3273732
       ],
       [
        -121.9007616,
        37.3270576
       ],
       [
        -121.900865,
        37.3265247
       ],
       [
        -121.9016864,
        37.3265071
       ],
       [
        -121.9018476,
        37.3290893
       ]
      ]
     ],
     [
      [
       [
        -121.901073,
        37.3309055
       ],
       [
        -121.9002954,
        37.3309179
       ],
       [
        -121.9001848,
        37.3293104
       ],
       [
        -121.9009608,
        37.3292754
       ],
       [
        -121.901073,
        37.3309055
       ]
      ]
     ],
     [
      [
       [
        -121.9011372,
        37.3318224
       ],
       [
        -121.900363,
        37.331857
       ],
       [
        -121.9003074,
        37.331089
       ],
       [
        -121.9010844,
        37.3310702
       ],
       [
        -121.9011372,
        37.3318224
       ]
      ]
     ],
     [
      [
       [
        -121.9017165,
        37.3242167
       ],
       [
        -121.9016236,
        37.3243189
       ],
       [
        -121.9016076,
        37.324362
       ],
       [
        -121.9016215,
        37.3244057
       ],
       [
        -121.9017123,
        37.3245099
       ],
       [
        -121.901711,
        37.3245569
       ],
       [
        -121.9011961,
        37.3251229
       ],
       [
        -121.9009961,
        37.3254048
       ],
       [
        -121.9009496,
        37.3251336
       ],
       [
        -121.9007997,
        37.3247482
       ],
       [
        -121.9007976,
        37.3246812
       ],
       [
        -121.900822,
        37.3246171
       ],
       [
        -121.9008843,
        37.3245521
       ],
       [
        -121.9013018,
        37.3243024
       ],
       [
        -121.9015233,
        37.3242387
       ],
       [
        -121.9017165,
        37.3242167
       ]
      ]
     ],
     [
      [
       [
        -121.9026696,
        37.3261332
       ],
       [
        -121.9011611,
        37.3262508
       ],
       [
        -121.9010506,
        37.3262177
       ],
       [
        -121.9009927,
        37.3261356
       ],
       [
        -121.9009983,
        37.3254352
       ],
       [
        -121.9010293,
        37.3253902
       ],
       [
        -121.9011429,
        37.3255075
       ],
       [
        -121.9013765,
        37.3251609
       ],
       [
        -121.9015409,
        37.3251526
       ],
       [
        -121.9019614,
        37.3247002
       ],
       [
        -121.9020065,
        37.3246891
       ],
       [
        -121.9021143,
        37.3247067
       ],
       [
        -121.902195,
        37.3246748
       ],
       [
        -121.9022673,
        37.3245966
       ],
       [
        -121.9021868,
        37.3245458
       ],
       [
        -121.9023216,
        37.3243511
       ],
       [
        -121.9024561,
        37.3259569
       ],
       [
        -121.902657,
        37.3259531
       ],
       [
        -121.9026696,
        37.3261332
       ]
      ]
     ],
     [
      [
       [
        -121.9021119,
        37.3317796
       ],
       [
        -121.9013432,
        37.3318137
       ],
       [
        -121.9012944,
        37.3310417
       ],
       [
        -121.9020576,
        37.3310062
       ],
       [
        -121.9021119,
        37.3317796
       ]
      ]
     ],
     [
      [
       [
        -121.9022414,
        37.3340104
       ],
       [
        -121.9019766,
        37.3342112
       ],
       [
        -121.9014272,
        37.3336971
       ],
       [
        -121.9022291,
        37.3336675
       ],
       [
        -121.9022414,
        37.3340104
       ]
      ]
     ],
     [
      [
       [
        -121.9026809,
        37.3277787
       ],
       [
        -121.9023632,
        37.3277919
       ],
       [
        -121.9023422,
        37.3275142
       ],
       [
        -121.9021443,
        37.3275221
       ],
       [
        -121.9021829,
        37.3280746
       ],
       [
        -121.9022819,
        37.3280746
       ],
       [
        -121.9022888,
        37.3281836
       ],
       [
        -121.9022859,
        37.3281946
       ],
       [
        -121.902049,
        37.3282058
       ],
       [
        -121.9019293,
        37.3264405
       ],
       [
        -121.9026982,
        37.3264285
       ],
       [
        -121.9026784,
        37.3265226
       ],
       [
        -121.9026575,
        37.3269999
       ],
       [
        -121.9026559,
        37.3274363
       ],
       [
        -121.9026809,
        37.3277787
       ]
      ]
     ],
     [
      [
       [
        -121.9045493,
        37.3345624
       ],
       [
        -121.9034888,
        37.3353097
       ],
       [
        -121.9030608,
        37.3349535
       ],
       [
        -121.902489,
        37.3344301
       ],
       [
        -121.9024528,
        37.3334942
       ],
       [
        -121.9023549,
        37.332093
       ],
       [
        -121.9030885,
        37.3320609
       ],
       [
        -121.9032279,
        37.3324837
       ],
       [
        -121.9032868,
        37.3328732
       ],
       [
        -121.9034426,
        37.3332921
       ],
       [
        -121.9033496,
        37.3333568
       ],
       [
        -121.9033514,
        37.3333686
       ],
       [
        -121.9037548,
        37.3337387
       ],
       [
        -121.9041594,
        37.3341935
       ],
       [
        -121.9045493,
        37.3345624
       ]
      ]
     ],
     [
      [
       [
        -121.9052147,
        37.3360951
       ],
       [
        -121.9051752,
        37.3361237
       ],
       [
        -121.9049927,
        37.3366761
       ],
       [
        -121.9049941,
        37.3367298
       ],
       [
        -121.9036087,
        37.3354571
       ],
       [
        -121.9046064,
        37.3347586
       ],
       [
        -121.9049152,
        37.3351256
       ],
       [
        -121.9048546,
        37.3351728
       ],
       [
        -121.9050508,
        37.3353523
       ],
       [
        -121.9051018,
        37.3354277
       ],
       [
        -121.9051734,
        37.3356942
       ],
       [
        -121.9051862,
        37.3358755
       ],
       [
        -121.9051712,
        37.3360539
       ],
       [
        -121.9052147,
        37.3360951
       ]
      ]
     ],
     [
      [
       [
        -121.9053,
        37.3372418
       ],
       [
        -121.9052752,
        37.3376558
       ],
       [
        -121.9046332,
        37.3376259
       ],
       [
        -121.9046019,
        37.3375972
       ],
       [
        -121.9052043,
        37.3371788
       ],
       [
        -121.9053,
        37.3372418
       ]
      ]
     ],
     [
      [
       [
        -121.9077606,
        37.3377846
       ],
       [
        -121.9070307,
        37.3382873
       ],
       [
        -121.9064443,
        37.3379668
       ],
       [
        -121.906103,
        37.337832
       ],
       [
        -121.9058174,
        37.3377403
       ],
       [
        -121.9054778,
        37.3376859
       ],
       [
        -121.9055096,
        37.3371337
       ],
       [
        -121.9051161,
        37.3368192
       ],
       [
        -121.9053023,
        37.3362968
       ],
       [
        -121.9053564,
        37.3360875
       ],
       [
        -121.9053753,
        37.3358745
       ],
       [
        -121.905359,
        37.3356617
       ],
       [
        -121.905269,
        37.3353498
       ],
       [
        -121.9053551,
        37.3352898
       ],
       [
        -121.9064772,
        37.3363183
       ],
       [
        -121.9066244,
        37.3364352
       ],
       [
        -121.9065249,
        37.3365097
       ],
       [
        -121.9075575,
        37.3374394
       ],
       [
        -121.9077606,
        37.3377846
       ]
      ]
     ]
    ]
   }
  }
 ]
}
