{
 "type": "FeatureCollection",
 "properties": {
  "project": "esmeralda",
  "source": "County of Sonoma Parcels Public Shapefile, the 11 APNs in the Cloverdale Planning Commission staff report of Oct 1, 2026",
  "sourceLabel": "County of Sonoma parcels",
  "sourceUrl": "https://socogis.sonomacounty.ca.gov/map/rest/services/CRAPublic/ParcelsPublicShapeFile/FeatureServer/0",
  "query": "https://socogis.sonomacounty.ca.gov/map/rest/services/CRAPublic/ParcelsPublicShapeFile/FeatureServer/0/query?where=APN+IN+%28%27117-050-010%27%2C+%27117-050-011%27%2C+%27117-050-012%27%2C+%27117-050-017%27%2C+%27117-050-024%27%2C+%27117-050-026%27%2C+%27117-050-027%27%2C+%27117-050-028%27%2C+%27117-050-029%27%2C+%27116-310-013%27%2C+%27116-310-014%27%29&outFields=%2A&outSR=4326&f=geojson",
  "accuracy": "approximate",
  "accuracyNote": "The 11 parcels the Planning Commission staff report lists for the Esmeralda Specific Plan, in two pieces either side of the 80-foot SMART rail corridor, which isn't one of the parcels (the plan leaves it out of its land-use districts). The County's parcel shapes run a little over the Plan Area's 261.44 acres (Addendum Exhibit 3): about 3.8 acres of parcel 116-310-014, a narrow strip running northwest from the site's north corner outside Cloverdale's city limits (Permit Sonoma City Limits layer), is the roughly 4-acre unincorporated \u201cPanhandle\u201d the plan now excludes, and it is still drawn here. 265.4 acres as drawn.",
  "license": "CC BY-SA 3.0, County of Sonoma",
  "features_used": 11
 },
 "features": [
  {
   "type": "Feature",
   "properties": {
    "kind": "site",
    "name": "Project site"
   },
   "geometry": {
    "type": "MultiPolygon",
    "coordinates": [
     [
      [
       [
        -123.0056309,
        38.7930475
       ],
       [
        -123.0054495,
        38.7952635
       ],
       [
        -123.0051195,
        38.7954323
       ],
       [
        -123.0053133,
        38.7930305
       ],
       [
        -123.00285,
        38.7904639
       ],
       [
        -123.0015807,
        38.791354
       ],
       [
        -122.9985136,
        38.7892131
       ],
       [
        -122.9966192,
        38.787977
       ],
       [
        -122.9954542,
        38.7856732
       ],
       [
        -122.9942527,
        38.785804
       ],
       [
        -122.9935758,
        38.7808856
       ],
       [
        -122.9968558,
        38.7803136
       ],
       [
        -122.9971328,
        38.7807817
       ],
       [
        -122.9976909,
        38.7816457
       ],
       [
        -123.0008773,
        38.7862973
       ],
       [
        -123.0011698,
        38.7867188
       ],
       [
        -123.0014844,
        38.7871305
       ],
       [
        -123.0018466,
        38.7875658
       ],
       [
        -123.0028707,
        38.7885532
       ],
       [
        -123.0040998,
        38.7895132
       ],
       [
        -123.0030301,
        38.79029
       ],
       [
        -123.0056309,
        38.7930475
       ]
      ]
     ],
     [
      [
       [
        -123.0090799,
        38.7858483
       ],
       [
        -123.0078516,
        38.7867439
       ],
       [
        -123.0077859,
        38.7867594
       ],
       [
        -123.0077076,
        38.7867326
       ],
       [
        -123.0075604,
        38.7868401
       ],
       [
        -123.0054649,
        38.7850412
       ],
       [
        -123.0020983,
        38.787445
       ],
       [
        -123.001687,
        38.7869577
       ],
       [
        -123.0013815,
        38.7865656
       ],
       [
        -123.0011172,
        38.7861909
       ],
       [
        -122.9978854,
        38.7814577
       ],
       [
        -122.9973803,
        38.7806678
       ],
       [
        -122.997149,
        38.7802649
       ],
       [
        -123.002751,
        38.779303
       ],
       [
        -123.0046422,
        38.7780157
       ],
       [
        -123.0054952,
        38.7787004
       ],
       [
        -123.006384,
        38.7795429
       ],
       [
        -123.006825,
        38.7800591
       ],
       [
        -123.0070604,
        38.7804109
       ],
       [
        -123.0072045,
        38.7806991
       ],
       [
        -123.0073107,
        38.7809902
       ],
       [
        -123.0073835,
        38.7812984
       ],
       [
        -123.007418,
        38.781615
       ],
       [
        -123.0073997,
        38.7823073
       ],
       [
        -123.0072044,
        38.7832988
       ],
       [
        -123.0074343,
        38.7837133
       ],
       [
        -123.0074902,
        38.7839224
       ],
       [
        -123.0076446,
        38.784276
       ],
       [
        -123.007866,
        38.7846074
       ],
       [
        -123.0080639,
        38.7848277
       ],
       [
        -123.0090799,
        38.7858483
       ]
      ]
     ]
    ]
   }
  }
 ]
}
