{
 "type": "FeatureCollection",
 "properties": {
  "project": "hunters-point-shipyard",
  "source": "DataSF Zoning Map \u2013 Height and Bulk Districts, \u201cHP\u201d",
  "sourceLabel": "DataSF height districts",
  "sourceUrl": "https://data.sf.gov/d/h9wh-cg3m",
  "query": "https://data.sf.gov/resource/h9wh-cg3m.geojson?%24where=height+%3D+%27HP%27&%24limit=5000",
  "accuracy": "official",
  "accuracyNote": "The Shipyard Phase 2 height district (about 421 acres). Phase 1 on the hilltop is outside it. 422.9 acres as drawn.",
  "license": "Public Domain U.S. Government (DataSF)",
  "features_used": 1
 },
 "features": [
  {
   "type": "Feature",
   "properties": {
    "kind": "site",
    "name": "Project site"
   },
   "geometry": {
    "type": "Polygon",
    "coordinates": [
     [
      [
       -122.3816233,
       37.7221524
      ],
      [
       -122.3776629,
       37.7265984
      ],
      [
       -122.3751776,
       37.7257793
      ],
      [
       -122.3749513,
       37.725732
      ],
      [
       -122.3746937,
       37.7261695
      ],
      [
       -122.3758857,
       37.7265931
      ],
      [
       -122.3764434,
       37.7269302
      ],
      [
       -122.3773612,
       37.727238
      ],
      [
       -122.3778714,
       37.7273818
      ],
      [
       -122.3781345,
       37.7274346
      ],
      [
       -122.3794466,
       37.727611
      ],
      [
       -122.3795204,
       37.7276529
      ],
      [
       -122.3793561,
       37.7278355
      ],
      [
       -122.37801,
       37.727656
      ],
      [
       -122.3770129,
       37.7273996
      ],
      [
       -122.3705902,
       37.7250592
      ],
      [
       -122.3702093,
       37.7251508
      ],
      [
       -122.3704819,
       37.7258873
      ],
      [
       -122.3695277,
       37.7261089
      ],
      [
       -122.3695245,
       37.7261308
      ],
      [
       -122.3682472,
       37.7263935
      ],
      [
       -122.3680462,
       37.7263693
      ],
      [
       -122.3678605,
       37.7262658
      ],
      [
       -122.3676002,
       37.7260725
      ],
      [
       -122.3664682,
       37.7263359
      ],
      [
       -122.365053,
       37.7279189
      ],
      [
       -122.3661178,
       37.7285187
      ],
      [
       -122.3663022,
       37.7283184
      ],
      [
       -122.3689212,
       37.729805
      ],
      [
       -122.3689805,
       37.7298261
      ],
      [
       -122.3690475,
       37.7298278
      ],
      [
       -122.3688465,
       37.730053
      ],
      [
       -122.3690662,
       37.7301794
      ],
      [
       -122.3692967,
       37.7299288
      ],
      [
       -122.3703118,
       37.7299266
      ],
      [
       -122.3707925,
       37.7301845
      ],
      [
       -122.3711414,
       37.7298028
      ],
      [
       -122.3712602,
       37.7298715
      ],
      [
       -122.3713075,
       37.7298181
      ],
      [
       -122.3715099,
       37.729936
      ],
      [
       -122.3715857,
       37.7298685
      ],
      [
       -122.3717885,
       37.7299839
      ],
      [
       -122.3695597,
       37.7324531
      ],
      [
       -122.3695358,
       37.7324321
      ],
      [
       -122.3695228,
       37.7323686
      ],
      [
       -122.3695142,
       37.7322012
      ],
      [
       -122.3692089,
       37.7319931
      ],
      [
       -122.3691059,
       37.7319925
      ],
      [
       -122.3690144,
       37.7319585
      ],
      [
       -122.3689814,
       37.7319931
      ],
      [
       -122.3690001,
       37.7319515
      ],
      [
       -122.368894,
       37.7319312
      ],
      [
       -122.3687944,
       37.7319346
      ],
      [
       -122.3687053,
       37.7319561
      ],
      [
       -122.3686595,
       37.7319949
      ],
      [
       -122.3686311,
       37.7320489
      ],
      [
       -122.3686441,
       37.7321852
      ],
      [
       -122.3686179,
       37.7322431
      ],
      [
       -122.3685467,
       37.7322816
      ],
      [
       -122.3683877,
       37.7322916
      ],
      [
       -122.3681406,
       37.7322581
      ],
      [
       -122.3677556,
       37.7320118
      ],
      [
       -122.3676542,
       37.7319671
      ],
      [
       -122.3675048,
       37.7319451
      ],
      [
       -122.3673488,
       37.7319691
      ],
      [
       -122.3672781,
       37.7319984
      ],
      [
       -122.3671091,
       37.7321334
      ],
      [
       -122.3669619,
       37.7321895
      ],
      [
       -122.3668529,
       37.7322975
      ],
      [
       -122.3667654,
       37.7322949
      ],
      [
       -122.366674,
       37.7322194
      ],
      [
       -122.3658365,
       37.7331379
      ],
      [
       -122.3658571,
       37.7331975
      ],
      [
       -122.3653083,
       37.7338019
      ],
      [
       -122.365226,
       37.7337904
      ],
      [
       -122.365192,
       37.7337299
      ],
      [
       -122.3665388,
       37.7321868
      ],
      [
       -122.3664556,
       37.7321459
      ],
      [
       -122.3663145,
       37.732287
      ],
      [
       -122.3662276,
       37.7322414
      ],
      [
       -122.3655598,
       37.7329949
      ],
      [
       -122.3654465,
       37.7330547
      ],
      [
       -122.3653302,
       37.7329986
      ],
      [
       -122.3653484,
       37.7328906
      ],
      [
       -122.3661782,
       37.7319947
      ],
      [
       -122.3661501,
       37.7319748
      ],
      [
       -122.366186,
       37.7319141
      ],
      [
       -122.365998,
       37.7318307
      ],
      [
       -122.3651575,
       37.7327692
      ],
      [
       -122.3650128,
       37.7328296
      ],
      [
       -122.3649379,
       37.7327562
      ],
      [
       -122.3649669,
       37.7326646
      ],
      [
       -122.3657799,
       37.731773
      ],
      [
       -122.3658073,
       37.7317142
      ],
      [
       -122.3656548,
       37.7316287
      ],
      [
       -122.3648281,
       37.7325425
      ],
      [
       -122.3647328,
       37.732486
      ],
      [
       -122.3651047,
       37.7320638
      ],
      [
       -122.3629065,
       37.7308311
      ],
      [
       -122.3629872,
       37.7307357
      ],
      [
       -122.3620859,
       37.7302101
      ],
      [
       -122.361907,
       37.7300902
      ],
      [
       -122.361678,
       37.7300617
      ],
      [
       -122.3613665,
       37.7300879
      ],
      [
       -122.3612007,
       37.7300764
      ],
      [
       -122.3609916,
       37.7300067
      ],
      [
       -122.3608769,
       37.7299073
      ],
      [
       -122.3607553,
       37.7299622
      ],
      [
       -122.3608161,
       37.7300266
      ],
      [
       -122.360835,
       37.7301018
      ],
      [
       -122.3608089,
       37.7301757
      ],
      [
       -122.3607413,
       37.7302332
      ],
      [
       -122.3603535,
       37.7303105
      ],
      [
       -122.3599148,
       37.7303323
      ],
      [
       -122.3587904,
       37.7297833
      ],
      [
       -122.3589501,
       37.7297137
      ],
      [
       -122.3588438,
       37.7296598
      ],
      [
       -122.3589687,
       37.7295178
      ],
      [
       -122.3614213,
       37.7289534
      ],
      [
       -122.3619701,
       37.7288086
      ],
      [
       -122.362129,
       37.7287399
      ],
      [
       -122.362261,
       37.7286415
      ],
      [
       -122.362294,
       37.7285826
      ],
      [
       -122.3622816,
       37.7285207
      ],
      [
       -122.3621182,
       37.7284629
      ],
      [
       -122.3619399,
       37.7284428
      ],
      [
       -122.3618305,
       37.7284502
      ],
      [
       -122.3614489,
       37.7285238
      ],
      [
       -122.3592545,
       37.7290464
      ],
      [
       -122.3588701,
       37.7291718
      ],
      [
       -122.3577306,
       37.7294432
      ],
      [
       -122.3574792,
       37.7292453
      ],
      [
       -122.3578754,
       37.7289497
      ],
      [
       -122.3600923,
       37.7284371
      ],
      [
       -122.360232,
       37.7283763
      ],
      [
       -122.360381,
       37.7282679
      ],
      [
       -122.3604076,
       37.7282189
      ],
      [
       -122.3603927,
       37.7281681
      ],
      [
       -122.3602002,
       37.7281372
      ],
      [
       -122.359963,
       37.7281535
      ],
      [
       -122.3571575,
       37.7288253
      ],
      [
       -122.3571195,
       37.7286643
      ],
      [
       -122.3569921,
       37.7287022
      ],
      [
       -122.3569766,
       37.7286781
      ],
      [
       -122.3576999,
       37.7262823
      ],
      [
       -122.3580136,
       37.7260394
      ],
      [
       -122.3616396,
       37.7252166
      ],
      [
       -122.3612529,
       37.7241665
      ],
      [
       -122.3580753,
       37.7249169
      ],
      [
       -122.3581824,
       37.7245446
      ],
      [
       -122.3615238,
       37.7237749
      ],
      [
       -122.3620026,
       37.7240594
      ],
      [
       -122.3620853,
       37.7239867
      ],
      [
       -122.3649,
       37.7256982
      ],
      [
       -122.3650255,
       37.725725
      ],
      [
       -122.3651575,
       37.7257037
      ],
      [
       -122.3652599,
       37.7256403
      ],
      [
       -122.365317,
       37.7255475
      ],
      [
       -122.3653224,
       37.725468
      ],
      [
       -122.3652909,
       37.7253885
      ],
      [
       -122.3650532,
       37.7252263
      ],
      [
       -122.362367,
       37.7236788
      ],
      [
       -122.3627463,
       37.7232565
      ],
      [
       -122.3599759,
       37.7216292
      ],
      [
       -122.3602355,
       37.7213585
      ],
      [
       -122.3629962,
       37.7229773
      ],
      [
       -122.3638079,
       37.7221035
      ],
      [
       -122.3595964,
       37.7196269
      ],
      [
       -122.3599283,
       37.7184726
      ],
      [
       -122.3600297,
       37.7184951
      ],
      [
       -122.362711,
       37.7200691
      ],
      [
       -122.3630374,
       37.719705
      ],
      [
       -122.3630886,
       37.719678
      ],
      [
       -122.3631547,
       37.7196724
      ],
      [
       -122.3631726,
       37.7196493
      ],
      [
       -122.363155,
       37.7196013
      ],
      [
       -122.363172,
       37.7195562
      ],
      [
       -122.363654,
       37.7190568
      ],
      [
       -122.3625264,
       37.7184142
      ],
      [
       -122.3624769,
       37.7183577
      ],
      [
       -122.362456,
       37.7182877
      ],
      [
       -122.362467,
       37.7182226
      ],
      [
       -122.3625108,
       37.7181523
      ],
      [
       -122.3603752,
       37.7169182
      ],
      [
       -122.3604299,
       37.7167279
      ],
      [
       -122.3626449,
       37.7180193
      ],
      [
       -122.3638634,
       37.716729
      ],
      [
       -122.3609235,
       37.7150111
      ],
      [
       -122.3609726,
       37.7148404
      ],
      [
       -122.3639727,
       37.716579
      ],
      [
       -122.3642601,
       37.7162932
      ],
      [
       -122.364313,
       37.7162737
      ],
      [
       -122.3643976,
       37.7162768
      ],
      [
       -122.3652156,
       37.7153521
      ],
      [
       -122.3652378,
       37.7153012
      ],
      [
       -122.3652395,
       37.7152354
      ],
      [
       -122.3651925,
       37.7151769
      ],
      [
       -122.3647772,
       37.7149349
      ],
      [
       -122.3647359,
       37.7149706
      ],
      [
       -122.3645795,
       37.7148644
      ],
      [
       -122.3645519,
       37.7148036
      ],
      [
       -122.3642696,
       37.7146392
      ],
      [
       -122.3641888,
       37.7146368
      ],
      [
       -122.3640144,
       37.7145502
      ],
      [
       -122.3640447,
       37.7145082
      ],
      [
       -122.3633107,
       37.7140804
      ],
      [
       -122.3632689,
       37.7141158
      ],
      [
       -122.3631125,
       37.7140097
      ],
      [
       -122.3630849,
       37.7139489
      ],
      [
       -122.3628026,
       37.7137844
      ],
      [
       -122.3627218,
       37.7137821
      ],
      [
       -122.3625474,
       37.7136954
      ],
      [
       -122.3625777,
       37.7136534
      ],
      [
       -122.361854,
       37.7132317
      ],
      [
       -122.3618121,
       37.7132671
      ],
      [
       -122.3616558,
       37.7131609
      ],
      [
       -122.3616287,
       37.7131005
      ],
      [
       -122.3614951,
       37.7130226
      ],
      [
       -122.3615085,
       37.7129759
      ],
      [
       -122.3616736,
       37.7130721
      ],
      [
       -122.3617378,
       37.7130748
      ],
      [
       -122.3619182,
       37.7131593
      ],
      [
       -122.3618883,
       37.7131972
      ],
      [
       -122.3626089,
       37.713617
      ],
      [
       -122.362645,
       37.7135828
      ],
      [
       -122.3628006,
       37.7136941
      ],
      [
       -122.3628236,
       37.7137422
      ],
      [
       -122.3631303,
       37.7139208
      ],
      [
       -122.3631944,
       37.7139236
      ],
      [
       -122.3633748,
       37.714008
      ],
      [
       -122.3633445,
       37.7140457
      ],
      [
       -122.3640754,
       37.7144715
      ],
      [
       -122.364112,
       37.7144375
      ],
      [
       -122.3642676,
       37.7145488
      ],
      [
       -122.3642902,
       37.7145966
      ],
      [
       -122.3645968,
       37.7147753
      ],
      [
       -122.3646615,
       37.7147783
      ],
      [
       -122.3648418,
       37.7148627
      ],
      [
       -122.3648116,
       37.7149004
      ],
      [
       -122.3653884,
       37.7152365
      ],
      [
       -122.3644163,
       37.7163091
      ],
      [
       -122.3644317,
       37.716366
      ],
      [
       -122.3646285,
       37.7164682
      ],
      [
       -122.3647383,
       37.7164818
      ],
      [
       -122.3648517,
       37.7164249
      ],
      [
       -122.3649161,
       37.7163582
      ],
      [
       -122.364972,
       37.7162333
      ],
      [
       -122.365031,
       37.7161831
      ],
      [
       -122.3651083,
       37.7161461
      ],
      [
       -122.3651431,
       37.7160699
      ],
      [
       -122.365222,
       37.7160109
      ],
      [
       -122.3653806,
       37.7159694
      ],
      [
       -122.3654675,
       37.715974
      ],
      [
       -122.3655498,
       37.7159962
      ],
      [
       -122.3656659,
       37.7160717
      ],
      [
       -122.3658403,
       37.7162789
      ],
      [
       -122.3660602,
       37.716501
      ],
      [
       -122.3661888,
       37.7166731
      ],
      [
       -122.3663398,
       37.7168102
      ],
      [
       -122.3667549,
       37.7170756
      ],
      [
       -122.36776,
       37.7176655
      ],
      [
       -122.367951,
       37.7177408
      ],
      [
       -122.368448,
       37.7177975
      ],
      [
       -122.3686511,
       37.7178055
      ],
      [
       -122.3691265,
       37.7177758
      ],
      [
       -122.3691706,
       37.7177759
      ],
      [
       -122.3692034,
       37.7177989
      ],
      [
       -122.3692352,
       37.7177785
      ],
      [
       -122.369385,
       37.717804
      ],
      [
       -122.369528,
       37.7178478
      ],
      [
       -122.3697415,
       37.7179583
      ],
      [
       -122.3699021,
       37.718098
      ],
      [
       -122.3699671,
       37.7181813
      ],
      [
       -122.370031,
       37.7183763
      ],
      [
       -122.3701274,
       37.7185257
      ],
      [
       -122.3702981,
       37.7186439
      ],
      [
       -122.3705015,
       37.7187231
      ],
      [
       -122.370754,
       37.7187587
      ],
      [
       -122.3708904,
       37.7187532
      ],
      [
       -122.3709788,
       37.7187325
      ],
      [
       -122.3710546,
       37.7187382
      ],
      [
       -122.3713017,
       37.71887
      ],
      [
       -122.3713941,
       37.7188824
      ],
      [
       -122.3714997,
       37.7188621
      ],
      [
       -122.3715648,
       37.7188711
      ],
      [
       -122.3717064,
       37.7189907
      ],
      [
       -122.3718224,
       37.719009
      ],
      [
       -122.3719982,
       37.7189901
      ],
      [
       -122.3721202,
       37.7190077
      ],
      [
       -122.3722495,
       37.7189928
      ],
      [
       -122.3722487,
       37.7190133
      ],
      [
       -122.3722698,
       37.7189925
      ],
      [
       -122.3724798,
       37.7190178
      ],
      [
       -122.3727263,
       37.7189721
      ],
      [
       -122.3728808,
       37.7189814
      ],
      [
       -122.3729467,
       37.7189623
      ],
      [
       -122.372998,
       37.7189241
      ],
      [
       -122.3732732,
       37.7188448
      ],
      [
       -122.3735551,
       37.7188014
      ],
      [
       -122.373795,
       37.7188151
      ],
      [
       -122.3739016,
       37.7188512
      ],
      [
       -122.3739953,
       37.7189054
      ],
      [
       -122.3740858,
       37.7189928
      ],
      [
       -122.3741424,
       37.7190967
      ],
      [
       -122.3741607,
       37.7191947
      ],
      [
       -122.3741509,
       37.719344
      ],
      [
       -122.3741822,
       37.7194398
      ],
      [
       -122.3742461,
       37.719518
      ],
      [
       -122.3744193,
       37.7196664
      ],
      [
       -122.3744718,
       37.7197705
      ],
      [
       -122.3745313,
       37.7198126
      ],
      [
       -122.3746535,
       37.7198628
      ],
      [
       -122.3747791,
       37.7199955
      ],
      [
       -122.3749418,
       37.7201081
      ],
      [
       -122.375391,
       37.7202987
      ],
      [
       -122.3754862,
       37.7203721
      ],
      [
       -122.3755567,
       37.7204545
      ],
      [
       -122.3756556,
       37.7207526
      ],
      [
       -122.3757482,
       37.7211146
      ],
      [
       -122.3758514,
       37.7211998
      ],
      [
       -122.3758821,
       37.7212597
      ],
      [
       -122.3758309,
       37.7214476
      ],
      [
       -122.3758217,
       37.7215928
      ],
      [
       -122.3759213,
       37.7221673
      ],
      [
       -122.3758996,
       37.7224689
      ],
      [
       -122.3759531,
       37.7227093
      ],
      [
       -122.3760703,
       37.7229236
      ],
      [
       -122.3762087,
       37.7230916
      ],
      [
       -122.376385,
       37.7232355
      ],
      [
       -122.3766306,
       37.7233743
      ],
      [
       -122.376702,
       37.7234446
      ],
      [
       -122.3767213,
       37.7234754
      ],
      [
       -122.3767161,
       37.7235029
      ],
      [
       -122.3766578,
       37.7235908
      ],
      [
       -122.3770793,
       37.7242371
      ],
      [
       -122.3771612,
       37.7241896
      ],
      [
       -122.3772386,
       37.7241663
      ],
      [
       -122.3775211,
       37.7241698
      ],
      [
       -122.3777171,
       37.7241523
      ],
      [
       -122.3778229,
       37.7241322
      ],
      [
       -122.3778607,
       37.7240923
      ],
      [
       -122.3779057,
       37.7241085
      ],
      [
       -122.3782027,
       37.7240303
      ],
      [
       -122.3785572,
       37.7239673
      ],
      [
       -122.378777,
       37.7238928
      ],
      [
       -122.3789566,
       37.7237907
      ],
      [
       -122.3790503,
       37.7237156
      ],
      [
       -122.3791688,
       37.7235173
      ],
      [
       -122.379224,
       37.7233634
      ],
      [
       -122.3792567,
       37.7231188
      ],
      [
       -122.3792885,
       37.7230528
      ],
      [
       -122.379381,
       37.7229901
      ],
      [
       -122.3796234,
       37.722934
      ],
      [
       -122.3797531,
       37.722848
      ],
      [
       -122.3798222,
       37.7227536
      ],
      [
       -122.3798143,
       37.7227
      ],
      [
       -122.3798677,
       37.7225934
      ],
      [
       -122.3799489,
       37.7223198
      ],
      [
       -122.3799912,
       37.7222452
      ],
      [
       -122.3800709,
       37.7221689
      ],
      [
       -122.380299,
       37.7220296
      ],
      [
       -122.3804991,
       37.7218375
      ],
      [
       -122.3805608,
       37.7218035
      ],
      [
       -122.3807464,
       37.7217591
      ],
      [
       -122.3809378,
       37.7217839
      ],
      [
       -122.3816233,
       37.7221524
      ]
     ]
    ]
   }
  }
 ]
}
