{
 "type": "FeatureCollection",
 "properties": {
  "project": "india-basin",
  "source": "DataSF Zoning Map \u2013 Special Use Districts, \u201cIndia Basin SUD\u201d",
  "sourceLabel": "DataSF special use districts",
  "sourceUrl": "https://data.sf.gov/d/5yf5-ms5f",
  "query": "https://data.sf.gov/resource/5yf5-ms5f.geojson?%24where=name+%3D+%27India+Basin+SUD%27&%24limit=5000",
  "accuracy": "official",
  "accuracyNote": "The India Basin Special Use District: the private development site. The Rec and Park shoreline parks are outside it. 30.1 acres as drawn.",
  "license": "Public Domain U.S. Government (DataSF)",
  "features_used": 1
 },
 "features": [
  {
   "type": "Feature",
   "properties": {
    "kind": "site",
    "name": "Project site"
   },
   "geometry": {
    "type": "Polygon",
    "coordinates": [
     [
      [
       -122.3757582,
       37.7319966
      ],
      [
       -122.37463,
       37.7332466
      ],
      [
       -122.3737546,
       37.7327525
      ],
      [
       -122.3736754,
       37.7328396
      ],
      [
       -122.3735079,
       37.7329584
      ],
      [
       -122.3734074,
       37.733106
      ],
      [
       -122.3731561,
       37.733355
      ],
      [
       -122.3731313,
       37.7333459
      ],
      [
       -122.3728479,
       37.7336143
      ],
      [
       -122.3725521,
       37.7339524
      ],
      [
       -122.3725709,
       37.733968
      ],
      [
       -122.372486,
       37.7340618
      ],
      [
       -122.3723653,
       37.7341389
      ],
      [
       -122.3722171,
       37.7341745
      ],
      [
       -122.3720427,
       37.7341584
      ],
      [
       -122.3718953,
       37.7340865
      ],
      [
       -122.3716784,
       37.7339262
      ],
      [
       -122.3714828,
       37.7337543
      ],
      [
       -122.3713929,
       37.7337031
      ],
      [
       -122.3714222,
       37.7336645
      ],
      [
       -122.3713359,
       37.7336152
      ],
      [
       -122.3708387,
       37.7332263
      ],
      [
       -122.3703166,
       37.7328586
      ],
      [
       -122.3696716,
       37.7324566
      ],
      [
       -122.3717274,
       37.7301806
      ],
      [
       -122.3723911,
       37.7305568
      ],
      [
       -122.3726716,
       37.7302492
      ],
      [
       -122.3728131,
       37.7303289
      ],
      [
       -122.3725363,
       37.7306359
      ],
      [
       -122.3726698,
       37.7307157
      ],
      [
       -122.372954,
       37.7304083
      ],
      [
       -122.3738903,
       37.730936
      ],
      [
       -122.3736117,
       37.7312503
      ],
      [
       -122.374049,
       37.7314975
      ],
      [
       -122.3743321,
       37.7311869
      ],
      [
       -122.3746133,
       37.7313466
      ],
      [
       -122.3743336,
       37.7316574
      ],
      [
       -122.3745391,
       37.7317768
      ],
      [
       -122.3748241,
       37.7314663
      ],
      [
       -122.3752461,
       37.7317059
      ],
      [
       -122.3749665,
       37.7320168
      ],
      [
       -122.3751767,
       37.732139
      ],
      [
       -122.3754628,
       37.7318289
      ],
      [
       -122.3757582,
       37.7319966
      ]
     ]
    ]
   }
  }
 ]
}
