{
 "type": "FeatureCollection",
 "properties": {
  "project": "mare-island",
  "source": "City of Vallejo GIS, Existing Specific Plan Area \u201cMare Island\u201d (2005)",
  "sourceLabel": "Vallejo specific plan areas",
  "sourceUrl": "https://portal.cityofvallejo.net/arcgis/rest/services/CityGIS_Viewer/Planning_Development_Services/MapServer/67",
  "query": "https://portal.cityofvallejo.net/arcgis/rest/services/CityGIS_Viewer/Planning_Development_Services/MapServer/67/query?where=Name+%3D+%27Mare+Island%27+and+Year+%3D+2005&outFields=%2A&outSR=4326&f=geojson",
  "accuracy": "approximate",
  "accuracyNote": "The adopted 2005 Mare Island Specific Plan area, about 3,100 acres; the whole island is 5,250 acres in the 2005 EIR. The new specific plan's boundary isn't published, and may differ. 3,093.0 acres as drawn.",
  "license": "City of Vallejo GIS (no license stated)",
  "features_used": 1
 },
 "features": [
  {
   "type": "Feature",
   "properties": {
    "kind": "site",
    "name": "Project site"
   },
   "geometry": {
    "type": "Polygon",
    "coordinates": [
     [
      [
       -122.3033353,
       38.1035064
      ],
      [
       -122.3016278,
       38.1051691
      ],
      [
       -122.3014939,
       38.10506
      ],
      [
       -122.2962222,
       38.1101577
      ],
      [
       -122.2935269,
       38.1127201
      ],
      [
       -122.2932043,
       38.1132603
      ],
      [
       -122.2930638,
       38.1133409
      ],
      [
       -122.29123,
       38.1146178
      ],
      [
       -122.2902975,
       38.1146503
      ],
      [
       -122.2906283,
       38.1151573
      ],
      [
       -122.2898839,
       38.1151607
      ],
      [
       -122.2889854,
       38.1167108
      ],
      [
       -122.2887734,
       38.1167113
      ],
      [
       -122.2882916,
       38.116553
      ],
      [
       -122.2879228,
       38.1165212
      ],
      [
       -122.2876844,
       38.1164361
      ],
      [
       -122.2874833,
       38.1164328
      ],
      [
       -122.2872235,
       38.1166662
      ],
      [
       -122.2873293,
       38.1171464
      ],
      [
       -122.2865065,
       38.1172112
      ],
      [
       -122.2834049,
       38.1183728
      ],
      [
       -122.2827208,
       38.1184338
      ],
      [
       -122.2825246,
       38.1181398
      ],
      [
       -122.2823532,
       38.117811
      ],
      [
       -122.2822529,
       38.1175102
      ],
      [
       -122.2822083,
       38.1172835
      ],
      [
       -122.2817268,
       38.1162989
      ],
      [
       -122.2816282,
       38.1159811
      ],
      [
       -122.2813082,
       38.1154409
      ],
      [
       -122.2811018,
       38.1151678
      ],
      [
       -122.2807686,
       38.114806
      ],
      [
       -122.2806042,
       38.1145218
      ],
      [
       -122.2805755,
       38.1143711
      ],
      [
       -122.2804326,
       38.1142153
      ],
      [
       -122.2797492,
       38.1131594
      ],
      [
       -122.2794512,
       38.1127683
      ],
      [
       -122.2790344,
       38.1125874
      ],
      [
       -122.2788664,
       38.1123412
      ],
      [
       -122.2786153,
       38.1120623
      ],
      [
       -122.2784886,
       38.111701
      ],
      [
       -122.2779665,
       38.1110117
      ],
      [
       -122.2775492,
       38.1102456
      ],
      [
       -122.2772976,
       38.1101919
      ],
      [
       -122.2770008,
       38.1102467
      ],
      [
       -122.2768812,
       38.1101313
      ],
      [
       -122.2767875,
       38.1100772
      ],
      [
       -122.2769123,
       38.1099388
      ],
      [
       -122.2738844,
       38.1060356
      ],
      [
       -122.268555,
       38.1003049
      ],
      [
       -122.2688424,
       38.1000529
      ],
      [
       -122.2688875,
       38.0999851
      ],
      [
       -122.2688253,
       38.0999148
      ],
      [
       -122.2686726,
       38.0999526
      ],
      [
       -122.2681692,
       38.1001446
      ],
      [
       -122.2678661,
       38.0997241
      ],
      [
       -122.2671457,
       38.0989514
      ],
      [
       -122.2670992,
       38.0986886
      ],
      [
       -122.2659636,
       38.0974871
      ],
      [
       -122.2659133,
       38.0973867
      ],
      [
       -122.265934,
       38.0972799
      ],
      [
       -122.2660043,
       38.0971542
      ],
      [
       -122.2661339,
       38.0971999
      ],
      [
       -122.266281,
       38.0969303
      ],
      [
       -122.2648855,
       38.0963349
      ],
      [
       -122.2644671,
       38.0958795
      ],
      [
       -122.2646134,
       38.0956788
      ],
      [
       -122.2646718,
       38.0956998
      ],
      [
       -122.264824,
       38.0954783
      ],
      [
       -122.2647778,
       38.0954538
      ],
      [
       -122.2649405,
       38.0952131
      ],
      [
       -122.2631609,
       38.0944657
      ],
      [
       -122.2585288,
       38.0901432
      ],
      [
       -122.258521,
       38.0900816
      ],
      [
       -122.2585907,
       38.0900532
      ],
      [
       -122.2591655,
       38.0901092
      ],
      [
       -122.2591723,
       38.0900947
      ],
      [
       -122.2593998,
       38.0901148
      ],
      [
       -122.259442,
       38.0898638
      ],
      [
       -122.2592178,
       38.0898409
      ],
      [
       -122.2592126,
       38.0898148
      ],
      [
       -122.2609256,
       38.0891807
      ],
      [
       -122.2596934,
       38.0880335
      ],
      [
       -122.2597087,
       38.0878894
      ],
      [
       -122.2595317,
       38.0876948
      ],
      [
       -122.2589647,
       38.0871468
      ],
      [
       -122.2587373,
       38.0869813
      ],
      [
       -122.2582234,
       38.0864419
      ],
      [
       -122.2557681,
       38.0873456
      ],
      [
       -122.2555715,
       38.0871674
      ],
      [
       -122.2561675,
       38.0867783
      ],
      [
       -122.2558348,
       38.0863601
      ],
      [
       -122.2557648,
       38.0860695
      ],
      [
       -122.2559363,
       38.0857284
      ],
      [
       -122.2554539,
       38.0851918
      ],
      [
       -122.2548768,
       38.0849806
      ],
      [
       -122.2545549,
       38.0850763
      ],
      [
       -122.2542456,
       38.0847487
      ],
      [
       -122.2525156,
       38.0822462
      ],
      [
       -122.2510724,
       38.0804836
      ],
      [
       -122.2496815,
       38.0789718
      ],
      [
       -122.2489061,
       38.0783
      ],
      [
       -122.24853,
       38.0774799
      ],
      [
       -122.2479951,
       38.076913
      ],
      [
       -122.2474597,
       38.0761568
      ],
      [
       -122.2469779,
       38.0755685
      ],
      [
       -122.2471946,
       38.0754809
      ],
      [
       -122.2478447,
       38.0764258
      ],
      [
       -122.2480519,
       38.0765887
      ],
      [
       -122.2480663,
       38.0766737
      ],
      [
       -122.248302,
       38.0764779
      ],
      [
       -122.2485345,
       38.0761609
      ],
      [
       -122.2488146,
       38.0759114
      ],
      [
       -122.2490211,
       38.0753688
      ],
      [
       -122.2491196,
       38.0748846
      ],
      [
       -122.2494082,
       38.0746728
      ],
      [
       -122.2497623,
       38.074171
      ],
      [
       -122.2501283,
       38.0739593
      ],
      [
       -122.2502948,
       38.0737654
      ],
      [
       -122.250662,
       38.0736764
      ],
      [
       -122.2511674,
       38.0733576
      ],
      [
       -122.2514213,
       38.0729795
      ],
      [
       -122.2513878,
       38.0728212
      ],
      [
       -122.2514195,
       38.0723551
      ],
      [
       -122.2518629,
       38.0719308
      ],
      [
       -122.2518493,
       38.0712896
      ],
      [
       -122.2516699,
       38.0707896
      ],
      [
       -122.2514128,
       38.0704558
      ],
      [
       -122.251553,
       38.0701578
      ],
      [
       -122.2517568,
       38.0702264
      ],
      [
       -122.2521981,
       38.0707532
      ],
      [
       -122.2521936,
       38.0709474
      ],
      [
       -122.2530872,
       38.0725808
      ],
      [
       -122.2535384,
       38.072746
      ],
      [
       -122.2537559,
       38.0727806
      ],
      [
       -122.2542013,
       38.0726655
      ],
      [
       -122.2549584,
       38.0728484
      ],
      [
       -122.255715,
       38.0728204
      ],
      [
       -122.2562333,
       38.0727373
      ],
      [
       -122.2563407,
       38.0706032
      ],
      [
       -122.2587582,
       38.0685842
      ],
      [
       -122.2606592,
       38.0683073
      ],
      [
       -122.2760022,
       38.0664737
      ],
      [
       -122.2760223,
       38.0680034
      ],
      [
       -122.2764849,
       38.0706954
      ],
      [
       -122.2777021,
       38.0736002
      ],
      [
       -122.2800406,
       38.0778614
      ],
      [
       -122.2828611,
       38.0820018
      ],
      [
       -122.2860141,
       38.0862129
      ],
      [
       -122.2918625,
       38.0931104
      ],
      [
       -122.294291,
       38.095579
      ],
      [
       -122.2954208,
       38.0965155
      ],
      [
       -122.2974646,
       38.0985544
      ],
      [
       -122.3012486,
       38.1018574
      ],
      [
       -122.3033353,
       38.1035064
      ]
     ]
    ]
   }
  }
 ]
}
