{
 "type": "FeatureCollection",
 "properties": {
  "project": "middlefield-park",
  "source": "City of Mountain View parcels, the 14 APNs in Resolution 18734 (Middlefield Park Master Plan)",
  "sourceLabel": "Mountain View parcels",
  "sourceUrl": "https://maps.mountainview.gov/arcgis/rest/services/Public/Parcel/MapServer/0",
  "query": "https://maps.mountainview.gov/arcgis/rest/services/Public/Parcel/MapServer/0/query?where=APN+in+%28%2716058001%27%2C+%2716058016%27%2C+%2716058017%27%2C+%2716057004%27%2C+%2716057006%27%2C+%2716057007%27%2C+%2716057008%27%2C+%2716057009%27%2C+%2716057010%27%2C+%2716057011%27%2C+%2716057012%27%2C+%2716057013%27%2C+%2716059005%27%2C+%2716059006%27%29&outFields=%2A&outSR=4326&f=geojson",
  "accuracy": "approximate",
  "accuracyNote": "The 14 parcels the master plan approves, against the Council report's \u201capproximately 40 acres\u201d. Streets between them are left out, and the approved street vacations will change the edges. 40.0 acres as drawn.",
  "license": "City of Mountain View open data (use at your own risk)",
  "features_used": 14
 },
 "features": [
  {
   "type": "Feature",
   "properties": {
    "kind": "site",
    "name": "Project site"
   },
   "geometry": {
    "type": "MultiPolygon",
    "coordinates": [
     [
      [
       [
        -122.0468831,
        37.397893
       ],
       [
        -122.0469512,
        37.3980949
       ],
       [
        -122.046946,
        37.3982932
       ],
       [
        -122.0467101,
        37.3990022
       ],
       [
        -122.0453512,
        37.3987551
       ],
       [
        -122.0457172,
        37.3976435
       ],
       [
        -122.0468831,
        37.397893
       ]
      ]
     ],
     [
      [
       [
        -122.046894,
        37.396928
       ],
       [
        -122.0467794,
        37.3972761
       ],
       [
        -122.0467537,
        37.3974708
       ],
       [
        -122.0458503,
        37.3972677
       ],
       [
        -122.0460362,
        37.3967434
       ],
       [
        -122.046894,
        37.396928
       ]
      ]
     ],
     [
      [
       [
        -122.0510642,
        37.3983496
       ],
       [
        -122.0505677,
        37.3997071
       ],
       [
        -122.0469063,
        37.3990545
       ],
       [
        -122.0471307,
        37.3983977
       ],
       [
        -122.0471619,
        37.3982391
       ],
       [
        -122.04715,
        37.3980341
       ],
       [
        -122.0471111,
        37.3979054
       ],
       [
        -122.0469785,
        37.3976092
       ],
       [
        -122.0469632,
        37.3973937
       ],
       [
        -122.047008,
        37.3972197
       ],
       [
        -122.0473959,
        37.3960846
       ],
       [
        -122.0474922,
        37.3959203
       ],
       [
        -122.047587,
        37.3958183
       ],
       [
        -122.0476667,
        37.3957564
       ],
       [
        -122.0477245,
        37.3957326
       ],
       [
        -122.0477898,
        37.3957324
       ],
       [
        -122.0478476,
        37.3957563
       ],
       [
        -122.0484029,
        37.3962582
       ],
       [
        -122.0499809,
        37.3973078
       ],
       [
        -122.0500259,
        37.3973563
       ],
       [
        -122.0500321,
        37.3974359
       ],
       [
        -122.0496307,
        37.3985426
       ],
       [
        -122.0494989,
        37.3986945
       ],
       [
        -122.049498,
        37.3987709
       ],
       [
        -122.0495444,
        37.3988381
       ],
       [
        -122.0496253,
        37.3988784
       ],
       [
        -122.0497205,
        37.3988821
       ],
       [
        -122.049781,
        37.398863
       ],
       [
        -122.0498472,
        37.3988082
       ],
       [
        -122.0498715,
        37.3987343
       ],
       [
        -122.0498576,
        37.3986093
       ],
       [
        -122.0500384,
        37.398114
       ],
       [
        -122.0510642,
        37.3983496
       ]
      ]
     ],
     [
      [
       [
        -122.0487063,
        37.3954059
       ],
       [
        -122.0481493,
        37.3957851
       ],
       [
        -122.0475934,
        37.3952614
       ],
       [
        -122.0474907,
        37.3951886
       ],
       [
        -122.0472348,
        37.395053
       ],
       [
        -122.0471943,
        37.3950035
       ],
       [
        -122.0471762,
        37.3949462
       ],
       [
        -122.047195,
        37.3948591
       ],
       [
        -122.0472637,
        37.3947899
       ],
       [
        -122.0475256,
        37.3946268
       ],
       [
        -122.0487063,
        37.3954059
       ]
      ]
     ],
     [
      [
       [
        -122.053423,
        37.3963455
       ],
       [
        -122.0525348,
        37.3987333
       ],
       [
        -122.0511992,
        37.3984298
       ],
       [
        -122.0524329,
        37.3952612
       ],
       [
        -122.0527604,
        37.3954862
       ],
       [
        -122.0529867,
        37.3956186
       ],
       [
        -122.0530292,
        37.3956072
       ],
       [
        -122.0535911,
        37.3958885
       ],
       [
        -122.0536245,
        37.3959235
       ],
       [
        -122.0536207,
        37.3959589
       ],
       [
        -122.053423,
        37.3963455
       ]
      ]
     ]
    ]
   }
  }
 ]
}
