{
 "type": "FeatureCollection",
 "properties": {
  "project": "mission-bay",
  "source": "DataSF Former Redevelopment Agency Project Areas, \u201cMission Bay - North\u201d and \u201cMission Bay - South\u201d",
  "sourceLabel": "DataSF redevelopment project areas",
  "sourceUrl": "https://data.sf.gov/d/m288-24sn",
  "query": "https://data.sf.gov/resource/m288-24sn.geojson?%24where=project_ar+in+%28%27Mission+Bay+-+North%27%2C+%27Mission+Bay+-+South%27%29&%24limit=5000",
  "accuracy": "official",
  "accuracyNote": "The Mission Bay North and South redevelopment project areas, including some water and street edges. 317.5 acres as drawn.",
  "license": "ODC Public Domain Dedication and License (DataSF)",
  "features_used": 2
 },
 "features": [
  {
   "type": "Feature",
   "properties": {
    "kind": "site",
    "name": "Project site"
   },
   "geometry": {
    "type": "Polygon",
    "coordinates": [
     [
      [
       -122.4018681,
       37.7718209
      ],
      [
       -122.3991831,
       37.7739408
      ],
      [
       -122.3989791,
       37.7737739
      ],
      [
       -122.3992294,
       37.773579
      ],
      [
       -122.3983945,
       37.7729027
      ],
      [
       -122.3982648,
       37.7729922
      ],
      [
       -122.3981121,
       37.7732681
      ],
      [
       -122.3980456,
       37.773425
      ],
      [
       -122.3977526,
       37.7736763
      ],
      [
       -122.3943078,
       37.7763971
      ],
      [
       -122.3951715,
       37.777092
      ],
      [
       -122.3927512,
       37.7790122
      ],
      [
       -122.3918765,
       37.7783174
      ],
      [
       -122.3920613,
       37.7781561
      ],
      [
       -122.3911184,
       37.7773953
      ],
      [
       -122.3931409,
       37.7757928
      ],
      [
       -122.3924732,
       37.77526
      ],
      [
       -122.3922932,
       37.7750933
      ],
      [
       -122.3902249,
       37.7767085
      ],
      [
       -122.3899294,
       37.7766834
      ],
      [
       -122.389584,
       37.7731547
      ],
      [
       -122.3871831,
       37.7732955
      ],
      [
       -122.3864246,
       37.7715199
      ],
      [
       -122.3859689,
       37.7707568
      ],
      [
       -122.3856656,
       37.7703544
      ],
      [
       -122.3855331,
       37.770111
      ],
      [
       -122.38535,
       37.7681159
      ],
      [
       -122.3854682,
       37.7675561
      ],
      [
       -122.3862633,
       37.7659831
      ],
      [
       -122.3862181,
       37.7657888
      ],
      [
       -122.3865909,
       37.7652249
      ],
      [
       -122.3868705,
       37.7649938
      ],
      [
       -122.3872181,
       37.7646487
      ],
      [
       -122.3874786,
       37.7644746
      ],
      [
       -122.3880344,
       37.7642959
      ],
      [
       -122.3938824,
       37.7639272
      ],
      [
       -122.3940321,
       37.7655745
      ],
      [
       -122.4018681,
       37.7718209
      ]
     ],
     [
      [
       -122.3948653,
       37.7732612
      ],
      [
       -122.3946099,
       37.7732823
      ],
      [
       -122.3932172,
       37.7743762
      ],
      [
       -122.3946553,
       37.7733034
      ],
      [
       -122.3948815,
       37.7732752
      ],
      [
       -122.3969597,
       37.7716335
      ],
      [
       -122.3948653,
       37.7732612
      ]
     ],
     [
      [
       -122.3983101,
       37.7700111
      ],
      [
       -122.3984202,
       37.7704805
      ],
      [
       -122.3984269,
       37.770484
      ],
      [
       -122.3983101,
       37.7700111
      ]
     ]
    ]
   }
  }
 ]
}
