{
 "type": "FeatureCollection",
 "properties": {
  "project": "moffett-park",
  "source": "City of Sunnyvale General Plan, Specific Plan Boundary \u201cMP\u201d",
  "sourceLabel": "Sunnyvale specific plan boundary",
  "sourceUrl": "https://gis.sunnyvale.ca.gov/arcgis/rest/services/GeneralPlan/MapServer/8",
  "query": "https://gis.sunnyvale.ca.gov/arcgis/rest/services/GeneralPlan/MapServer/8/query?where=SP_Code+%3D+%27MP%27&outFields=%2A&outSR=4326&f=geojson",
  "accuracy": "official",
  "accuracyNote": "The Moffett Park Specific Plan area (about 1,270 acres). 1,277.5 acres as drawn.",
  "license": "City of Sunnyvale GIS (no license stated)",
  "features_used": 1
 },
 "features": [
  {
   "type": "Feature",
   "properties": {
    "kind": "site",
    "name": "Project site"
   },
   "geometry": {
    "type": "Polygon",
    "coordinates": [
     [
      [
       -122.0371993,
       37.4015647
      ],
      [
       -122.0372306,
       37.4187645
      ],
      [
       -122.034684,
       37.4263249
      ],
      [
       -122.0270276,
       37.4248335
      ],
      [
       -122.0274822,
       37.4234736
      ],
      [
       -122.0242524,
       37.4225069
      ],
      [
       -122.022661,
       37.4220032
      ],
      [
       -122.0233317,
       37.4199394
      ],
      [
       -122.0239881,
       37.418056
      ],
      [
       -122.0238096,
       37.4181928
      ],
      [
       -122.0236936,
       37.4182613
      ],
      [
       -122.0233887,
       37.4183826
      ],
      [
       -122.0231998,
       37.4184239
      ],
      [
       -122.0230053,
       37.4184433
      ],
      [
       -122.0226638,
       37.4184233
      ],
      [
       -122.0199622,
       37.4178543
      ],
      [
       -122.0192036,
       37.4176353
      ],
      [
       -122.0136972,
       37.4164766
      ],
      [
       -122.0133737,
       37.4164232
      ],
      [
       -122.013046,
       37.4163894
      ],
      [
       -122.0125512,
       37.4163754
      ],
      [
       -122.0120277,
       37.4163878
      ],
      [
       -122.0117206,
       37.4163724
      ],
      [
       -122.0114159,
       37.416338
      ],
      [
       -122.0086089,
       37.4157714
      ],
      [
       -122.0027061,
       37.4145484
      ],
      [
       -122.0022987,
       37.4144031
      ],
      [
       -122.00193,
       37.4142026
      ],
      [
       -122.0016706,
       37.4140066
      ],
      [
       -122.0013998,
       37.4137237
      ],
      [
       -122.0012689,
       37.413537
      ],
      [
       -122.0001753,
       37.4114281
      ],
      [
       -121.9999696,
       37.410901
      ],
      [
       -121.99994,
       37.4107539
      ],
      [
       -121.9999364,
       37.410605
      ],
      [
       -121.9999588,
       37.4104569
      ],
      [
       -122.0000227,
       37.4102779
      ],
      [
       -122.0002594,
       37.4099044
      ],
      [
       -122.0006377,
       37.4093769
      ],
      [
       -122.0007576,
       37.4092531
      ],
      [
       -122.0008984,
       37.4091442
      ],
      [
       -122.0010572,
       37.4090525
      ],
      [
       -122.0012309,
       37.40898
      ],
      [
       -122.0020557,
       37.4087303
      ],
      [
       -122.0086801,
       37.4073045
      ],
      [
       -122.0099507,
       37.4070149
      ],
      [
       -122.0133107,
       37.406286
      ],
      [
       -122.0143493,
       37.4060104
      ],
      [
       -122.0203476,
       37.40464
      ],
      [
       -122.0222338,
       37.4042359
      ],
      [
       -122.0258216,
       37.4033876
      ],
      [
       -122.0271988,
       37.4031215
      ],
      [
       -122.0281155,
       37.4029066
      ],
      [
       -122.0321364,
       37.4019062
      ],
      [
       -122.0366813,
       37.4006459
      ],
      [
       -122.0371993,
       37.4015647
      ]
     ]
    ]
   }
  }
 ]
}
