{
 "type": "FeatureCollection",
 "properties": {
  "project": "northgate-san-rafael",
  "source": "Marin County parcels (Marin GIS Basemap, layer 13), the six APNs in San Rafael Resolution 15360 and Ordinance 2043",
  "sourceLabel": "Marin County parcels",
  "sourceUrl": "https://gis.marinpublic.com/arcgis/rest/services/BaseMap/Basemap/FeatureServer/13",
  "query": "https://gis.marinpublic.com/arcgis/rest/services/BaseMap/Basemap/FeatureServer/13/query?where=Prop_ID+IN+%28%27175-060-12%27%2C+%27175-060-40%27%2C+%27175-060-59%27%2C+%27175-060-61%27%2C+%27175-060-66%27%2C+%27175-060-67%27%29&outFields=%2A&outSR=4326&f=geojson",
  "accuracy": "approximate",
  "accuracyNote": "The six Northgate Mall parcels the City's approvals name as the Project Site, against the approvals' approximately 44.76 acres. Not yet checked against the Ordinance 2043 legal description (Exhibit D). The County's parcel service states no license; its terms are an open item. 43.8 acres as drawn.",
  "license": "Marin County GIS (no license stated; terms to confirm)",
  "features_used": 6
 },
 "features": [
  {
   "type": "Feature",
   "properties": {
    "kind": "site",
    "name": "Project site"
   },
   "geometry": {
    "type": "Polygon",
    "coordinates": [
     [
      [
       -122.546829,
       38.0027565
      ],
      [
       -122.5468383,
       38.0029831
      ],
      [
       -122.5467986,
       38.0031956
      ],
      [
       -122.5467126,
       38.0033999
      ],
      [
       -122.5466121,
       38.0035531
      ],
      [
       -122.5458886,
       38.0045093
      ],
      [
       -122.5457239,
       38.0047809
      ],
      [
       -122.5455893,
       38.0050635
      ],
      [
       -122.5454867,
       38.0053535
      ],
      [
       -122.5454162,
       38.0056503
      ],
      [
       -122.5453787,
       38.0059504
      ],
      [
       -122.5453744,
       38.0062516
      ],
      [
       -122.5453915,
       38.006469
      ],
      [
       -122.5453555,
       38.006527
      ],
      [
       -122.5452765,
       38.0065425
      ],
      [
       -122.5450366,
       38.0064832
      ],
      [
       -122.5448518,
       38.0064083
      ],
      [
       -122.5443865,
       38.0061793
      ],
      [
       -122.5439104,
       38.0060357
      ],
      [
       -122.5436347,
       38.0059914
      ],
      [
       -122.5424295,
       38.0058599
      ],
      [
       -122.542245,
       38.0058026
      ],
      [
       -122.5420966,
       38.0056989
      ],
      [
       -122.542002,
       38.0055614
      ],
      [
       -122.5419733,
       38.0054456
      ],
      [
       -122.5420199,
       38.0045881
      ],
      [
       -122.5420507,
       38.0043794
      ],
      [
       -122.5421044,
       38.0041739
      ],
      [
       -122.5422361,
       38.0038561
      ],
      [
       -122.5424682,
       38.0034951
      ],
      [
       -122.5425876,
       38.0034063
      ],
      [
       -122.5427023,
       38.0032201
      ],
      [
       -122.5427134,
       38.0031119
      ],
      [
       -122.542808,
       38.0029015
      ],
      [
       -122.5429017,
       38.0025523
      ],
      [
       -122.5429194,
       38.0023731
      ],
      [
       -122.5428984,
       38.0020327
      ],
      [
       -122.5427294,
       38.0014411
      ],
      [
       -122.5427427,
       38.0013851
      ],
      [
       -122.5427951,
       38.0013328
      ],
      [
       -122.542846,
       38.0013127
      ],
      [
       -122.5446702,
       38.0009431
      ],
      [
       -122.5448737,
       38.0009378
      ],
      [
       -122.5450068,
       38.0009575
      ],
      [
       -122.5451339,
       38.0009953
      ],
      [
       -122.5453042,
       38.0010831
      ],
      [
       -122.5453993,
       38.00116
      ],
      [
       -122.545476,
       38.0012487
      ],
      [
       -122.5456086,
       38.0014858
      ],
      [
       -122.5457699,
       38.0016568
      ],
      [
       -122.5459065,
       38.00175
      ],
      [
       -122.5462393,
       38.0019357
      ],
      [
       -122.5464378,
       38.0020816
      ],
      [
       -122.5465252,
       38.002165
      ],
      [
       -122.5466696,
       38.002347
      ],
      [
       -122.5467718,
       38.0025459
      ],
      [
       -122.546829,
       38.0027565
      ]
     ]
    ]
   }
  }
 ]
}
