{
 "type": "FeatureCollection",
 "properties": {
  "project": "north-bayshore",
  "source": "City of Mountain View parcels, the APNs in Legistar matter 7641",
  "sourceLabel": "Mountain View parcels",
  "sourceUrl": "https://maps.mountainview.gov/arcgis/rest/services/Public/Parcel/MapServer/0",
  "query": "https://maps.mountainview.gov/arcgis/rest/services/Public/Parcel/MapServer/0/query?where=APN+in+%28%2711602037%27%2C+%2711602081%27%2C+%2711602083%27%2C+%2711602084%27%2C+%2711602088%27%2C+%2711610070%27%2C+%2711610077%27%2C+%2711610078%27%2C+%2711610079%27%2C+%2711610080%27%2C+%2711610084%27%2C+%2711610085%27%2C+%2711610086%27%2C+%2711610088%27%2C+%2711610089%27%2C+%2711610095%27%2C+%2711610097%27%2C+%2711610101%27%2C+%2711610104%27%2C+%2711610102%27%2C+%2711610105%27%2C+%2711610107%27%2C+%2711610108%27%2C+%2711611012%27%2C+%2711611022%27%2C+%2711611024%27%2C+%2711611025%27%2C+%2711611028%27%2C+%2711611030%27%2C+%2711611038%27%2C+%2711611039%27%2C+%2711613027%27%2C+%2711613034%27%2C+%2711613038%27%2C+%2711614058%27%2C+%2711614066%27%2C+%2711614072%27%2C+%2711620043%27%29&outFields=%2A&outSR=4326&f=geojson",
  "accuracy": "approximate",
  "accuracyNote": "Parcels named in the master plan approval. The plan covers only parts of the Gateway parcels and Shoreline Amphitheatre Lot C, so this is approximate. 158.7 acres as drawn.",
  "license": "City of Mountain View open data (use at your own risk)",
  "features_used": 36
 },
 "features": [
  {
   "type": "Feature",
   "properties": {
    "kind": "site",
    "name": "Project site"
   },
   "geometry": {
    "type": "MultiPolygon",
    "coordinates": [
     [
      [
       [
        -122.0779058,
        37.4175757
       ],
       [
        -122.0769134,
        37.417574
       ],
       [
        -122.0769075,
        37.4184276
       ],
       [
        -122.0758627,
        37.4184335
       ],
       [
        -122.0756374,
        37.4184666
       ],
       [
        -122.0748402,
        37.4186439
       ],
       [
        -122.0745905,
        37.4186769
       ],
       [
        -122.0717017,
        37.4186752
       ],
       [
        -122.0716039,
        37.4186888
       ],
       [
        -122.0715172,
        37.418726
       ],
       [
        -122.0714487,
        37.4187839
       ],
       [
        -122.0713977,
        37.4188937
       ],
       [
        -122.0714233,
        37.4194403
       ],
       [
        -122.071413,
        37.419577
       ],
       [
        -122.0713731,
        37.419749
       ],
       [
        -122.0712436,
        37.4200362
       ],
       [
        -122.071218,
        37.4200556
       ],
       [
        -122.0711725,
        37.4200617
       ],
       [
        -122.0710048,
        37.4200125
       ],
       [
        -122.0709752,
        37.4199854
       ],
       [
        -122.0709281,
        37.4198834
       ],
       [
        -122.0708577,
        37.4198449
       ],
       [
        -122.0708001,
        37.4198365
       ],
       [
        -122.0707171,
        37.4198526
       ],
       [
        -122.0706536,
        37.4198993
       ],
       [
        -122.0706265,
        37.4199642
       ],
       [
        -122.0706553,
        37.4200502
       ],
       [
        -122.0707195,
        37.4200959
       ],
       [
        -122.0712379,
        37.420234
       ],
       [
        -122.072337,
        37.4206161
       ],
       [
        -122.0727517,
        37.4207205
       ],
       [
        -122.0732175,
        37.4207952
       ],
       [
        -122.0731507,
        37.4209283
       ],
       [
        -122.0729425,
        37.4212579
       ],
       [
        -122.072688,
        37.4214802
       ],
       [
        -122.0724967,
        37.4216107
       ],
       [
        -122.0723504,
        37.4216896
       ],
       [
        -122.0719941,
        37.4218125
       ],
       [
        -122.0717551,
        37.4218621
       ],
       [
        -122.0715096,
        37.421884
       ],
       [
        -122.0698601,
        37.4218869
       ],
       [
        -122.0698135,
        37.4175509
       ],
       [
        -122.0752916,
        37.4175677
       ],
       [
        -122.0753055,
        37.4171825
       ],
       [
        -122.0778524,
        37.4172052
       ],
       [
        -122.0778925,
        37.4172243
       ],
       [
        -122.0779073,
        37.4172501
       ],
       [
        -122.0779058,
        37.4175757
       ]
      ]
     ],
     [
      [
       [
        -122.0778346,
        37.4203254
       ],
       [
        -122.0774534,
        37.4203088
       ],
       [
        -122.0774451,
        37.4203662
       ],
       [
        -122.0773282,
        37.4203598
       ],
       [
        -122.0773244,
        37.4203404
       ],
       [
        -122.0768502,
        37.4203245
       ],
       [
        -122.0768438,
        37.4203437
       ],
       [
        -122.0762692,
        37.4203749
       ],
       [
        -122.0744602,
        37.4206171
       ],
       [
        -122.0741033,
        37.4206509
       ],
       [
        -122.073764,
        37.4206574
       ],
       [
        -122.0733954,
        37.4206406
       ],
       [
        -122.07303,
        37.4205973
       ],
       [
        -122.0727467,
        37.4205434
       ],
       [
        -122.072274,
        37.4204143
       ],
       [
        -122.0714708,
        37.4201313
       ],
       [
        -122.0714298,
        37.4200998
       ],
       [
        -122.0714221,
        37.4200547
       ],
       [
        -122.0715395,
        37.4197844
       ],
       [
        -122.0715841,
        37.4195928
       ],
       [
        -122.0715956,
        37.4194398
       ],
       [
        -122.0715731,
        37.4188926
       ],
       [
        -122.0716216,
        37.4188354
       ],
       [
        -122.0717038,
        37.4188125
       ],
       [
        -122.0746053,
        37.4188138
       ],
       [
        -122.0749434,
        37.4187657
       ],
       [
        -122.0756809,
        37.4185995
       ],
       [
        -122.0759782,
        37.4185645
       ],
       [
        -122.0777894,
        37.4185726
       ],
       [
        -122.0778253,
        37.4185965
       ],
       [
        -122.0778348,
        37.418624
       ],
       [
        -122.0778377,
        37.4191272
       ],
       [
        -122.0778035,
        37.4191305
       ],
       [
        -122.0778043,
        37.419313
       ],
       [
        -122.0777699,
        37.4193178
       ],
       [
        -122.0777708,
        37.4193659
       ],
       [
        -122.0778046,
        37.4193679
       ],
       [
        -122.0778057,
        37.4195497
       ],
       [
        -122.0778401,
        37.419553
       ],
       [
        -122.0778346,
        37.4203254
       ]
      ]
     ],
     [
      [
       [
        -122.0778958,
        37.4166805
       ],
       [
        -122.076579,
        37.4166697
       ],
       [
        -122.0765794,
        37.4160717
       ],
       [
        -122.0778989,
        37.4161368
       ],
       [
        -122.0778958,
        37.4166805
       ]
      ]
     ],
     [
      [
       [
        -122.0803984,
        37.418271
       ],
       [
        -122.0803887,
        37.420367
       ],
       [
        -122.0803844,
        37.420478
       ],
       [
        -122.0803637,
        37.4205142
       ],
       [
        -122.0803242,
        37.4205384
       ],
       [
        -122.080275,
        37.4205453
       ],
       [
        -122.0796396,
        37.4205069
       ],
       [
        -122.0796349,
        37.4204653
       ],
       [
        -122.0792357,
        37.4204411
       ],
       [
        -122.0792277,
        37.420482
       ],
       [
        -122.0782341,
        37.4204219
       ],
       [
        -122.0781512,
        37.4203932
       ],
       [
        -122.0781067,
        37.4203118
       ],
       [
        -122.0781108,
        37.4194847
       ],
       [
        -122.0792483,
        37.4195359
       ],
       [
        -122.0792632,
        37.41887
       ],
       [
        -122.0781142,
        37.4188036
       ],
       [
        -122.0781182,
        37.4182903
       ],
       [
        -122.0781612,
        37.4178832
       ],
       [
        -122.078171,
        37.4174501
       ],
       [
        -122.079287,
        37.4175109
       ],
       [
        -122.0792777,
        37.4181989
       ],
       [
        -122.0803984,
        37.418271
       ]
      ]
     ],
     [
      [
       [
        -122.0781313,
        37.418127
       ],
       [
        -122.0781313,
        37.418127
       ],
       [
        -122.0781313,
        37.418127
       ],
       [
        -122.0781313,
        37.418127
       ]
      ]
     ],
     [
      [
       [
        -122.0793023,
        37.4165845
       ],
       [
        -122.0792922,
        37.4171935
       ],
       [
        -122.0781774,
        37.4171176
       ],
       [
        -122.0781871,
        37.4166059
       ],
       [
        -122.0782,
        37.4165677
       ],
       [
        -122.0782338,
        37.4165386
       ],
       [
        -122.0782973,
        37.4165251
       ],
       [
        -122.0793023,
        37.4165845
       ]
      ]
     ],
     [
      [
       [
        -122.0823772,
        37.4272794
       ],
       [
        -122.0823212,
        37.4274293
       ],
       [
        -122.0822336,
        37.4275694
       ],
       [
        -122.0821171,
        37.4276954
       ],
       [
        -122.0819752,
        37.4278035
       ],
       [
        -122.0819291,
        37.4277627
       ],
       [
        -122.0816927,
        37.4278821
       ],
       [
        -122.0813555,
        37.4279849
       ],
       [
        -122.0809983,
        37.4280254
       ],
       [
        -122.0806046,
        37.4280327
       ],
       [
        -122.0801934,
        37.428021
       ],
       [
        -122.0801861,
        37.4280878
       ],
       [
        -122.079702,
        37.4280943
       ],
       [
        -122.0796145,
        37.428135
       ],
       [
        -122.0795214,
        37.4282405
       ],
       [
        -122.0794284,
        37.4283106
       ],
       [
        -122.0793179,
        37.4283622
       ],
       [
        -122.0791958,
        37.4283926
       ],
       [
        -122.0790776,
        37.4283833
       ],
       [
        -122.0786983,
        37.4282818
       ],
       [
        -122.0787226,
        37.4282225
       ],
       [
        -122.0782596,
        37.4280862
       ],
       [
        -122.0782311,
        37.4275187
       ],
       [
        -122.0781487,
        37.4268381
       ],
       [
        -122.0781266,
        37.4264301
       ],
       [
        -122.0781344,
        37.4260218
       ],
       [
        -122.0781853,
        37.4253227
       ],
       [
        -122.0781922,
        37.4248268
       ],
       [
        -122.078108,
        37.423578
       ],
       [
        -122.0781202,
        37.4235274
       ],
       [
        -122.0781597,
        37.4234867
       ],
       [
        -122.0782404,
        37.4234625
       ],
       [
        -122.0794762,
        37.4234164
       ],
       [
        -122.080535,
        37.4233315
       ],
       [
        -122.0805762,
        37.423924
       ],
       [
        -122.0811934,
        37.425572
       ],
       [
        -122.0811743,
        37.4256783
       ],
       [
        -122.0813796,
        37.4257599
       ],
       [
        -122.0813978,
        37.4257445
       ],
       [
        -122.0817199,
        37.4259475
       ],
       [
        -122.0819935,
        37.4263402
       ],
       [
        -122.0820729,
        37.4263064
       ],
       [
        -122.0821371,
        37.4263878
       ],
       [
        -122.0822447,
        37.4265673
       ],
       [
        -122.082287,
        37.4266959
       ],
       [
        -122.0823199,
        37.4268559
       ],
       [
        -122.0823328,
        37.4270604
       ],
       [
        -122.0823107,
        37.4272652
       ],
       [
        -122.0823772,
        37.4272794
       ]
      ]
     ],
     [
      [
       [
        -122.0798038,
        37.4159605
       ],
       [
        -122.0797928,
        37.4164758
       ],
       [
        -122.0797053,
        37.4164706
       ],
       [
        -122.0797009,
        37.4164289
       ],
       [
        -122.0793397,
        37.4164076
       ],
       [
        -122.0793333,
        37.4164486
       ],
       [
        -122.0783406,
        37.4163761
       ],
       [
        -122.0782783,
        37.4163544
       ],
       [
        -122.0782501,
        37.4163197
       ],
       [
        -122.0782516,
        37.4159358
       ],
       [
        -122.0798038,
        37.4159605
       ]
      ]
     ],
     [
      [
       [
        -122.0812554,
        37.4137241
       ],
       [
        -122.0808598,
        37.4139811
       ],
       [
        -122.0801774,
        37.4139652
       ],
       [
        -122.0782803,
        37.4151826
       ],
       [
        -122.078309,
        37.4140574
       ],
       [
        -122.078325,
        37.4140086
       ],
       [
        -122.0784055,
        37.4139324
       ],
       [
        -122.0787709,
        37.4138063
       ],
       [
        -122.0790135,
        37.4136518
       ],
       [
        -122.0791443,
        37.4135231
       ],
       [
        -122.0794215,
        37.4131368
       ],
       [
        -122.0794958,
        37.4130797
       ],
       [
        -122.0795871,
        37.4130422
       ],
       [
        -122.0796878,
        37.4130273
       ],
       [
        -122.0798578,
        37.4130557
       ],
       [
        -122.0803814,
        37.4132799
       ],
       [
        -122.0810328,
        37.413596
       ],
       [
        -122.0812554,
        37.4137241
       ]
      ]
     ],
     [
      [
       [
        -122.0795711,
        37.4130118
       ],
       [
        -122.0794241,
        37.4129989
       ],
       [
        -122.0793174,
        37.413032
       ],
       [
        -122.0789642,
        37.4134754
       ],
       [
        -122.0787759,
        37.4136104
       ],
       [
        -122.0785503,
        37.4137017
       ],
       [
        -122.0786519,
        37.4132702
       ],
       [
        -122.07875,
        37.4131225
       ],
       [
        -122.0788487,
        37.4130428
       ],
       [
        -122.0790332,
        37.4129628
       ],
       [
        -122.079171,
        37.41294
       ],
       [
        -122.0793798,
        37.4129547
       ],
       [
        -122.0795711,
        37.4130118
       ]
      ]
     ],
     [
      [
       [
        -122.0828595,
        37.416841
       ],
       [
        -122.0828468,
        37.4205972
       ],
       [
        -122.0828323,
        37.4206428
       ],
       [
        -122.0827751,
        37.4206846
       ],
       [
        -122.082717,
        37.4206929
       ],
       [
        -122.080686,
        37.4205701
       ],
       [
        -122.0806207,
        37.4205523
       ],
       [
        -122.0805744,
        37.4205117
       ],
       [
        -122.0805586,
        37.4204582
       ],
       [
        -122.0805843,
        37.4166795
       ],
       [
        -122.0806499,
        37.4166508
       ],
       [
        -122.0815404,
        37.4167046
       ],
       [
        -122.0819347,
        37.4167092
       ],
       [
        -122.0827636,
        37.4167584
       ],
       [
        -122.0828119,
        37.4167715
       ],
       [
        -122.0828467,
        37.4168014
       ],
       [
        -122.0828595,
        37.416841
       ]
      ]
     ],
     [
      [
       [
        -122.0822752,
        37.4165913
       ],
       [
        -122.0817746,
        37.4165715
       ],
       [
        -122.0817661,
        37.4160112
       ],
       [
        -122.0816912,
        37.4160064
       ],
       [
        -122.0816946,
        37.4141103
       ],
       [
        -122.0819173,
        37.4144026
       ],
       [
        -122.082092,
        37.4145637
       ],
       [
        -122.0822915,
        37.4147051
       ],
       [
        -122.0822752,
        37.4165913
       ]
      ]
     ],
     [
      [
       [
        -122.1002194,
        37.4295835
       ],
       [
        -122.0993156,
        37.4298349
       ],
       [
        -122.0994128,
        37.430131
       ],
       [
        -122.0985674,
        37.4299214
       ],
       [
        -122.0983394,
        37.429089
       ],
       [
        -122.0989411,
        37.4289882
       ],
       [
        -122.0998627,
        37.4287496
       ],
       [
        -122.1002194,
        37.4295835
       ]
      ]
     ],
     [
      [
       [
        -122.1002068,
        37.4308524
       ],
       [
        -122.1003081,
        37.430917
       ],
       [
        -122.1003275,
        37.4309662
       ],
       [
        -122.1001797,
        37.4321132
       ],
       [
        -122.1001636,
        37.4321463
       ],
       [
        -122.1001293,
        37.4321687
       ],
       [
        -122.1000855,
        37.4321746
       ],
       [
        -122.0991275,
        37.4321024
       ],
       [
        -122.0989512,
        37.432075
       ],
       [
        -122.0989167,
        37.4320142
       ],
       [
        -122.0989544,
        37.4316716
       ],
       [
        -122.0989489,
        37.4314166
       ],
       [
        -122.0987805,
        37.4307453
       ],
       [
        -122.1002068,
        37.4308524
       ]
      ]
     ]
    ]
   }
  }
 ]
}
