{
 "type": "FeatureCollection",
 "properties": {
  "project": "parkmerced",
  "source": "DataSF Zoning Map \u2013 Special Use Districts, \u201cParkmerced\u201d",
  "sourceLabel": "DataSF special use districts",
  "sourceUrl": "https://data.sf.gov/d/5yf5-ms5f",
  "query": "https://data.sf.gov/resource/5yf5-ms5f.geojson?%24where=name+%3D+%27Parkmerced%27&%24limit=5000",
  "accuracy": "official",
  "accuracyNote": "The Parkmerced Special Use District, including its streets. 161.0 acres as drawn.",
  "license": "Public Domain U.S. Government (DataSF)",
  "features_used": 1
 },
 "features": [
  {
   "type": "Feature",
   "properties": {
    "kind": "site",
    "name": "Project site"
   },
   "geometry": {
    "type": "Polygon",
    "coordinates": [
     [
      [
       -122.4852886,
       37.7146951
      ],
      [
       -122.4850411,
       37.7170552
      ],
      [
       -122.4849523,
       37.7180928
      ],
      [
       -122.484859,
       37.7207032
      ],
      [
       -122.4847877,
       37.7211114
      ],
      [
       -122.4847071,
       37.7211982
      ],
      [
       -122.4844651,
       37.7212365
      ],
      [
       -122.4830084,
       37.7211847
      ],
      [
       -122.4830381,
       37.7204253
      ],
      [
       -122.4813957,
       37.72033
      ],
      [
       -122.4810869,
       37.7205483
      ],
      [
       -122.4810315,
       37.7205343
      ],
      [
       -122.4798119,
       37.7195319
      ],
      [
       -122.4789742,
       37.7201424
      ],
      [
       -122.4761909,
       37.7200449
      ],
      [
       -122.4761066,
       37.720132
      ],
      [
       -122.4760784,
       37.7207824
      ],
      [
       -122.4753,
       37.7209146
      ],
      [
       -122.4752243,
       37.7202801
      ],
      [
       -122.475103,
       37.7198484
      ],
      [
       -122.4745963,
       37.7192336
      ],
      [
       -122.4744759,
       37.7183181
      ],
      [
       -122.4742381,
       37.7169143
      ],
      [
       -122.4741445,
       37.7169383
      ],
      [
       -122.4726589,
       37.7171029
      ],
      [
       -122.471643,
       37.7145112
      ],
      [
       -122.4714604,
       37.7138071
      ],
      [
       -122.4715895,
       37.7135065
      ],
      [
       -122.4717397,
       37.7133272
      ],
      [
       -122.4724038,
       37.7128157
      ],
      [
       -122.473737,
       37.713261
      ],
      [
       -122.4737103,
       37.713427
      ],
      [
       -122.4740775,
       37.7136273
      ],
      [
       -122.4743831,
       37.7139328
      ],
      [
       -122.4742865,
       37.7140369
      ],
      [
       -122.4743992,
       37.7141517
      ],
      [
       -122.4743288,
       37.7142556
      ],
      [
       -122.4743648,
       37.7143077
      ],
      [
       -122.4739335,
       37.7149293
      ],
      [
       -122.4750341,
       37.7156063
      ],
      [
       -122.4763381,
       37.7156929
      ],
      [
       -122.4763449,
       37.7157264
      ],
      [
       -122.4765096,
       37.7157608
      ],
      [
       -122.4765989,
       37.7157663
      ],
      [
       -122.4773623,
       37.7156817
      ],
      [
       -122.4775946,
       37.7154409
      ],
      [
       -122.4775315,
       37.7150604
      ],
      [
       -122.4776224,
       37.7150513
      ],
      [
       -122.4775901,
       37.7148096
      ],
      [
       -122.4776598,
       37.7148025
      ],
      [
       -122.4776606,
       37.7147371
      ],
      [
       -122.4786187,
       37.714652
      ],
      [
       -122.4793356,
       37.7146564
      ],
      [
       -122.479532,
       37.7145162
      ],
      [
       -122.4852886,
       37.7146951
      ]
     ]
    ]
   }
  }
 ]
}
