{
 "type": "FeatureCollection",
 "properties": {
  "project": "pier-70",
  "source": "DataSF Zoning Map \u2013 Special Use Districts, \u201cPier 70\u201d",
  "sourceLabel": "DataSF special use districts",
  "sourceUrl": "https://data.sf.gov/d/5yf5-ms5f",
  "query": "https://data.sf.gov/resource/5yf5-ms5f.geojson?%24where=name+%3D+%27Pier+70%27&%24limit=5000",
  "accuracy": "official",
  "accuracyNote": "The 35-acre Pier 70 Special Use District, which contains the 28-Acre Site and the Illinois Street parcels. 35.8 acres as drawn.",
  "license": "Public Domain U.S. Government (DataSF)",
  "features_used": 1
 },
 "features": [
  {
   "type": "Feature",
   "properties": {
    "kind": "site",
    "name": "Project site"
   },
   "geometry": {
    "type": "Polygon",
    "coordinates": [
     [
      [
       -122.3874084,
       37.7604689
      ],
      [
       -122.3864423,
       37.7605264
      ],
      [
       -122.3863383,
       37.7594625
      ],
      [
       -122.3850519,
       37.7595386
      ],
      [
       -122.3850749,
       37.7598427
      ],
      [
       -122.3846811,
       37.7598694
      ],
      [
       -122.3847609,
       37.7607174
      ],
      [
       -122.3825196,
       37.7608509
      ],
      [
       -122.382433,
       37.7607613
      ],
      [
       -122.3822025,
       37.7608957
      ],
      [
       -122.3821858,
       37.7608801
      ],
      [
       -122.3821352,
       37.7608899
      ],
      [
       -122.3820855,
       37.7608798
      ],
      [
       -122.3820256,
       37.760827
      ],
      [
       -122.3819921,
       37.7607724
      ],
      [
       -122.3819801,
       37.7607088
      ],
      [
       -122.381993,
       37.7606406
      ],
      [
       -122.3818693,
       37.7606422
      ],
      [
       -122.3817258,
       37.7602458
      ],
      [
       -122.3817616,
       37.7599033
      ],
      [
       -122.3813181,
       37.7599237
      ],
      [
       -122.3813115,
       37.7599093
      ],
      [
       -122.3811839,
       37.7599036
      ],
      [
       -122.3811728,
       37.7598784
      ],
      [
       -122.3813478,
       37.7597756
      ],
      [
       -122.3817429,
       37.7597486
      ],
      [
       -122.3817433,
       37.7596415
      ],
      [
       -122.3812563,
       37.7596676
      ],
      [
       -122.3812568,
       37.7595831
      ],
      [
       -122.3814691,
       37.7595692
      ],
      [
       -122.3814465,
       37.7593084
      ],
      [
       -122.3813038,
       37.7593086
      ],
      [
       -122.3811976,
       37.7582753
      ],
      [
       -122.3812316,
       37.7581002
      ],
      [
       -122.3813888,
       37.7578415
      ],
      [
       -122.3851254,
       37.7576163
      ],
      [
       -122.3852084,
       37.7577569
      ],
      [
       -122.3855105,
       37.7580173
      ],
      [
       -122.3855312,
       37.7581975
      ],
      [
       -122.3871833,
       37.7580986
      ],
      [
       -122.3874084,
       37.7604689
      ]
     ]
    ]
   }
  }
 ]
}
