{
 "type": "FeatureCollection",
 "properties": {
  "project": "piers-30-32",
  "source": "DataSF Parcels, 9900/030 and 9900/032 (the piers) and 3771/002 and 3770/002 (Seawall Lot 330)",
  "sourceLabel": "DataSF parcels",
  "sourceUrl": "https://data.sf.gov/d/acdm-wktn",
  "query": "https://data.sf.gov/resource/acdm-wktn.geojson?%24where=blklot+in+%28%279900030%27%2C+%279900032%27%2C+%273771002%27%2C+%273770002%27%29+and+active+%3D+true&%24limit=5000",
  "accuracy": "official",
  "accuracyNote": "Assessor's parcels for Piers 30\u201332 and Seawall Lot 330. 15.4 acres as drawn.",
  "license": "ODC Public Domain Dedication and License (DataSF)",
  "features_used": 4
 },
 "features": [
  {
   "type": "Feature",
   "properties": {
    "kind": "site",
    "name": "Project site"
   },
   "geometry": {
    "type": "MultiPolygon",
    "coordinates": [
     [
      [
       [
        -122.387758,
        37.785346
       ],
       [
        -122.387707,
        37.785808
       ],
       [
        -122.3876081,
        37.7858155
       ],
       [
        -122.3875112,
        37.7872394
       ],
       [
        -122.38702,
        37.7872473
       ],
       [
        -122.3845615,
        37.7874008
       ],
       [
        -122.3845113,
        37.787383
       ],
       [
        -122.3843414,
        37.7857484
       ],
       [
        -122.3843638,
        37.7857077
       ],
       [
        -122.3873119,
        37.7855204
       ],
       [
        -122.387555,
        37.7854618
       ],
       [
        -122.387758,
        37.785346
       ]
      ]
     ],
     [
      [
       [
        -122.3890859,
        37.7859447
       ],
       [
        -122.3887001,
        37.7862499
       ],
       [
        -122.3890465,
        37.7865289
       ],
       [
        -122.3884707,
        37.7869771
       ],
       [
        -122.388385,
        37.7869976
       ],
       [
        -122.3881291,
        37.7869866
       ],
       [
        -122.3882678,
        37.7852923
       ],
       [
        -122.3890859,
        37.7859447
       ]
      ]
     ]
    ]
   }
  }
 ]
}
