{
 "type": "FeatureCollection",
 "properties": {
  "project": "potrero-power-station",
  "source": "traced: Potrero Power Station Mixed-Use Development Project Draft EIR, Volume 1 (Case No. 2017-011878ENV, Oct 2018), Figure 2-2, Project Site Sub-Areas and Ownership, p. 2-6",
  "sourceUrl": "https://sfplanning.s3.amazonaws.com/sfmea/2017-011878ENV_DEIR_Volume_1.pdf",
  "sourceLabel": "Draft EIR, Oct 2018 (PDF)",
  "accuracyShort": "about \u00b13 m",
  "accuracy": "traced",
  "accuracyNote": "Vector shapes from the EIR figure, georeferenced to OpenStreetMap street centrelines at 13 intersections (RMS 3.4 m). Approximate boundary: parcel lines were not available.",
  "georeference": {
   "scale_m_per_unit": 1.50383,
   "rotation_deg": 5.001,
   "rms_m": 3.38,
   "controls": [
    {
     "label": "3rd Street / 20th Street",
     "residual_m": 1.7
    },
    {
     "label": "3rd Street / 22nd Street",
     "residual_m": 1.43
    },
    {
     "label": "3rd Street / 23rd Street",
     "residual_m": 4.84
    },
    {
     "label": "3rd Street / 24th Street",
     "residual_m": 4.21
    },
    {
     "label": "3rd Street / 25th Street",
     "residual_m": 6.22
    },
    {
     "label": "Illinois Street / 20th Street",
     "residual_m": 1.4
    },
    {
     "label": "Illinois Street / 22nd Street",
     "residual_m": 2.17
    },
    {
     "label": "Illinois Street / 23rd Street",
     "residual_m": 2.2
    },
    {
     "label": "Illinois Street / 24th Street",
     "residual_m": 3.59
    },
    {
     "label": "Illinois Street / 25th Street",
     "residual_m": 3.88
    },
    {
     "label": "Illinois Street / Humboldt Street",
     "residual_m": 4.21
    },
    {
     "label": "Michigan Street / 24th Street",
     "residual_m": 1.69
    },
    {
     "label": "Michigan Street / 25th Street",
     "residual_m": 1.91
    }
   ]
  }
 },
 "features": [
  {
   "type": "Feature",
   "properties": {
    "kind": "site",
    "name": "Project site"
   },
   "geometry": {
    "type": "Polygon",
    "coordinates": [
     [
      [
       -122.387209,
       37.7579241
      ],
      [
       -122.3872089,
       37.7579241
      ],
      [
       -122.3855427,
       37.7580312
      ],
      [
       -122.3855427,
       37.7580312
      ],
      [
       -122.3855426,
       37.7580312
      ],
      [
       -122.3852174,
       37.757756
      ],
      [
       -122.3852174,
       37.757756
      ],
      [
       -122.3852174,
       37.757756
      ],
      [
       -122.3851593,
       37.7576399
      ],
      [
       -122.3851593,
       37.7576398
      ],
      [
       -122.3851594,
       37.7576398
      ],
      [
       -122.3852513,
       37.7576303
      ],
      [
       -122.3852514,
       37.7576302
      ],
      [
       -122.3852514,
       37.7576302
      ],
      [
       -122.3852515,
       37.7576302
      ],
      [
       -122.3852515,
       37.7576302
      ],
      [
       -122.3852516,
       37.7576302
      ],
      [
       -122.3852516,
       37.7576302
      ],
      [
       -122.3852517,
       37.7576301
      ],
      [
       -122.3852517,
       37.7576301
      ],
      [
       -122.3852517,
       37.7576301
      ],
      [
       -122.3852518,
       37.75763
      ],
      [
       -122.3852518,
       37.75763
      ],
      [
       -122.3852518,
       37.7576299
      ],
      [
       -122.3852518,
       37.7576299
      ],
      [
       -122.3852518,
       37.7576298
      ],
      [
       -122.3852518,
       37.7576298
      ],
      [
       -122.3852518,
       37.7576298
      ],
      [
       -122.3852518,
       37.7576297
      ],
      [
       -122.3852518,
       37.7576297
      ],
      [
       -122.3852518,
       37.7576296
      ],
      [
       -122.3852518,
       37.7576296
      ],
      [
       -122.3852517,
       37.7576296
      ],
      [
       -122.3852517,
       37.7576295
      ],
      [
       -122.3852517,
       37.7576295
      ],
      [
       -122.3852516,
       37.7576295
      ],
      [
       -122.3852516,
       37.7576294
      ],
      [
       -122.3852515,
       37.7576294
      ],
      [
       -122.3852515,
       37.7576294
      ],
      [
       -122.3852514,
       37.7576294
      ],
      [
       -122.3852514,
       37.7576294
      ],
      [
       -122.3852513,
       37.7576294
      ],
      [
       -122.3852513,
       37.7576294
      ],
      [
       -122.3852512,
       37.7576294
      ],
      [
       -122.3815377,
       37.7578724
      ],
      [
       -122.3815377,
       37.7578724
      ],
      [
       -122.3815377,
       37.7578723
      ],
      [
       -122.3815041,
       37.7575464
      ],
      [
       -122.3815041,
       37.7575463
      ],
      [
       -122.3815041,
       37.7575463
      ],
      [
       -122.3815041,
       37.7575462
      ],
      [
       -122.3815041,
       37.7575462
      ],
      [
       -122.381504,
       37.7575461
      ],
      [
       -122.381504,
       37.7575461
      ],
      [
       -122.381504,
       37.7575461
      ],
      [
       -122.3815039,
       37.7575461
      ],
      [
       -122.3815039,
       37.757546
      ],
      [
       -122.3815038,
       37.757546
      ],
      [
       -122.3815038,
       37.757546
      ],
      [
       -122.3815037,
       37.757546
      ],
      [
       -122.3815037,
       37.757546
      ],
      [
       -122.3815036,
       37.7575459
      ],
      [
       -122.3815036,
       37.7575459
      ],
      [
       -122.3815035,
       37.7575459
      ],
      [
       -122.3813888,
       37.7575534
      ],
      [
       -122.3813888,
       37.7575534
      ],
      [
       -122.3813888,
       37.7575534
      ],
      [
       -122.3813577,
       37.757195
      ],
      [
       -122.3813577,
       37.757195
      ],
      [
       -122.3813577,
       37.757195
      ],
      [
       -122.3814556,
       37.7571433
      ],
      [
       -122.3814557,
       37.7571433
      ],
      [
       -122.3814557,
       37.7571432
      ],
      [
       -122.3814558,
       37.7571432
      ],
      [
       -122.3814558,
       37.7571432
      ],
      [
       -122.3814558,
       37.7571431
      ],
      [
       -122.3814559,
       37.7571431
      ],
      [
       -122.3814559,
       37.7571431
      ],
      [
       -122.3814559,
       37.757143
      ],
      [
       -122.3814559,
       37.757143
      ],
      [
       -122.3814559,
       37.7571429
      ],
      [
       -122.3814559,
       37.7571429
      ],
      [
       -122.3814559,
       37.7571428
      ],
      [
       -122.3814559,
       37.7571428
      ],
      [
       -122.3814559,
       37.7571428
      ],
      [
       -122.3814558,
       37.7571427
      ],
      [
       -122.3814558,
       37.7571427
      ],
      [
       -122.3814558,
       37.7571426
      ],
      [
       -122.3814557,
       37.7571426
      ],
      [
       -122.3814557,
       37.7571426
      ],
      [
       -122.3814557,
       37.7571425
      ],
      [
       -122.3814556,
       37.7571425
      ],
      [
       -122.3814556,
       37.7571425
      ],
      [
       -122.3814555,
       37.7571425
      ],
      [
       -122.3814554,
       37.7571425
      ],
      [
       -122.3814554,
       37.7571425
      ],
      [
       -122.3814553,
       37.7571425
      ],
      [
       -122.3814553,
       37.7571425
      ],
      [
       -122.3813303,
       37.7571507
      ],
      [
       -122.3813303,
       37.7571507
      ],
      [
       -122.3813303,
       37.7571507
      ],
      [
       -122.381325,
       37.7570997
      ],
      [
       -122.381325,
       37.7570997
      ],
      [
       -122.3812798,
       37.7565988
      ],
      [
       -122.3812798,
       37.7565988
      ],
      [
       -122.3812798,
       37.7565988
      ],
      [
       -122.3813805,
       37.7565146
      ],
      [
       -122.3813806,
       37.7565145
      ],
      [
       -122.3813806,
       37.7565145
      ],
      [
       -122.3813806,
       37.7565145
      ],
      [
       -122.3813806,
       37.7565144
      ],
      [
       -122.3813807,
       37.7565144
      ],
      [
       -122.3813807,
       37.7565143
      ],
      [
       -122.3813807,
       37.7565143
      ],
      [
       -122.3813807,
       37.7565142
      ],
      [
       -122.3813807,
       37.7565142
      ],
      [
       -122.3813807,
       37.7565142
      ],
      [
       -122.3813807,
       37.7565141
      ],
      [
       -122.3813806,
       37.7565141
      ],
      [
       -122.3813806,
       37.756514
      ],
      [
       -122.3813806,
       37.756514
      ],
      [
       -122.3813806,
       37.756514
      ],
      [
       -122.3813805,
       37.7565139
      ],
      [
       -122.3813805,
       37.7565139
      ],
      [
       -122.3813804,
       37.7565139
      ],
      [
       -122.3813804,
       37.7565139
      ],
      [
       -122.3813803,
       37.7565138
      ],
      [
       -122.3813803,
       37.7565138
      ],
      [
       -122.3813802,
       37.7565138
      ],
      [
       -122.3813802,
       37.7565138
      ],
      [
       -122.3813801,
       37.7565138
      ],
      [
       -122.3813801,
       37.7565138
      ],
      [
       -122.3807625,
       37.7565533
      ],
      [
       -122.3807625,
       37.7565533
      ],
      [
       -122.3807625,
       37.7565533
      ],
      [
       -122.3807568,
       37.7564938
      ],
      [
       -122.3807568,
       37.7564938
      ],
      [
       -122.3807568,
       37.7564938
      ],
      [
       -122.3813515,
       37.7564555
      ],
      [
       -122.3813515,
       37.7564555
      ],
      [
       -122.3813516,
       37.7564555
      ],
      [
       -122.3813516,
       37.7564555
      ],
      [
       -122.3813517,
       37.7564554
      ],
      [
       -122.3813517,
       37.7564554
      ],
      [
       -122.3813518,
       37.7564554
      ],
      [
       -122.3813518,
       37.7564554
      ],
      [
       -122.3813518,
       37.7564553
      ],
      [
       -122.3813519,
       37.7564553
      ],
      [
       -122.3813519,
       37.7564553
      ],
      [
       -122.3813519,
       37.7564552
      ],
      [
       -122.381352,
       37.7564552
      ],
      [
       -122.381352,
       37.7564551
      ],
      [
       -122.381352,
       37.7564551
      ],
      [
       -122.381352,
       37.7564551
      ],
      [
       -122.381352,
       37.756455
      ],
      [
       -122.381352,
       37.756455
      ],
      [
       -122.381352,
       37.7564549
      ],
      [
       -122.3813519,
       37.7564549
      ],
      [
       -122.3813519,
       37.7564548
      ],
      [
       -122.3813519,
       37.7564548
      ],
      [
       -122.3813519,
       37.7564548
      ],
      [
       -122.3812878,
       37.7563902
      ],
      [
       -122.3812878,
       37.7563902
      ],
      [
       -122.3812878,
       37.7563902
      ],
      [
       -122.3812821,
       37.7560532
      ],
      [
       -122.3812821,
       37.7560531
      ],
      [
       -122.3812821,
       37.7560531
      ],
      [
       -122.3812821,
       37.7560531
      ],
      [
       -122.381282,
       37.756053
      ],
      [
       -122.381282,
       37.756053
      ],
      [
       -122.3811391,
       37.7558451
      ],
      [
       -122.3811391,
       37.755845
      ],
      [
       -122.381139,
       37.755845
      ],
      [
       -122.381139,
       37.755845
      ],
      [
       -122.3808869,
       37.755658
      ],
      [
       -122.3808869,
       37.755658
      ],
      [
       -122.3808869,
       37.755658
      ],
      [
       -122.3807858,
       37.7554655
      ],
      [
       -122.3807858,
       37.7554655
      ],
      [
       -122.3807858,
       37.7554655
      ],
      [
       -122.3807845,
       37.7553407
      ],
      [
       -122.3807845,
       37.7553407
      ],
      [
       -122.3807846,
       37.7553407
      ],
      [
       -122.3811494,
       37.7551511
      ],
      [
       -122.3811494,
       37.7551511
      ],
      [
       -122.3811494,
       37.7551511
      ],
      [
       -122.3813185,
       37.7551492
      ],
      [
       -122.3813186,
       37.7551492
      ],
      [
       -122.3813186,
       37.7551493
      ],
      [
       -122.3813757,
       37.7557142
      ],
      [
       -122.3813757,
       37.7557142
      ],
      [
       -122.3814378,
       37.7562745
      ],
      [
       -122.3814378,
       37.7562745
      ],
      [
       -122.3814378,
       37.7562745
      ],
      [
       -122.3814379,
       37.7562746
      ],
      [
       -122.3814379,
       37.7562746
      ],
      [
       -122.3814379,
       37.7562747
      ],
      [
       -122.3814379,
       37.7562747
      ],
      [
       -122.381438,
       37.7562747
      ],
      [
       -122.381438,
       37.7562748
      ],
      [
       -122.3814381,
       37.7562748
      ],
      [
       -122.3814381,
       37.7562748
      ],
      [
       -122.3814382,
       37.7562748
      ],
      [
       -122.3814382,
       37.7562748
      ],
      [
       -122.3814383,
       37.7562749
      ],
      [
       -122.3814383,
       37.7562749
      ],
      [
       -122.3814384,
       37.7562749
      ],
      [
       -122.3814384,
       37.7562749
      ],
      [
       -122.3814385,
       37.7562749
      ],
      [
       -122.3814385,
       37.7562749
      ],
      [
       -122.3814386,
       37.7562748
      ],
      [
       -122.3814386,
       37.7562748
      ],
      [
       -122.3814387,
       37.7562748
      ],
      [
       -122.3814387,
       37.7562748
      ],
      [
       -122.3814388,
       37.7562747
      ],
      [
       -122.3814388,
       37.7562747
      ],
      [
       -122.3814388,
       37.7562747
      ],
      [
       -122.3814389,
       37.7562746
      ],
      [
       -122.3814389,
       37.7562746
      ],
      [
       -122.3814389,
       37.7562746
      ],
      [
       -122.3814389,
       37.7562745
      ],
      [
       -122.3814389,
       37.7562745
      ],
      [
       -122.3814389,
       37.7562744
      ],
      [
       -122.3814389,
       37.7562744
      ],
      [
       -122.3813814,
       37.7557093
      ],
      [
       -122.3813814,
       37.7557093
      ],
      [
       -122.3813814,
       37.7557093
      ],
      [
       -122.3821095,
       37.7556627
      ],
      [
       -122.3821095,
       37.7556627
      ],
      [
       -122.3821096,
       37.7556627
      ],
      [
       -122.3821097,
       37.7556626
      ],
      [
       -122.3821097,
       37.7556626
      ],
      [
       -122.3821098,
       37.7556626
      ],
      [
       -122.3821098,
       37.7556626
      ],
      [
       -122.3821098,
       37.7556625
      ],
      [
       -122.3821099,
       37.7556625
      ],
      [
       -122.3821099,
       37.7556625
      ],
      [
       -122.3821099,
       37.7556624
      ],
      [
       -122.38211,
       37.7556624
      ],
      [
       -122.38211,
       37.7556624
      ],
      [
       -122.38211,
       37.7556623
      ],
      [
       -122.38211,
       37.7556623
      ],
      [
       -122.38211,
       37.7556622
      ],
      [
       -122.38211,
       37.7556622
      ],
      [
       -122.3821048,
       37.7556121
      ],
      [
       -122.3821048,
       37.7556121
      ],
      [
       -122.3821048,
       37.7556121
      ],
      [
       -122.3827068,
       37.7555734
      ],
      [
       -122.3827068,
       37.7555734
      ],
      [
       -122.3827068,
       37.7555734
      ],
      [
       -122.3827094,
       37.7556004
      ],
      [
       -122.3827094,
       37.7556005
      ],
      [
       -122.3827094,
       37.7556005
      ],
      [
       -122.3827094,
       37.7556006
      ],
      [
       -122.3827094,
       37.7556006
      ],
      [
       -122.3827094,
       37.7556006
      ],
      [
       -122.3827095,
       37.7556007
      ],
      [
       -122.3827095,
       37.7556007
      ],
      [
       -122.3827096,
       37.7556007
      ],
      [
       -122.3827096,
       37.7556008
      ],
      [
       -122.3827096,
       37.7556008
      ],
      [
       -122.3827097,
       37.7556008
      ],
      [
       -122.3827097,
       37.7556008
      ],
      [
       -122.3827098,
       37.7556008
      ],
      [
       -122.3827099,
       37.7556008
      ],
      [
       -122.3827099,
       37.7556009
      ],
      [
       -122.38271,
       37.7556009
      ],
      [
       -122.3827384,
       37.7555992
      ],
      [
       -122.3827384,
       37.7555992
      ],
      [
       -122.3843058,
       37.7554984
      ],
      [
       -122.3843058,
       37.7554984
      ],
      [
       -122.3843059,
       37.7554984
      ],
      [
       -122.3843059,
       37.7554984
      ],
      [
       -122.384306,
       37.7554984
      ],
      [
       -122.384306,
       37.7554983
      ],
      [
       -122.3843061,
       37.7554983
      ],
      [
       -122.3843061,
       37.7554983
      ],
      [
       -122.3843062,
       37.7554983
      ],
      [
       -122.3843062,
       37.7554982
      ],
      [
       -122.3843062,
       37.7554982
      ],
      [
       -122.3843063,
       37.7554981
      ],
      [
       -122.3843063,
       37.7554981
      ],
      [
       -122.3843063,
       37.7554981
      ],
      [
       -122.3843063,
       37.755498
      ],
      [
       -122.3843063,
       37.755498
      ],
      [
       -122.3843063,
       37.7554979
      ],
      [
       -122.3843058,
       37.7554939
      ],
      [
       -122.3843058,
       37.7554939
      ],
      [
       -122.3843058,
       37.7554939
      ],
      [
       -122.3869494,
       37.7553238
      ],
      [
       -122.3869494,
       37.7553238
      ],
      [
       -122.3869494,
       37.7553238
      ],
      [
       -122.3869725,
       37.7555492
      ],
      [
       -122.3869725,
       37.7555492
      ],
      [
       -122.3869725,
       37.7555492
      ],
      [
       -122.3850757,
       37.7556709
      ],
      [
       -122.3850757,
       37.7556709
      ],
      [
       -122.3850756,
       37.7556709
      ],
      [
       -122.3850756,
       37.7556709
      ],
      [
       -122.3850755,
       37.7556709
      ],
      [
       -122.3850755,
       37.755671
      ],
      [
       -122.3850754,
       37.755671
      ],
      [
       -122.3850754,
       37.755671
      ],
      [
       -122.3850754,
       37.7556711
      ],
      [
       -122.3850753,
       37.7556711
      ],
      [
       -122.3850753,
       37.7556711
      ],
      [
       -122.3850753,
       37.7556712
      ],
      [
       -122.3850752,
       37.7556712
      ],
      [
       -122.3850752,
       37.7556713
      ],
      [
       -122.3850752,
       37.7556713
      ],
      [
       -122.3850752,
       37.7556713
      ],
      [
       -122.3850752,
       37.7556714
      ],
      [
       -122.3851192,
       37.7561024
      ],
      [
       -122.3851192,
       37.7561025
      ],
      [
       -122.3851192,
       37.7561025
      ],
      [
       -122.3851193,
       37.7561026
      ],
      [
       -122.3851193,
       37.7561026
      ],
      [
       -122.3851193,
       37.7561027
      ],
      [
       -122.3851193,
       37.7561027
      ],
      [
       -122.3851194,
       37.7561027
      ],
      [
       -122.3851194,
       37.7561028
      ],
      [
       -122.3851195,
       37.7561028
      ],
      [
       -122.3851195,
       37.7561028
      ],
      [
       -122.3851196,
       37.7561028
      ],
      [
       -122.3851196,
       37.7561028
      ],
      [
       -122.3851197,
       37.7561028
      ],
      [
       -122.3851197,
       37.7561029
      ],
      [
       -122.3851198,
       37.7561029
      ],
      [
       -122.3851198,
       37.7561029
      ],
      [
       -122.3854895,
       37.7560791
      ],
      [
       -122.3854896,
       37.7560791
      ],
      [
       -122.3854896,
       37.7560791
      ],
      [
       -122.3855,
       37.7561842
      ],
      [
       -122.3855,
       37.7561842
      ],
      [
       -122.3855,
       37.7561843
      ],
      [
       -122.3855,
       37.7561843
      ],
      [
       -122.3855,
       37.7561844
      ],
      [
       -122.3855001,
       37.7561844
      ],
      [
       -122.3855001,
       37.7561844
      ],
      [
       -122.3855001,
       37.7561845
      ],
      [
       -122.3855002,
       37.7561845
      ],
      [
       -122.3855002,
       37.7561845
      ],
      [
       -122.3855003,
       37.7561846
      ],
      [
       -122.3855003,
       37.7561846
      ],
      [
       -122.3855004,
       37.7561846
      ],
      [
       -122.3855004,
       37.7561846
      ],
      [
       -122.3855005,
       37.7561846
      ],
      [
       -122.3855005,
       37.7561846
      ],
      [
       -122.3855006,
       37.7561846
      ],
      [
       -122.3860554,
       37.7561488
      ],
      [
       -122.3860555,
       37.7561488
      ],
      [
       -122.3860555,
       37.7561488
      ],
      [
       -122.386079,
       37.7563828
      ],
      [
       -122.386079,
       37.7563828
      ],
      [
       -122.386079,
       37.7563829
      ],
      [
       -122.386079,
       37.7563829
      ],
      [
       -122.3860791,
       37.756383
      ],
      [
       -122.3860791,
       37.756383
      ],
      [
       -122.3860791,
       37.756383
      ],
      [
       -122.3860792,
       37.7563831
      ],
      [
       -122.3860792,
       37.7563831
      ],
      [
       -122.3860793,
       37.7563831
      ],
      [
       -122.3860793,
       37.7563832
      ],
      [
       -122.3860794,
       37.7563832
      ],
      [
       -122.3860794,
       37.7563832
      ],
      [
       -122.3860795,
       37.7563832
      ],
      [
       -122.3860795,
       37.7563832
      ],
      [
       -122.3860796,
       37.7563832
      ],
      [
       -122.3860796,
       37.7563832
      ],
      [
       -122.3861432,
       37.7563791
      ],
      [
       -122.3861432,
       37.7563791
      ],
      [
       -122.3861432,
       37.7563791
      ],
      [
       -122.3861857,
       37.7567966
      ],
      [
       -122.3861857,
       37.7567967
      ],
      [
       -122.3861857,
       37.7567967
      ],
      [
       -122.3861857,
       37.7567967
      ],
      [
       -122.3861858,
       37.7567968
      ],
      [
       -122.3861858,
       37.7567968
      ],
      [
       -122.3861858,
       37.7567969
      ],
      [
       -122.3861859,
       37.7567969
      ],
      [
       -122.3861859,
       37.7567969
      ],
      [
       -122.386186,
       37.7567969
      ],
      [
       -122.386186,
       37.756797
      ],
      [
       -122.386186,
       37.756797
      ],
      [
       -122.3861861,
       37.756797
      ],
      [
       -122.3861862,
       37.756797
      ],
      [
       -122.3861862,
       37.756797
      ],
      [
       -122.3861863,
       37.756797
      ],
      [
       -122.3861863,
       37.756797
      ],
      [
       -122.3870882,
       37.7567391
      ],
      [
       -122.3870882,
       37.7567391
      ],
      [
       -122.3870882,
       37.7567391
      ],
      [
       -122.387209,
       37.7579241
      ],
      [
       -122.387209,
       37.7579241
      ]
     ],
     [
      [
       -122.3843106,
       37.7555403
      ],
      [
       -122.3843106,
       37.7555403
      ],
      [
       -122.3843106,
       37.7555402
      ],
      [
       -122.3843106,
       37.7555402
      ],
      [
       -122.3843105,
       37.7555401
      ],
      [
       -122.3843105,
       37.7555401
      ],
      [
       -122.3843105,
       37.7555401
      ],
      [
       -122.3843104,
       37.75554
      ],
      [
       -122.3843104,
       37.75554
      ],
      [
       -122.3843104,
       37.75554
      ],
      [
       -122.3843103,
       37.75554
      ],
      [
       -122.3843103,
       37.7555399
      ],
      [
       -122.3843102,
       37.7555399
      ],
      [
       -122.3843102,
       37.7555399
      ],
      [
       -122.3843101,
       37.7555399
      ],
      [
       -122.38431,
       37.7555399
      ],
      [
       -122.38431,
       37.7555399
      ],
      [
       -122.3843054,
       37.7555402
      ],
      [
       -122.3843054,
       37.7555402
      ],
      [
       -122.3843053,
       37.7555403
      ],
      [
       -122.3843053,
       37.7555403
      ],
      [
       -122.3843052,
       37.7555403
      ],
      [
       -122.3843052,
       37.7555403
      ],
      [
       -122.3843051,
       37.7555403
      ],
      [
       -122.3843051,
       37.7555404
      ],
      [
       -122.3843051,
       37.7555404
      ],
      [
       -122.384305,
       37.7555404
      ],
      [
       -122.384305,
       37.7555405
      ],
      [
       -122.384305,
       37.7555405
      ],
      [
       -122.3843049,
       37.7555405
      ],
      [
       -122.3843049,
       37.7555406
      ],
      [
       -122.3843049,
       37.7555406
      ],
      [
       -122.3843049,
       37.7555407
      ],
      [
       -122.3843049,
       37.7555407
      ],
      [
       -122.3843227,
       37.7557143
      ],
      [
       -122.3843227,
       37.7557144
      ],
      [
       -122.3843227,
       37.7557144
      ],
      [
       -122.3843227,
       37.7557145
      ],
      [
       -122.3843227,
       37.7557145
      ],
      [
       -122.3843228,
       37.7557145
      ],
      [
       -122.3843228,
       37.7557146
      ],
      [
       -122.3843228,
       37.7557146
      ],
      [
       -122.3843229,
       37.7557146
      ],
      [
       -122.3843229,
       37.7557147
      ],
      [
       -122.384323,
       37.7557147
      ],
      [
       -122.384323,
       37.7557147
      ],
      [
       -122.3843231,
       37.7557147
      ],
      [
       -122.3843231,
       37.7557147
      ],
      [
       -122.3843232,
       37.7557147
      ],
      [
       -122.3843232,
       37.7557147
      ],
      [
       -122.3843233,
       37.7557147
      ],
      [
       -122.3843278,
       37.7557144
      ],
      [
       -122.3843279,
       37.7557144
      ],
      [
       -122.384328,
       37.7557144
      ],
      [
       -122.384328,
       37.7557144
      ],
      [
       -122.3843281,
       37.7557143
      ],
      [
       -122.3843281,
       37.7557143
      ],
      [
       -122.3843282,
       37.7557143
      ],
      [
       -122.3843282,
       37.7557143
      ],
      [
       -122.3843282,
       37.7557142
      ],
      [
       -122.3843283,
       37.7557142
      ],
      [
       -122.3843283,
       37.7557142
      ],
      [
       -122.3843283,
       37.7557141
      ],
      [
       -122.3843283,
       37.7557141
      ],
      [
       -122.3843284,
       37.755714
      ],
      [
       -122.3843284,
       37.755714
      ],
      [
       -122.3843284,
       37.755714
      ],
      [
       -122.3843284,
       37.7557139
      ],
      [
       -122.3843106,
       37.7555403
      ]
     ]
    ]
   }
  },
  {
   "type": "Feature",
   "properties": {
    "kind": "sub-area",
    "name": "Power Station sub-area",
    "owner": "California Barrel Co. LLC"
   },
   "geometry": {
    "type": "Polygon",
    "coordinates": [
     [
      [
       -122.3813885,
       37.7575535
      ],
      [
       -122.3815042,
       37.7575461
      ],
      [
       -122.3815374,
       37.7578722
      ],
      [
       -122.3852744,
       37.7576277
      ],
      [
       -122.3852327,
       37.7572189
      ],
      [
       -122.3854685,
       37.7571899
      ],
      [
       -122.3856707,
       37.7571168
      ],
      [
       -122.3858615,
       37.75716
      ],
      [
       -122.3859541,
       37.7571541
      ],
      [
       -122.3859194,
       37.7568141
      ],
      [
       -122.3861682,
       37.7567982
      ],
      [
       -122.3861855,
       37.7567971
      ],
      [
       -122.386143,
       37.7563791
      ],
      [
       -122.3860793,
       37.7563831
      ],
      [
       -122.3860554,
       37.7561489
      ],
      [
       -122.3855001,
       37.7561846
      ],
      [
       -122.3854893,
       37.7560789
      ],
      [
       -122.385119,
       37.7561027
      ],
      [
       -122.3850746,
       37.7556663
      ],
      [
       -122.3843225,
       37.7557146
      ],
      [
       -122.3843047,
       37.7555401
      ],
      [
       -122.3827426,
       37.7556404
      ],
      [
       -122.3827384,
       37.755599
      ],
      [
       -122.3827095,
       37.7556009
      ],
      [
       -122.3827067,
       37.7555733
      ],
      [
       -122.382105,
       37.755612
      ],
      [
       -122.3821102,
       37.7556625
      ],
      [
       -122.3813812,
       37.7557093
      ],
      [
       -122.3815215,
       37.7570873
      ],
      [
       -122.3813248,
       37.7570999
      ],
      [
       -122.38133,
       37.7571504
      ],
      [
       -122.3814573,
       37.7571423
      ],
      [
       -122.3813578,
       37.7571949
      ],
      [
       -122.3813885,
       37.7575535
      ]
     ]
    ]
   }
  },
  {
   "type": "Feature",
   "properties": {
    "kind": "sub-area",
    "name": "PG&E sub-area",
    "owner": "PG&E"
   },
   "geometry": {
    "type": "Polygon",
    "coordinates": [
     [
      [
       -122.3870881,
       37.7567391
      ],
      [
       -122.3872088,
       37.7579242
      ],
      [
       -122.3855426,
       37.7580312
      ],
      [
       -122.3852176,
       37.7577562
      ],
      [
       -122.3851592,
       37.7576397
      ],
      [
       -122.3852744,
       37.7576277
      ],
      [
       -122.3852327,
       37.7572189
      ],
      [
       -122.3854685,
       37.7571899
      ],
      [
       -122.3856707,
       37.7571168
      ],
      [
       -122.3858615,
       37.75716
      ],
      [
       -122.3859541,
       37.7571541
      ],
      [
       -122.3859194,
       37.7568141
      ],
      [
       -122.3870881,
       37.7567391
      ]
     ]
    ]
   }
  },
  {
   "type": "Feature",
   "properties": {
    "kind": "sub-area",
    "name": "Port sub-area",
    "owner": "SF Port"
   },
   "geometry": {
    "type": "MultiPolygon",
    "coordinates": [
     [
      [
       [
        -122.3843058,
        37.7554938
       ],
       [
        -122.3869497,
        37.755324
       ],
       [
        -122.3869726,
        37.755549
       ],
       [
        -122.3845833,
        37.7557025
       ],
       [
        -122.3843105,
        37.7555397
       ],
       [
        -122.3843058,
        37.7554938
       ]
      ]
     ],
     [
      [
       [
        -122.3813248,
        37.7570999
       ],
       [
        -122.3812796,
        37.7565989
       ],
       [
        -122.3813816,
        37.7565137
       ],
       [
        -122.3807626,
        37.7565535
       ],
       [
        -122.3807565,
        37.7564937
       ],
       [
        -122.3813524,
        37.7564555
       ],
       [
        -122.3812875,
        37.7563903
       ],
       [
        -122.3812823,
        37.7560531
       ],
       [
        -122.3811388,
        37.7558451
       ],
       [
        -122.3808868,
        37.7556578
       ],
       [
        -122.3807857,
        37.7554655
       ],
       [
        -122.3807847,
        37.7553407
       ],
       [
        -122.3811497,
        37.7551509
       ],
       [
        -122.3813184,
        37.7551493
       ],
       [
        -122.3813759,
        37.7557143
       ],
       [
        -122.3815273,
        37.7570869
       ],
       [
        -122.3813248,
        37.7570999
       ]
      ]
     ],
     [
      [
       [
        -122.3813972,
        37.7576963
       ],
       [
        -122.3813831,
        37.7575574
       ],
       [
        -122.3815017,
        37.7575498
       ],
       [
        -122.3815345,
        37.7578724
       ],
       [
        -122.3815316,
        37.7578726
       ],
       [
        -122.3813639,
        37.7578834
       ],
       [
        -122.3813972,
        37.7576963
       ]
      ]
     ]
    ]
   }
  },
  {
   "type": "Feature",
   "properties": {
    "kind": "sub-area",
    "name": "Southern sub-area",
    "owner": "Harrigan Weidenmuller Co."
   },
   "geometry": {
    "type": "Polygon",
    "coordinates": [
     [
      [
       -122.3827384,
       37.755599
      ],
      [
       -122.3843063,
       37.7554984
      ],
      [
       -122.3843105,
       37.7555397
      ],
      [
       -122.3827426,
       37.7556404
      ],
      [
       -122.3827384,
       37.755599
      ]
     ]
    ]
   }
  },
  {
   "type": "Feature",
   "properties": {
    "kind": "sub-area",
    "name": "City sub-area",
    "owner": "City and County of San Francisco"
   },
   "geometry": {
    "type": "Polygon",
    "coordinates": [
     [
      [
       -122.3845833,
       37.7557025
      ],
      [
       -122.3843287,
       37.7557189
      ],
      [
       -122.3843105,
       37.7555397
      ],
      [
       -122.3845833,
       37.7557025
      ]
     ]
    ]
   }
  }
 ]
}
