{
 "type": "FeatureCollection",
 "properties": {
  "project": "ravenswood-business-district",
  "source": "City of East Palo Alto, 2025 EPA Zoning Map \u201cSpecific Plan Boundary\u201d, less University Village as drawn by the City's zoning parcels (Final_Zoning)",
  "sourceLabel": "East Palo Alto\u2019s specific plan boundary",
  "sourceUrl": "https://services8.arcgis.com/Qac9ExiTge3RH5x7/arcgis/rest/services/2025_EPA_Zoning_Map_WFL1/FeatureServer/0",
  "query": "https://services8.arcgis.com/Qac9ExiTge3RH5x7/arcgis/rest/services/2025_EPA_Zoning_Map_WFL1/FeatureServer/0/query?where=1%3D1&outFields=%2A&outSR=4326&f=geojson",
  "accuracy": "approximate",
  "accuracyNote": "The City's specific plan boundary layer is the plan's outer line (about 327 acres) and takes in University Village, which the adopted plan leaves out (Figure 1-3). University Village is cut out here as the City's zoning parcels zoned R-LD (its single-family lots) and PI (the school site) and its two PR park parcels inside the line, closed over their own streets, against the plan's approximately 207 acres. The narrow strip along the rail line north of Tulane Avenue, which the plan includes, is too thin to keep. 205.1 acres as drawn.",
  "license": "City of East Palo Alto ArcGIS (no license stated; terms to confirm)",
  "features_used": 1,
  "minusSource": "East Palo Alto zoning parcels",
  "minusSourceUrl": "https://services8.arcgis.com/Qac9ExiTge3RH5x7/arcgis/rest/services/Final_Zoning/FeatureServer/0",
  "minusQuery": "https://services8.arcgis.com/Qac9ExiTge3RH5x7/arcgis/rest/services/Final_Zoning/FeatureServer/0/query?where=New_Zone+in+%28%27R-LD%27%2C+%27PI%27%29+or+APN+in+%28%27093580010%27%2C+%27063088210%27%29&outFields=%2A&outSR=4326&f=geojson&geometry=-122.1418%2C37.4687%2C-122.1264%2C37.4840&geometryType=esriGeometryEnvelope&inSR=4326&spatialRel=esriSpatialRelIntersects"
 },
 "features": [
  {
   "type": "Feature",
   "properties": {
    "kind": "site",
    "name": "Project site"
   },
   "geometry": {
    "type": "Polygon",
    "coordinates": [
     [
      [
       -122.1418087,
       37.4727126
      ],
      [
       -122.1417912,
       37.4727503
      ],
      [
       -122.1417523,
       37.4727674
      ],
      [
       -122.1396127,
       37.4730572
      ],
      [
       -122.1393482,
       37.4730614
      ],
      [
       -122.1393451,
       37.4732089
      ],
      [
       -122.1392946,
       37.4732471
      ],
      [
       -122.1377842,
       37.4732752
      ],
      [
       -122.1376615,
       37.4732261
      ],
      [
       -122.1376214,
       37.4731842
      ],
      [
       -122.1375956,
       37.4731226
      ],
      [
       -122.1375474,
       37.4718292
      ],
      [
       -122.1372311,
       37.4718331
      ],
      [
       -122.1371526,
       37.4718693
      ],
      [
       -122.1370731,
       37.4718803
      ],
      [
       -122.137002,
       37.4718706
      ],
      [
       -122.1369005,
       37.4718328
      ],
      [
       -122.1363165,
       37.4718483
      ],
      [
       -122.1361745,
       37.4718812
      ],
      [
       -122.1360395,
       37.4718556
      ],
      [
       -122.1353741,
       37.4718732
      ],
      [
       -122.1352597,
       37.4719305
      ],
      [
       -122.1351728,
       37.4719453
      ],
      [
       -122.1350855,
       37.4719323
      ],
      [
       -122.1349804,
       37.4718873
      ],
      [
       -122.1348383,
       37.4719101
      ],
      [
       -122.1349574,
       37.4772635
      ],
      [
       -122.1349386,
       37.4775015
      ],
      [
       -122.1348194,
       37.477785
      ],
      [
       -122.1346913,
       37.4779953
      ],
      [
       -122.1345207,
       37.4781932
      ],
      [
       -122.1342139,
       37.4784716
      ],
      [
       -122.134116,
       37.4785929
      ],
      [
       -122.134029,
       37.4787359
      ],
      [
       -122.1336776,
       37.4795548
      ],
      [
       -122.1336652,
       37.479621
      ],
      [
       -122.1336135,
       37.4796939
      ],
      [
       -122.1328674,
       37.4813544
      ],
      [
       -122.132809,
       37.4815517
      ],
      [
       -122.132792,
       37.4817346
      ],
      [
       -122.1328043,
       37.4818876
      ],
      [
       -122.1328415,
       37.482041
      ],
      [
       -122.1329046,
       37.4821928
      ],
      [
       -122.1329936,
       37.4823388
      ],
      [
       -122.1330742,
       37.4824023
      ],
      [
       -122.1331238,
       37.4824921
      ],
      [
       -122.1332421,
       37.482598
      ],
      [
       -122.1333793,
       37.4826949
      ],
      [
       -122.1335522,
       37.4827885
      ],
      [
       -122.1335858,
       37.4828008
      ],
      [
       -122.1343648,
       37.4827684
      ],
      [
       -122.134584,
       37.4826862
      ],
      [
       -122.1347646,
       37.4826379
      ],
      [
       -122.1348174,
       37.4826552
      ],
      [
       -122.1348338,
       37.4827037
      ],
      [
       -122.1347824,
       37.4827576
      ],
      [
       -122.133386,
       37.4832155
      ],
      [
       -122.1324518,
       37.4835612
      ],
      [
       -122.1313723,
       37.4840025
      ],
      [
       -122.131302,
       37.4839991
      ],
      [
       -122.1309105,
       37.4833998
      ],
      [
       -122.1309047,
       37.4833637
      ],
      [
       -122.1324091,
       37.4796898
      ],
      [
       -122.1293827,
       37.4774013
      ],
      [
       -122.1263971,
       37.474895
      ],
      [
       -122.1263982,
       37.4748539
      ],
      [
       -122.1279,
       37.4721086
      ],
      [
       -122.126953,
       37.4688573
      ],
      [
       -122.1269653,
       37.468812
      ],
      [
       -122.1270171,
       37.468791
      ],
      [
       -122.1291992,
       37.4687435
      ],
      [
       -122.1292372,
       37.468752
      ],
      [
       -122.1292686,
       37.4687964
      ],
      [
       -122.1292881,
       37.4694855
      ],
      [
       -122.1297408,
       37.4694778
      ],
      [
       -122.1297777,
       37.469489
      ],
      [
       -122.1298005,
       37.4695146
      ],
      [
       -122.129831,
       37.4703577
      ],
      [
       -122.1317176,
       37.4703212
      ],
      [
       -122.1317666,
       37.4702938
      ],
      [
       -122.1319373,
       37.4702895
      ],
      [
       -122.1320013,
       37.4703157
      ],
      [
       -122.1393227,
       37.4701776
      ],
      [
       -122.1393662,
       37.4702176
      ],
      [
       -122.1393764,
       37.4704204
      ],
      [
       -122.1399283,
       37.4704227
      ],
      [
       -122.1399757,
       37.4704396
      ],
      [
       -122.1399932,
       37.4704678
      ],
      [
       -122.1399882,
       37.470499
      ],
      [
       -122.1398634,
       37.4706433
      ],
      [
       -122.1406112,
       37.4706657
      ],
      [
       -122.1406629,
       37.4706882
      ],
      [
       -122.1406755,
       37.4707237
      ],
      [
       -122.1406119,
       37.4710169
      ],
      [
       -122.1407305,
       37.4710291
      ],
      [
       -122.14076,
       37.4710507
      ],
      [
       -122.140769,
       37.4710819
      ],
      [
       -122.1406643,
       37.4715576
      ],
      [
       -122.1406452,
       37.4715865
      ],
      [
       -122.1405971,
       37.4716103
      ],
      [
       -122.1406076,
       37.4716632
      ],
      [
       -122.1416921,
       37.4715274
      ],
      [
       -122.1417576,
       37.471549
      ],
      [
       -122.1417705,
       37.4715793
      ],
      [
       -122.1418087,
       37.4727126
      ]
     ]
    ]
   }
  }
 ]
}
