{
 "type": "FeatureCollection",
 "properties": {
  "project": "related-santa-clara",
  "source": "Santa Clara County parcels, the seven APNs in Santa Clara resolutions 25-9465 and 25-9467",
  "sourceLabel": "Santa Clara County parcels",
  "sourceUrl": "https://data.sccgov.org/d/ubcd-cewv",
  "query": "https://data.sccgov.org/resource/ubcd-cewv.geojson?%24where=apn+in+%28%2710403043%27%2C+%2710403042%27%2C+%2710403041%27%2C+%2710403036%27%2C+%2710401102%27%2C+%2709701039%27%2C+%2709701073%27%29&%24limit=5000",
  "accuracy": "official",
  "accuracyNote": "The seven parcels of the Related Santa Clara (City Place) site, about 239 acres. 239.9 acres as drawn.",
  "license": "Santa Clara County open data (terms of use)",
  "features_used": 7
 },
 "features": [
  {
   "type": "Feature",
   "properties": {
    "kind": "site",
    "name": "Project site"
   },
   "geometry": {
    "type": "MultiPolygon",
    "coordinates": [
     [
      [
       [
        -121.9730465,
        37.4170275
       ],
       [
        -121.9717418,
        37.417287
       ],
       [
        -121.9715917,
        37.417337
       ],
       [
        -121.9713863,
        37.4174527
       ],
       [
        -121.9712659,
        37.417555
       ],
       [
        -121.9711627,
        37.4176742
       ],
       [
        -121.9709233,
        37.4180228
       ],
       [
        -121.9706942,
        37.4181019
       ],
       [
        -121.9700548,
        37.4182825
       ],
       [
        -121.9686142,
        37.4184545
       ],
       [
        -121.9684669,
        37.4179938
       ],
       [
        -121.9683502,
        37.4177213
       ],
       [
        -121.9682079,
        37.4174615
       ],
       [
        -121.9679491,
        37.4171009
       ],
       [
        -121.9665686,
        37.4156325
       ],
       [
        -121.9662773,
        37.4151339
       ],
       [
        -121.966065,
        37.4150135
       ],
       [
        -121.9626914,
        37.4112913
       ],
       [
        -121.9628465,
        37.4113011
       ],
       [
        -121.9628446,
        37.4112833
       ],
       [
        -121.9633261,
        37.4113133
       ],
       [
        -121.9684272,
        37.4096331
       ],
       [
        -121.9709338,
        37.4133181
       ],
       [
        -121.9726466,
        37.4157693
       ],
       [
        -121.9728395,
        37.4161377
       ],
       [
        -121.9729364,
        37.4163977
       ],
       [
        -121.972975,
        37.4165312
       ],
       [
        -121.9730465,
        37.4170275
       ]
      ]
     ],
     [
      [
       [
        -121.9666655,
        37.4157398
       ],
       [
        -121.9666655,
        37.4157398
       ],
       [
        -121.9666655,
        37.4157398
       ],
       [
        -121.9666655,
        37.4157398
       ]
      ]
     ],
     [
      [
       [
        -121.9775144,
        37.4085179
       ],
       [
        -121.9774876,
        37.40942
       ],
       [
        -121.9749018,
        37.4101829
       ],
       [
        -121.9754924,
        37.4130833
       ],
       [
        -121.975569,
        37.4136482
       ],
       [
        -121.9755516,
        37.4137306
       ],
       [
        -121.9754853,
        37.4138366
       ],
       [
        -121.9753809,
        37.4139065
       ],
       [
        -121.9745577,
        37.4141851
       ],
       [
        -121.9743623,
        37.4142202
       ],
       [
        -121.9742295,
        37.4142106
       ],
       [
        -121.9741016,
        37.4141748
       ],
       [
        -121.9739835,
        37.4141142
       ],
       [
        -121.9736695,
        37.4138996
       ],
       [
        -121.9736204,
        37.4138905
       ],
       [
        -121.9721996,
        37.414422
       ],
       [
        -121.9702481,
        37.4115509
       ],
       [
        -121.9670216,
        37.4067337
       ],
       [
        -121.9671961,
        37.4066568
       ],
       [
        -121.967411,
        37.4068148
       ],
       [
        -121.967646,
        37.4069156
       ],
       [
        -121.9673782,
        37.4065247
       ],
       [
        -121.9676718,
        37.4063204
       ],
       [
        -121.9676405,
        37.4062687
       ],
       [
        -121.9681739,
        37.4060387
       ],
       [
        -121.9687532,
        37.4057133
       ],
       [
        -121.9700211,
        37.4051629
       ],
       [
        -121.9700708,
        37.4051101
       ],
       [
        -121.9709972,
        37.4046276
       ],
       [
        -121.9716926,
        37.4043256
       ],
       [
        -121.9721673,
        37.4041517
       ],
       [
        -121.9716709,
        37.4043585
       ],
       [
        -121.9710912,
        37.4046375
       ],
       [
        -121.9717142,
        37.4055939
       ],
       [
        -121.9717574,
        37.4055808
       ],
       [
        -121.9718895,
        37.405779
       ],
       [
        -121.973059,
        37.4052879
       ],
       [
        -121.9741579,
        37.4066596
       ],
       [
        -121.9743164,
        37.4068194
       ],
       [
        -121.974491,
        37.406962
       ],
       [
        -121.9747781,
        37.4071393
       ],
       [
        -121.9775144,
        37.4085179
       ]
      ]
     ]
    ]
   }
  }
 ]
}
