{
 "type": "FeatureCollection",
 "properties": {
  "project": "schlage-lock",
  "source": "Visitacion Valley/Schlage Lock Development Agreement, final exhibits (SF Planning file dated 08-22-14; Ord. 149-14): the ten assessor parcels listed in Exhibit B (Legal Description, p. 5), drawn from the City's parcel map (DataSF acdm-wktn)",
  "sourceUrl": "https://default.sfplanning.org/Citywide/Visitacion_Valley/Visitacion_Valley_Schlage-Final_DA_Exhibits-082214.pdf",
  "sourceLabel": "development agreement legal description (PDF)",
  "accuracy": "official",
  "accuracyShort": "assessor parcels",
  "accuracyNote": "The Project Site (Zone 1) as the ten assessor parcels its development agreement lists in Exhibit B (block/lot 5087/003, 5087/003A, 5099/014, 5100/002, 5100/003, 5100/010, 5101/006, 5101/007, 5102/009, 5107/001), drawn from San Francisco's parcel map. 20.0 acres as drawn; the City's development agreement summary describes a 20-acre site. The rail lots along the north-east side (5087/004 and 5087/005) are not in the list and are left out, as on the agreement's Exhibit H map (p. 23); further south the site takes in the strip along the Caltrain tracks. Exhibit A's small site diagram matches the parcels to a median 6 m once fitted. Parcel lines are the Assessor's map, not a survey.",
  "license": "Parcel list from a public City and County of San Francisco ordinance exhibit; parcel shapes from DataSF Parcels \u2013 Active and Retired (ODC Public Domain Dedication and License).",
  "query": "https://data.sf.gov/resource/acdm-wktn.geojson?%24where=blklot+in+%28%275087003%27%2C%275087003A%27%2C%275099014%27%2C%275100002%27%2C%275100003%27%2C%275100010%27%2C%275101006%27%2C%275101007%27%2C%275102009%27%2C%275107001%27%29&%24limit=100",
  "apns": [
   "5087003",
   "5087003A",
   "5099014",
   "5100002",
   "5100003",
   "5100010",
   "5101006",
   "5101007",
   "5102009",
   "5107001"
  ],
  "exhibitACheck": {
   "scale_m_per_unit": 0.95509,
   "rotation_deg": -4.229,
   "rms_m": 6.03,
   "controls": [
    {
     "label": "Exhibit A red outline vs the assembled parcels: trimmed RMS over the closest 80% of 15605 points",
     "residual_m": 6.03
    }
   ],
   "method": "trimmed ICP",
   "points": 15605,
   "inlier_share": 0.8,
   "median_m": 5.92,
   "p90_m": 31.8
  }
 },
 "features": [
  {
   "type": "Feature",
   "properties": {
    "kind": "site",
    "name": "Project site"
   },
   "geometry": {
    "type": "Polygon",
    "coordinates": [
     [
      [
       -122.4040754,
       37.7084676
      ],
      [
       -122.4039996,
       37.7086385
      ],
      [
       -122.4048711,
       37.7088846
      ],
      [
       -122.4048298,
       37.7089869
      ],
      [
       -122.4047862,
       37.7090886
      ],
      [
       -122.4047404,
       37.7091896
      ],
      [
       -122.4046924,
       37.70929
      ],
      [
       -122.4046363,
       37.7094013
      ],
      [
       -122.404585,
       37.7094976
      ],
      [
       -122.4045318,
       37.7095933
      ],
      [
       -122.404466,
       37.7097057
      ],
      [
       -122.4044067,
       37.7098022
      ],
      [
       -122.4043453,
       37.7098979
      ],
      [
       -122.4042818,
       37.7099927
      ],
      [
       -122.4042162,
       37.7100866
      ],
      [
       -122.4039054,
       37.710002
      ],
      [
       -122.4038222,
       37.7102
      ],
      [
       -122.40375,
       37.710372
      ],
      [
       -122.4039629,
       37.7104299
      ],
      [
       -122.4037005,
       37.7107877
      ],
      [
       -122.4031456,
       37.7115441
      ],
      [
       -122.403138,
       37.7115545
      ],
      [
       -122.4031159,
       37.71158
      ],
      [
       -122.4030999,
       37.7115977
      ],
      [
       -122.4030836,
       37.7116151
      ],
      [
       -122.4030669,
       37.7116322
      ],
      [
       -122.4030498,
       37.7116492
      ],
      [
       -122.4030324,
       37.7116659
      ],
      [
       -122.4030145,
       37.7116823
      ],
      [
       -122.4029964,
       37.7116985
      ],
      [
       -122.4029778,
       37.7117145
      ],
      [
       -122.402959,
       37.7117302
      ],
      [
       -122.4029398,
       37.7117456
      ],
      [
       -122.4029202,
       37.7117607
      ],
      [
       -122.4029003,
       37.7117756
      ],
      [
       -122.4028801,
       37.7117902
      ],
      [
       -122.4028596,
       37.7118045
      ],
      [
       -122.4028388,
       37.7118186
      ],
      [
       -122.4028176,
       37.7118323
      ],
      [
       -122.4027962,
       37.7118458
      ],
      [
       -122.4027744,
       37.7118589
      ],
      [
       -122.4027524,
       37.7118718
      ],
      [
       -122.4027301,
       37.7118843
      ],
      [
       -122.4027076,
       37.7118965
      ],
      [
       -122.4026847,
       37.7119084
      ],
      [
       -122.4026616,
       37.71192
      ],
      [
       -122.4026383,
       37.7119313
      ],
      [
       -122.4026147,
       37.7119423
      ],
      [
       -122.4025909,
       37.7119529
      ],
      [
       -122.402497,
       37.71199
      ],
      [
       -122.4024484,
       37.7120079
      ],
      [
       -122.4023995,
       37.7120252
      ],
      [
       -122.4023502,
       37.7120418
      ],
      [
       -122.4023006,
       37.7120577
      ],
      [
       -122.4022506,
       37.7120729
      ],
      [
       -122.4022002,
       37.7120875
      ],
      [
       -122.4021496,
       37.7121013
      ],
      [
       -122.4020987,
       37.7121144
      ],
      [
       -122.4020474,
       37.7121268
      ],
      [
       -122.401996,
       37.7121385
      ],
      [
       -122.4019442,
       37.7121495
      ],
      [
       -122.4018923,
       37.7121598
      ],
      [
       -122.4015542,
       37.7120924
      ],
      [
       -122.4016297,
       37.711881
      ],
      [
       -122.4015626,
       37.7118676
      ],
      [
       -122.4018709,
       37.7110584
      ],
      [
       -122.4019434,
       37.7110861
      ],
      [
       -122.4022289,
       37.7103768
      ],
      [
       -122.4022586,
       37.7103059
      ],
      [
       -122.4022581,
       37.7103057
      ],
      [
       -122.4022079,
       37.7103721
      ],
      [
       -122.401411,
       37.710194
      ],
      [
       -122.4014328,
       37.7101157
      ],
      [
       -122.4014334,
       37.7096256
      ],
      [
       -122.4016038,
       37.7096217
      ],
      [
       -122.4016109,
       37.7095982
      ],
      [
       -122.4016174,
       37.7095746
      ],
      [
       -122.4016233,
       37.709551
      ],
      [
       -122.4016288,
       37.7095272
      ],
      [
       -122.4016337,
       37.7095034
      ],
      [
       -122.4016381,
       37.7094794
      ],
      [
       -122.401642,
       37.7094555
      ],
      [
       -122.4016454,
       37.7094315
      ],
      [
       -122.4016482,
       37.7094074
      ],
      [
       -122.4016505,
       37.7093833
      ],
      [
       -122.4016523,
       37.7093592
      ],
      [
       -122.4016535,
       37.7093351
      ],
      [
       -122.4016542,
       37.7093109
      ],
      [
       -122.4016544,
       37.7092868
      ],
      [
       -122.4016541,
       37.7092626
      ],
      [
       -122.4016532,
       37.7092385
      ],
      [
       -122.4016518,
       37.7092144
      ],
      [
       -122.4016484,
       37.7091756
      ],
      [
       -122.4016461,
       37.7091469
      ],
      [
       -122.4016431,
       37.7091183
      ],
      [
       -122.4016395,
       37.7090897
      ],
      [
       -122.4016353,
       37.7090612
      ],
      [
       -122.4016304,
       37.7090327
      ],
      [
       -122.401625,
       37.7090044
      ],
      [
       -122.4016189,
       37.708976
      ],
      [
       -122.4016122,
       37.7089478
      ],
      [
       -122.4016048,
       37.7089197
      ],
      [
       -122.4015969,
       37.7088917
      ],
      [
       -122.4015883,
       37.7088638
      ],
      [
       -122.4015791,
       37.708836
      ],
      [
       -122.4015694,
       37.7088084
      ],
      [
       -122.401559,
       37.7087809
      ],
      [
       -122.401548,
       37.7087535
      ],
      [
       -122.4015364,
       37.7087263
      ],
      [
       -122.4015242,
       37.7086993
      ],
      [
       -122.4015114,
       37.7086724
      ],
      [
       -122.4014981,
       37.7086457
      ],
      [
       -122.4014841,
       37.7086192
      ],
      [
       -122.4014696,
       37.7085929
      ],
      [
       -122.4014545,
       37.7085668
      ],
      [
       -122.4014348,
       37.7085345
      ],
      [
       -122.4014348,
       37.7085026
      ],
      [
       -122.4014161,
       37.7083779
      ],
      [
       -122.4037225,
       37.7083679
      ],
      [
       -122.4047145,
       37.7083635
      ],
      [
       -122.404671,
       37.7084609
      ],
      [
       -122.4046306,
       37.7085515
      ],
      [
       -122.4046017,
       37.7086162
      ],
      [
       -122.4040754,
       37.7084676
      ]
     ]
    ]
   }
  }
 ]
}
