{
 "type": "FeatureCollection",
 "properties": {
  "project": "smart-cloverdale",
  "source": "GIS: U.S. DOT Bureau of Transportation Statistics, NTAD North American Rail Network Lines, SMART-owned track (RROWNER 'SMRT'/'SMAR', out of service north of Windsor), routed between FRA nodes",
  "sourceLabel": "U.S. DOT/BTS National Transportation Atlas (rail network); County of Sonoma and SMART GIS",
  "sourceUrl": "https://services.arcgis.com/xOi1kZaI0eWDREZv/arcgis/rest/services/NTAD_North_American_Rail_Network_Lines/FeatureServer/0",
  "accuracy": "approximate",
  "accuracyNote": "Approximate alignment: the federal rail network's centreline for SMART's existing, out-of-service track, 13.4 miles as drawn, cut from where the County of Sonoma's Lytton Springs Road centreline crosses the line to where its E 1st Street centreline in Cloverdale crosses it (the Strategic Plan's limits). One centreline, not SMART's engineered alignment. SMART Cloverdale extension stations: Geyserville; Cloverdale (site to be determined). The site shown is a 60 m corridor around the alignment, for selecting it on the map; it is not a property line.",
  "license": "Line: Public domain: 'a work of the United States government as defined in 17 U.S.C. § 101 ... available for unrestricted public use' (service copyright text). Cut points: County of Sonoma street centrelines (Streets_Public): 'You must source attribution “County of Sonoma”' (service copyright text). Stations: County of Sonoma parcels: CC BY-SA 3.0, credit 'County of Sonoma'. SMART station points: SMART's layer on the County of Sonoma GIS server (copyright 'SMART'; no licence stated).",
  "otherSources": [
   "https://www.sonomamarintrain.org/sites/default/files/Document%20Library/SMART_StrategicPlan_FY25-30.pdf",
   "https://www.sonomamarintrain.org/geyserville",
   "https://socogis.sonomacounty.ca.gov/map/rest/services/BASEPublic/Streets_Public/FeatureServer/0",
   "https://socogis.sonomacounty.ca.gov/map/rest/services/SMARTPublic/SMART_Stations/FeatureServer/0",
   "https://socogis.sonomacounty.ca.gov/map/rest/services/SMARTPublic/SMART_Rail_Tracks/FeatureServer/0"
  ],
  "fraArcIds": [
   328131,
   337129,
   340389,
   342087,
   342613,
   524404
  ],
  "check": "Against SMART's own track layer (https://socogis.sonomacounty.ca.gov/map/rest/services/SMARTPublic/SMART_Rail_Tracks/FeatureServer/0), sampled every 25 m: median 6 m, 95th percentile 15 m, maximum 27 m apart; that layer doesn't cover the last 75 m of the line.",
  "corridor": true,
  "corridorMetres": 60
 },
 "features": [
  {
   "type": "Feature",
   "properties": {
    "kind": "site",
    "name": "Alignment corridor"
   },
   "geometry": {
    "type": "Polygon",
    "coordinates": [
     [
      [
       -122.902362,
       38.706579
      ],
      [
       -122.910691,
       38.712697
      ],
      [
       -122.939425,
       38.732271
      ],
      [
       -122.940477,
       38.733342
      ],
      [
       -122.950018,
       38.74681
      ],
      [
       -122.951757,
       38.748462
      ],
      [
       -122.953283,
       38.749505
      ],
      [
       -122.962885,
       38.75556
      ],
      [
       -122.963961,
       38.756345
      ],
      [
       -122.967648,
       38.75987
      ],
      [
       -122.968631,
       38.760709
      ],
      [
       -122.969577,
       38.761373
      ],
      [
       -122.970713,
       38.761979
      ],
      [
       -122.973393,
       38.762967
      ],
      [
       -122.991652,
       38.769083
      ],
      [
       -122.993022,
       38.76969
      ],
      [
       -122.993941,
       38.770197
      ],
      [
       -122.995179,
       38.771293
      ],
      [
       -122.995974,
       38.772474
      ],
      [
       -122.996362,
       38.773584
      ],
      [
       -122.996588,
       38.77696
      ],
      [
       -122.99676,
       38.777962
      ],
      [
       -122.997073,
       38.779004
      ],
      [
       -122.997532,
       38.779979
      ],
      [
       -123.001688,
       38.786123
      ],
      [
       -123.003418,
       38.78793
      ],
      [
       -123.004363,
       38.788591
      ],
      [
       -123.00777,
       38.790363
      ],
      [
       -123.011232,
       38.792048
      ],
      [
       -123.011796,
       38.79264
      ],
      [
       -123.01202,
       38.793037
      ],
      [
       -123.012573,
       38.795036
      ],
      [
       -123.01274,
       38.797313
      ],
      [
       -123.01225,
       38.806512
      ],
      [
       -123.012147,
       38.807287
      ],
      [
       -123.011906,
       38.807599
      ],
      [
       -123.011535,
       38.807718
      ],
      [
       -123.011203,
       38.807678
      ],
      [
       -123.010934,
       38.807521
      ],
      [
       -123.010782,
       38.80723
      ],
      [
       -123.01099,
       38.804834
      ],
      [
       -123.011358,
       38.797294
      ],
      [
       -123.011202,
       38.795178
      ],
      [
       -123.010717,
       38.793399
      ],
      [
       -123.01031,
       38.792865
      ],
      [
       -123.007018,
       38.79127
      ],
      [
       -123.00348,
       38.789423
      ],
      [
       -123.002404,
       38.788669
      ],
      [
       -123.000514,
       38.786696
      ],
      [
       -122.996252,
       38.780387
      ],
      [
       -122.995738,
       38.779284
      ],
      [
       -122.995395,
       38.778132
      ],
      [
       -122.99521,
       38.777038
      ],
      [
       -122.994994,
       38.773756
      ],
      [
       -122.994683,
       38.772867
      ],
      [
       -122.994085,
       38.771957
      ],
      [
       -122.993016,
       38.771005
      ],
      [
       -122.991072,
       38.770065
      ],
      [
       -122.972839,
       38.763957
      ],
      [
       -122.970076,
       38.762939
      ],
      [
       -122.968761,
       38.762247
      ],
      [
       -122.967679,
       38.761492
      ],
      [
       -122.966569,
       38.760546
      ],
      [
       -122.962988,
       38.757113
      ],
      [
       -122.961996,
       38.756388
      ],
      [
       -122.952409,
       38.750342
      ],
      [
       -122.950806,
       38.749247
      ],
      [
       -122.948917,
       38.747464
      ],
      [
       -122.93929,
       38.733897
      ],
      [
       -122.938413,
       38.73301
      ],
      [
       -122.909761,
       38.713497
      ],
      [
       -122.884432,
       38.694983
      ],
      [
       -122.883695,
       38.694401
      ],
      [
       -122.881418,
       38.692215
      ],
      [
       -122.87997,
       38.689741
      ],
      [
       -122.874847,
       38.671598
      ],
      [
       -122.871621,
       38.659444
      ],
      [
       -122.871657,
       38.659131
      ],
      [
       -122.871966,
       38.658859
      ],
      [
       -122.872223,
       38.658796
      ],
      [
       -122.872555,
       38.658833
      ],
      [
       -122.872826,
       38.658987
      ],
      [
       -122.872972,
       38.659224
      ],
      [
       -122.876194,
       38.671366
      ],
      [
       -122.881317,
       38.689498
      ],
      [
       -122.882547,
       38.691584
      ],
      [
       -122.884743,
       38.693697
      ],
      [
       -122.885396,
       38.694209
      ],
      [
       -122.888535,
       38.696448
      ],
      [
       -122.896761,
       38.702575
      ],
      [
       -122.902362,
       38.706579
      ]
     ]
    ]
   }
  }
 ]
}
