{
 "type": "FeatureCollection",
 "properties": {
  "project": "smart-healdsburg",
  "source": "GIS: U.S. DOT Bureau of Transportation Statistics, NTAD North American Rail Network Lines, SMART-owned track (RROWNER 'SMRT'/'SMAR', out of service north of Windsor), routed between FRA nodes",
  "sourceLabel": "U.S. DOT/BTS National Transportation Atlas (rail network); County of Sonoma and SMART GIS",
  "sourceUrl": "https://services.arcgis.com/xOi1kZaI0eWDREZv/arcgis/rest/services/NTAD_North_American_Rail_Network_Lines/FeatureServer/0",
  "accuracy": "approximate",
  "accuracyNote": "Approximate alignment: the federal rail network's centreline for SMART's existing, out-of-service track, 8.9 miles as drawn, cut from the Windsor station (National Transit Map stop 4251896) projected onto the line, to where the County of Sonoma's Lytton Springs Road centreline crosses it (the addendum's milepost 72.00). One centreline, not SMART's engineered alignment. SMART Healdsburg extension stations: Windsor; Healdsburg (site under review). The site shown is a 60 m corridor around the alignment, for selecting it on the map; it is not a property line.",
  "license": "Line: Public domain: 'a work of the United States government as defined in 17 U.S.C. § 101 ... available for unrestricted public use' (service copyright text). Cut points: County of Sonoma street centrelines (Streets_Public): CC BY-SA 3.0 US (layer licence), credit 'County of Sonoma'. Stations: BTS National Transit Map stops: Creative Commons Attribution 3.0 United States (service copyright text). SMART station points: SMART's layer on the County of Sonoma GIS server (copyright 'SMART'; no licence stated).",
  "otherSources": [
   "https://ceqanet.lci.ca.gov/2002112033/46/Attachment/xgdCcY",
   "https://www.sonomamarintrain.org/healdsburgstationlocation",
   "https://socogis.sonomacounty.ca.gov/map/rest/services/BASEPublic/Streets_Public/FeatureServer/0",
   "https://socogis.sonomacounty.ca.gov/map/rest/services/SMARTPublic/SMART_Stations/FeatureServer/0",
   "https://socogis.sonomacounty.ca.gov/map/rest/services/SMARTPublic/SMART_Rail_Tracks/FeatureServer/0"
  ],
  "fraArcIds": [
   328131,
   331995
  ],
  "check": "Against SMART's own track layer (https://socogis.sonomacounty.ca.gov/map/rest/services/SMARTPublic/SMART_Rail_Tracks/FeatureServer/0), sampled every 5 m: median 4 m, 95th percentile 14 m, maximum 22 m apart.",
  "corridor": true,
  "corridorMetres": 60
 },
 "features": [
  {
   "type": "Feature",
   "properties": {
    "kind": "site",
    "name": "Alignment corridor"
   },
   "geometry": {
    "type": "Polygon",
    "coordinates": [
     [
      [
       -122.817798,
       38.549082
      ],
      [
       -122.817952,
       38.548792
      ],
      [
       -122.818358,
       38.548597
      ],
      [
       -122.818756,
       38.548623
      ],
      [
       -122.819069,
       38.548819
      ],
      [
       -122.826712,
       38.557534
      ],
      [
       -122.841732,
       38.574127
      ],
      [
       -122.842266,
       38.575066
      ],
      [
       -122.845884,
       38.58391
      ],
      [
       -122.847592,
       38.587866
      ],
      [
       -122.849407,
       38.592608
      ],
      [
       -122.851704,
       38.59804
      ],
      [
       -122.852244,
       38.599527
      ],
      [
       -122.852642,
       38.600323
      ],
      [
       -122.85384,
       38.601802
      ],
      [
       -122.854458,
       38.602325
      ],
      [
       -122.855382,
       38.602757
      ],
      [
       -122.870316,
       38.607847
      ],
      [
       -122.871598,
       38.608606
      ],
      [
       -122.872478,
       38.609327
      ],
      [
       -122.873232,
       38.610324
      ],
      [
       -122.873626,
       38.61146
      ],
      [
       -122.873768,
       38.612307
      ],
      [
       -122.875518,
       38.634956
      ],
      [
       -122.875579,
       38.636977
      ],
      [
       -122.875488,
       38.638067
      ],
      [
       -122.875057,
       38.639883
      ],
      [
       -122.874557,
       38.641123
      ],
      [
       -122.874072,
       38.642013
      ],
      [
       -122.873463,
       38.642873
      ],
      [
       -122.872757,
       38.643678
      ],
      [
       -122.870286,
       38.645764
      ],
      [
       -122.86981,
       38.64634
      ],
      [
       -122.869543,
       38.647365
      ],
      [
       -122.869754,
       38.648364
      ],
      [
       -122.872972,
       38.659224
      ],
      [
       -122.872907,
       38.659585
      ],
      [
       -122.872566,
       38.659832
      ],
      [
       -122.872302,
       38.659875
      ],
      [
       -122.871977,
       38.659813
      ],
      [
       -122.871638,
       38.659495
      ],
      [
       -122.868408,
       38.648602
      ],
      [
       -122.868162,
       38.647373
      ],
      [
       -122.868302,
       38.646595
      ],
      [
       -122.868591,
       38.645826
      ],
      [
       -122.869236,
       38.645061
      ],
      [
       -122.871652,
       38.64303
      ],
      [
       -122.87285,
       38.641512
      ],
      [
       -122.873253,
       38.640772
      ],
      [
       -122.87373,
       38.639589
      ],
      [
       -122.874115,
       38.637962
      ],
      [
       -122.8742,
       38.636978
      ],
      [
       -122.874141,
       38.635013
      ],
      [
       -122.872393,
       38.61239
      ],
      [
       -122.872282,
       38.611705
      ],
      [
       -122.871944,
       38.610717
      ],
      [
       -122.871443,
       38.610042
      ],
      [
       -122.87068,
       38.609415
      ],
      [
       -122.869631,
       38.608793
      ],
      [
       -122.854801,
       38.603738
      ],
      [
       -122.853613,
       38.603186
      ],
      [
       -122.852731,
       38.602445
      ],
      [
       -122.851426,
       38.600834
      ],
      [
       -122.850949,
       38.599897
      ],
      [
       -122.850391,
       38.598369
      ],
      [
       -122.84809,
       38.592924
      ],
      [
       -122.846284,
       38.588205
      ],
      [
       -122.844575,
       38.584247
      ],
      [
       -122.840966,
       38.575423
      ],
      [
       -122.840526,
       38.574654
      ],
      [
       -122.82558,
       38.558151
      ],
      [
       -122.81791,
       38.549436
      ],
      [
       -122.817798,
       38.549082
      ]
     ]
    ]
   }
  }
 ]
}
