{
 "type": "FeatureCollection",
 "properties": {
  "project": "sonoma-developmental-center",
  "source": "traced: SDC Campus Specific Plan Update and Eldridge Renewal Project Notice of Preparation (County of Sonoma, SCH 2025081410, Aug 2025), Figure 3, Specific Plan Update and Eldridge Renewal Project Area, p. 21",
  "sourceUrl": "https://ceqanet.lci.ca.gov/2025081410/Attachment/7biXwK",
  "sourceLabel": "notice of preparation figure (PDF)",
  "accuracy": "traced",
  "accuracyShort": "RMS 0.8 m",
  "accuracyNote": "The whole project area: the SDC core campus and the wildfire buffer around its north, west and east sides, traced from the county's figure and fitted to OpenStreetMap building footprints (RMS 0.8 m over the closest 70% of 23,954 building-edge points; street crossings within 8 m). 208 acres as drawn (159 core, 49 buffer); the notice gives a 160-acre core campus and a 49-acre buffer. The figure's lines are planning boundaries, not surveyed parcel lines.",
  "license": "Shape traced from a public County of Sonoma CEQA notice. Georeference: OpenStreetMap contributors (ODbL 1.0), via Overture Maps.",
  "georeference": {
   "scale_m_per_unit": 0.22427,
   "rotation_deg": 41.567,
   "rms_m": 0.82,
   "controls": [
    {
     "label": "figure building outlines vs Overture (OpenStreetMap) buildings: trimmed RMS over the closest 70% of 23954 points",
     "residual_m": 0.82
    }
   ],
   "method": "trimmed ICP",
   "points": 23954,
   "inlier_share": 0.7,
   "median_m": 0.97,
   "p90_m": 3.17,
   "street_crossings_m": {
    "Arnold Drive / Harney": 3.1,
    "Arnold Drive / Holt Road": 6.1,
    "Railroad / Harney": 1.5,
    "Arnold Drive / Wilson": 8.4,
    "Railroad / Toyon": 4.0,
    "Walnut / Laurel": 7.2
   }
  },
  "coreAcresDrawn": 158.9
 },
 "features": [
  {
   "type": "Feature",
   "properties": {
    "kind": "site",
    "name": "Project site"
   },
   "geometry": {
    "type": "Polygon",
    "coordinates": [
     [
      [
       -122.5204568,
       38.3446381
      ],
      [
       -122.5191691,
       38.3434407
      ],
      [
       -122.5190907,
       38.3434367
      ],
      [
       -122.5183801,
       38.3436843
      ],
      [
       -122.5181235,
       38.3437524
      ],
      [
       -122.5180438,
       38.3437931
      ],
      [
       -122.5179322,
       38.3438173
      ],
      [
       -122.5106215,
       38.3463202
      ],
      [
       -122.5104713,
       38.3463861
      ],
      [
       -122.5104348,
       38.346425
      ],
      [
       -122.5104481,
       38.3465146
      ],
      [
       -122.5107739,
       38.3470376
      ],
      [
       -122.5114894,
       38.3476413
      ],
      [
       -122.5118092,
       38.3477492
      ],
      [
       -122.512168,
       38.3479304
      ],
      [
       -122.5123321,
       38.348042
      ],
      [
       -122.5128189,
       38.3484564
      ],
      [
       -122.5128436,
       38.3485147
      ],
      [
       -122.512805,
       38.3485718
      ],
      [
       -122.5125988,
       38.3486544
      ],
      [
       -122.5109303,
       38.3492309
      ],
      [
       -122.510875,
       38.3492656
      ],
      [
       -122.5108539,
       38.3493175
      ],
      [
       -122.5109545,
       38.3494556
      ],
      [
       -122.5109294,
       38.3495317
      ],
      [
       -122.51018,
       38.3497939
      ],
      [
       -122.510094,
       38.3498463
      ],
      [
       -122.5100877,
       38.3499223
      ],
      [
       -122.5102015,
       38.3499873
      ],
      [
       -122.5103917,
       38.3501576
      ],
      [
       -122.5120731,
       38.3517341
      ],
      [
       -122.5127457,
       38.3523318
      ],
      [
       -122.5131245,
       38.3527052
      ],
      [
       -122.5132695,
       38.3528141
      ],
      [
       -122.5139113,
       38.3534298
      ],
      [
       -122.5142154,
       38.3536882
      ],
      [
       -122.5142749,
       38.3536913
      ],
      [
       -122.5145489,
       38.3536273
      ],
      [
       -122.5147457,
       38.3535644
      ],
      [
       -122.5150279,
       38.3535114
      ],
      [
       -122.515156,
       38.3534637
      ],
      [
       -122.5154406,
       38.3534095
      ],
      [
       -122.5155588,
       38.3533655
      ],
      [
       -122.5158284,
       38.3533154
      ],
      [
       -122.5160859,
       38.3532379
      ],
      [
       -122.5161845,
       38.3532286
      ],
      [
       -122.51637,
       38.353168
      ],
      [
       -122.5165767,
       38.3531327
      ],
      [
       -122.5169082,
       38.3530381
      ],
      [
       -122.517516,
       38.3529021
      ],
      [
       -122.5177123,
       38.3528374
      ],
      [
       -122.5178282,
       38.3528266
      ],
      [
       -122.5182807,
       38.352709
      ],
      [
       -122.5190006,
       38.3522098
      ],
      [
       -122.5204297,
       38.351268
      ],
      [
       -122.5206793,
       38.3510795
      ],
      [
       -122.5207546,
       38.351051
      ],
      [
       -122.5209054,
       38.3509472
      ],
      [
       -122.5210634,
       38.3509228
      ],
      [
       -122.5211139,
       38.3508166
      ],
      [
       -122.5212189,
       38.3507226
      ],
      [
       -122.5222703,
       38.3500175
      ],
      [
       -122.5223433,
       38.3499858
      ],
      [
       -122.5225879,
       38.3498061
      ],
      [
       -122.5226609,
       38.3497744
      ],
      [
       -122.5238551,
       38.3489545
      ],
      [
       -122.52393,
       38.3489215
      ],
      [
       -122.5242501,
       38.3486827
      ],
      [
       -122.5242511,
       38.3486282
      ],
      [
       -122.5241939,
       38.3485287
      ],
      [
       -122.523885,
       38.3480298
      ],
      [
       -122.5238335,
       38.3479795
      ],
      [
       -122.523538,
       38.3474714
      ],
      [
       -122.5210776,
       38.3451926
      ],
      [
       -122.5209836,
       38.3451281
      ],
      [
       -122.5209033,
       38.3451254
      ],
      [
       -122.5208154,
       38.3451981
      ],
      [
       -122.5207289,
       38.3452317
      ],
      [
       -122.520669,
       38.3452934
      ],
      [
       -122.5205445,
       38.3453438
      ],
      [
       -122.5204889,
       38.345347
      ],
      [
       -122.5204207,
       38.3453165
      ],
      [
       -122.5201282,
       38.3450475
      ],
      [
       -122.5201057,
       38.344997
      ],
      [
       -122.520122,
       38.3449446
      ],
      [
       -122.5202069,
       38.3448581
      ],
      [
       -122.520286,
       38.344827
      ],
      [
       -122.5203456,
       38.344765
      ],
      [
       -122.5204424,
       38.3447188
      ],
      [
       -122.5204568,
       38.3446381
      ]
     ]
    ]
   }
  }
 ]
}
