{
 "type": "FeatureCollection",
 "properties": {
  "project": "stonestown",
  "source": "DataSF Zoning Map \u2013 Special Use Districts, \u201cStonestown Special Use District\u201d",
  "sourceLabel": "DataSF special use districts",
  "sourceUrl": "https://data.sf.gov/d/5yf5-ms5f",
  "query": "https://data.sf.gov/resource/5yf5-ms5f.geojson?%24where=name+%3D+%27Stonestown+Special+Use+District%27&%24limit=5000",
  "accuracy": "official",
  "accuracyNote": "The Stonestown Special Use District. The existing mall is outside it. 38.4 acres as drawn.",
  "license": "Public Domain U.S. Government (DataSF)",
  "features_used": 1
 },
 "features": [
  {
   "type": "Feature",
   "properties": {
    "kind": "site",
    "name": "Project site"
   },
   "geometry": {
    "type": "Polygon",
    "coordinates": [
     [
      [
       -122.481054,
       37.7299684
      ],
      [
       -122.4804064,
       37.730105
      ],
      [
       -122.4799916,
       37.7304719
      ],
      [
       -122.4796333,
       37.730565
      ],
      [
       -122.4795188,
       37.7305677
      ],
      [
       -122.4795167,
       37.7308383
      ],
      [
       -122.4787133,
       37.7308225
      ],
      [
       -122.4787282,
       37.7310539
      ],
      [
       -122.4784681,
       37.7310513
      ],
      [
       -122.4784688,
       37.7308211
      ],
      [
       -122.4784312,
       37.7303292
      ],
      [
       -122.4784386,
       37.7301267
      ],
      [
       -122.4783181,
       37.7301748
      ],
      [
       -122.4781958,
       37.730193
      ],
      [
       -122.4772161,
       37.7301835
      ],
      [
       -122.4761282,
       37.7302081
      ],
      [
       -122.4760576,
       37.7302415
      ],
      [
       -122.4760234,
       37.7303009
      ],
      [
       -122.4760093,
       37.7309719
      ],
      [
       -122.4758168,
       37.7309702
      ],
      [
       -122.4757973,
       37.7310037
      ],
      [
       -122.4757639,
       37.7310218
      ],
      [
       -122.4756085,
       37.731023
      ],
      [
       -122.4756092,
       37.7305578
      ],
      [
       -122.4754253,
       37.73047
      ],
      [
       -122.4752857,
       37.7303348
      ],
      [
       -122.4749776,
       37.7303212
      ],
      [
       -122.4748092,
       37.7303294
      ],
      [
       -122.4747774,
       37.7296282
      ],
      [
       -122.4749683,
       37.7256611
      ],
      [
       -122.475494,
       37.7256922
      ],
      [
       -122.4759182,
       37.7254336
      ],
      [
       -122.4761504,
       37.7254358
      ],
      [
       -122.4763502,
       37.7255147
      ],
      [
       -122.4768908,
       37.7259604
      ],
      [
       -122.4769946,
       37.7259924
      ],
      [
       -122.4769779,
       37.7263218
      ],
      [
       -122.476169,
       37.726298
      ],
      [
       -122.4761399,
       37.7268399
      ],
      [
       -122.4769407,
       37.7268679
      ],
      [
       -122.4769334,
       37.7270418
      ],
      [
       -122.4765698,
       37.7270351
      ],
      [
       -122.4765631,
       37.727075
      ],
      [
       -122.4765136,
       37.727077
      ],
      [
       -122.4764317,
       37.7285317
      ],
      [
       -122.4763979,
       37.7286807
      ],
      [
       -122.4764709,
       37.7286882
      ],
      [
       -122.4764527,
       37.7289358
      ],
      [
       -122.4761525,
       37.7289495
      ],
      [
       -122.4761342,
       37.7296062
      ],
      [
       -122.4767553,
       37.7296291
      ],
      [
       -122.4767729,
       37.7293726
      ],
      [
       -122.4772999,
       37.7293971
      ],
      [
       -122.4773246,
       37.72891
      ],
      [
       -122.477496,
       37.728912
      ],
      [
       -122.4775893,
       37.7272526
      ],
      [
       -122.4778872,
       37.7272626
      ],
      [
       -122.4778974,
       37.7271239
      ],
      [
       -122.4772575,
       37.7270984
      ],
      [
       -122.4772668,
       37.7268788
      ],
      [
       -122.4779702,
       37.7269042
      ],
      [
       -122.4780083,
       37.7260863
      ],
      [
       -122.4780912,
       37.7260887
      ],
      [
       -122.4784068,
       37.726048
      ],
      [
       -122.4788119,
       37.7259001
      ],
      [
       -122.4786647,
       37.7276138
      ],
      [
       -122.4785859,
       37.7276193
      ],
      [
       -122.4785927,
       37.727931
      ],
      [
       -122.4785995,
       37.7280162
      ],
      [
       -122.4786283,
       37.7280936
      ],
      [
       -122.4786976,
       37.7282099
      ],
      [
       -122.4789411,
       37.7283549
      ],
      [
       -122.4788226,
       37.7284808
      ],
      [
       -122.4787514,
       37.7284634
      ],
      [
       -122.4786751,
       37.7284724
      ],
      [
       -122.4786132,
       37.7285054
      ],
      [
       -122.4785748,
       37.728556
      ],
      [
       -122.4786011,
       37.7291646
      ],
      [
       -122.4786932,
       37.7291419
      ],
      [
       -122.4788356,
       37.7293369
      ],
      [
       -122.4789311,
       37.7293693
      ],
      [
       -122.4792278,
       37.7293754
      ],
      [
       -122.4792352,
       37.729443
      ],
      [
       -122.479589,
       37.7294323
      ],
      [
       -122.4802769,
       37.7290462
      ],
      [
       -122.481054,
       37.7299684
      ]
     ]
    ]
   }
  }
 ]
}
