{
 "type": "FeatureCollection",
 "properties": {
  "project": "suisun-expansion",
  "source": "traced: Suisun Expansion Project Notice of Preparation (City of Suisun City, SCH 2025110452, Nov 2025), Figure 2, Annexation Area, Area Plan, Specific Plan, and 20 Year Plan Boundaries, p. 15",
  "sourceUrl": "https://ceqanet.lci.ca.gov/2025110452/Attachment/nT6gPE",
  "sourceLabel": "notice of preparation figure (PDF)",
  "accuracy": "approximate",
  "accuracyNote": "Approximate boundary: the annexation area traced from a small-scale raster figure (about 20 m per pixel), fitted to SR-12 and SR-113 in OpenStreetMap (RMS 32 m over the closest 80% of road pixels; median 28 m). 22,535 acres as drawn; the NOP states 22,873 acres.",
  "license": "Shape traced from a public City of Suisun City CEQA notice. Georeference: OpenStreetMap contributors (ODbL 1.0), via Overture Maps.",
  "georeference": {
   "scale_m_per_unit": 19.7225,
   "rotation_deg": 0.407,
   "rms_m": 31.97,
   "controls": [
    {
     "label": "SR-12 and SR-113 casings vs OpenStreetMap: trimmed RMS over the closest 80% of 1396 points",
     "residual_m": 31.97
    }
   ],
   "method": "trimmed ICP",
   "points": 1396,
   "inlier_share": 0.8,
   "median_m": 27.58,
   "p90_m": 91.78,
   "per_road_median_m": {
    "SR-12": 24.0,
    "SR-113": 44.6
   }
  }
 },
 "features": [
  {
   "type": "Feature",
   "properties": {
    "kind": "site",
    "name": "Project site"
   },
   "geometry": {
    "type": "Polygon",
    "coordinates": [
     [
      [
       -121.9736238,
       38.2646204
      ],
      [
       -121.9779069,
       38.2646338
      ],
      [
       -121.9785858,
       38.2641027
      ],
      [
       -121.9790402,
       38.2633932
      ],
      [
       -121.9790464,
       38.2621491
      ],
      [
       -121.9801762,
       38.2616194
      ],
      [
       -121.9799676,
       38.2582418
      ],
      [
       -121.9804228,
       38.2573546
      ],
      [
       -121.9804316,
       38.2555773
      ],
      [
       -121.9811113,
       38.2548684
      ],
      [
       -121.9806729,
       38.2523788
      ],
      [
       -121.9799985,
       38.2520213
      ],
      [
       -121.9797776,
       38.2511319
      ],
      [
       -121.9775309,
       38.2497031
      ],
      [
       -121.9775371,
       38.248459
      ],
      [
       -121.9770881,
       38.2481021
      ],
      [
       -121.9770952,
       38.2466802
      ],
      [
       -121.9775478,
       38.2463262
      ],
      [
       -121.977562,
       38.2434825
      ],
      [
       -121.9786915,
       38.2429528
      ],
      [
       -121.9804943,
       38.2429584
      ],
      [
       -121.9809433,
       38.2433153
      ],
      [
       -121.9847753,
       38.2431493
      ],
      [
       -121.9852243,
       38.2435061
      ],
      [
       -121.9863563,
       38.2424432
      ],
      [
       -121.9865946,
       38.2397779
      ],
      [
       -121.9861457,
       38.239421
      ],
      [
       -121.9859273,
       38.2379985
      ],
      [
       -121.9839009,
       38.2376369
      ],
      [
       -121.9839062,
       38.2365705
      ],
      [
       -121.9827856,
       38.2353229
      ],
      [
       -121.9816634,
       38.2344308
      ],
      [
       -121.9805376,
       38.2342496
      ],
      [
       -121.9803167,
       38.2333602
      ],
      [
       -121.9791944,
       38.2324681
      ],
      [
       -121.9785185,
       38.232466
      ],
      [
       -121.9780705,
       38.2319314
      ],
      [
       -121.9771692,
       38.2319286
      ],
      [
       -121.9769501,
       38.2306838
      ],
      [
       -121.975828,
       38.2297916
      ],
      [
       -121.9740281,
       38.2292528
      ],
      [
       -121.9724509,
       38.2292478
      ],
      [
       -121.9722301,
       38.2283584
      ],
      [
       -121.9706547,
       38.227998
      ],
      [
       -121.9201852,
       38.2278271
      ],
      [
       -121.9199558,
       38.2285372
      ],
      [
       -121.9181533,
       38.2285307
      ],
      [
       -121.9179322,
       38.227819
      ],
      [
       -121.9161297,
       38.2278124
      ],
      [
       -121.9159002,
       38.2285225
      ],
      [
       -121.9140977,
       38.2285159
      ],
      [
       -121.9138766,
       38.2278042
      ],
      [
       -121.9082439,
       38.2277835
      ],
      [
       -121.9080144,
       38.2284936
      ],
      [
       -121.9059866,
       38.228486
      ],
      [
       -121.9055413,
       38.2275957
      ],
      [
       -121.9044147,
       38.2275915
      ],
      [
       -121.9039577,
       38.2286562
      ],
      [
       -121.9021552,
       38.2286494
      ],
      [
       -121.9019353,
       38.2277599
      ],
      [
       -121.9014858,
       38.2275805
      ],
      [
       -121.898781,
       38.2277481
      ],
      [
       -121.8974313,
       38.2273875
      ],
      [
       -121.8951783,
       38.2273789
      ],
      [
       -121.8949573,
       38.2266671
      ],
      [
       -121.8942825,
       38.2264868
      ],
      [
       -121.8940605,
       38.2259528
      ],
      [
       -121.8929384,
       38.2252376
      ],
      [
       -121.8927174,
       38.2245258
      ],
      [
       -121.8918195,
       38.2239892
      ],
      [
       -121.891603,
       38.2225665
      ],
      [
       -121.8893623,
       38.2206028
      ],
      [
       -121.8886875,
       38.2204224
      ],
      [
       -121.8886897,
       38.220067
      ],
      [
       -121.8866755,
       38.2179264
      ],
      [
       -121.8860008,
       38.217746
      ],
      [
       -121.8860041,
       38.2172129
      ],
      [
       -121.8855547,
       38.2170334
      ],
      [
       -121.8855569,
       38.2166779
      ],
      [
       -121.8839911,
       38.2148945
      ],
      [
       -121.8828693,
       38.2141792
      ],
      [
       -121.8819772,
       38.2127538
      ],
      [
       -121.8813025,
       38.2125735
      ],
      [
       -121.8813059,
       38.2120403
      ],
      [
       -121.8806313,
       38.2118599
      ],
      [
       -121.8806357,
       38.211149
      ],
      [
       -121.8795174,
       38.2099004
      ],
      [
       -121.8783922,
       38.2097183
      ],
      [
       -121.8783979,
       38.2088296
      ],
      [
       -121.8745903,
       38.2054376
      ],
      [
       -121.8734641,
       38.2054331
      ],
      [
       -121.8730159,
       38.2050759
      ],
      [
       -121.8730228,
       38.2040095
      ],
      [
       -121.8723482,
       38.2038291
      ],
      [
       -121.8723539,
       38.2029404
      ],
      [
       -121.8719046,
       38.2027609
      ],
      [
       -121.8714507,
       38.2032923
      ],
      [
       -121.8698753,
       38.2031082
      ],
      [
       -121.8698833,
       38.2018641
      ],
      [
       -121.8707854,
       38.20169
      ],
      [
       -121.8703406,
       38.2007996
      ],
      [
       -121.8687664,
       38.2004378
      ],
      [
       -121.8687722,
       38.1995491
      ],
      [
       -121.8683229,
       38.1993696
      ],
      [
       -121.8678782,
       38.1984791
      ],
      [
       -121.8665315,
       38.1977628
      ],
      [
       -121.866535,
       38.1972296
      ],
      [
       -121.864969,
       38.1956236
      ],
      [
       -121.8638464,
       38.1950859
      ],
      [
       -121.8638499,
       38.1945527
      ],
      [
       -121.8625057,
       38.1934808
      ],
      [
       -121.8618301,
       38.193478
      ],
      [
       -121.8613844,
       38.1927653
      ],
      [
       -121.8600367,
       38.1922266
      ],
      [
       -121.8595899,
       38.1916915
      ],
      [
       -121.8584674,
       38.1911537
      ],
      [
       -121.8577918,
       38.1911509
      ],
      [
       -121.8575702,
       38.1906168
      ],
      [
       -121.8557758,
       38.189543
      ],
      [
       -121.8544258,
       38.1893597
      ],
      [
       -121.8542042,
       38.1888256
      ],
      [
       -121.8524099,
       38.1877517
      ],
      [
       -121.85106,
       38.1875683
      ],
      [
       -121.8508384,
       38.1870342
      ],
      [
       -121.8501652,
       38.1866759
      ],
      [
       -121.8485902,
       38.1864916
      ],
      [
       -121.8483686,
       38.1859575
      ],
      [
       -121.8479183,
       38.1859556
      ],
      [
       -121.8476955,
       38.1855992
      ],
      [
       -121.8467948,
       38.1855954
      ],
      [
       -121.8465732,
       38.1850612
      ],
      [
       -121.845451,
       38.1845233
      ],
      [
       -121.8441012,
       38.1843398
      ],
      [
       -121.8438784,
       38.1839834
      ],
      [
       -121.842979,
       38.1838019
      ],
      [
       -121.8430081,
       38.1795365
      ],
      [
       -121.8425578,
       38.1795345
      ],
      [
       -121.842329,
       38.1800668
      ],
      [
       -121.8403026,
       38.1800581
      ],
      [
       -121.8400811,
       38.179524
      ],
      [
       -121.838505,
       38.1795172
      ],
      [
       -121.8382761,
       38.1800494
      ],
      [
       -121.8362497,
       38.1800407
      ],
      [
       -121.8360283,
       38.1795066
      ],
      [
       -121.8303994,
       38.1794822
      ],
      [
       -121.8301693,
       38.1801921
      ],
      [
       -121.8281429,
       38.1801832
      ],
      [
       -121.8279227,
       38.1794714
      ],
      [
       -121.8263466,
       38.1794644
      ],
      [
       -121.826119,
       38.1798189
      ],
      [
       -121.8240926,
       38.17981
      ],
      [
       -121.82387,
       38.1794535
      ],
      [
       -121.8182411,
       38.1794286
      ],
      [
       -121.8177844,
       38.1803152
      ],
      [
       -121.8159832,
       38.1803071
      ],
      [
       -121.8157644,
       38.1794175
      ],
      [
       -121.8141884,
       38.1794104
      ],
      [
       -121.8139606,
       38.1797648
      ],
      [
       -121.8119343,
       38.1797557
      ],
      [
       -121.8117117,
       38.1793992
      ],
      [
       -121.8060829,
       38.1793737
      ],
      [
       -121.8058538,
       38.1799058
      ],
      [
       -121.8040526,
       38.1798976
      ],
      [
       -121.8036062,
       38.1793623
      ],
      [
       -121.8020301,
       38.1793551
      ],
      [
       -121.8017997,
       38.180065
      ],
      [
       -121.7999985,
       38.1800567
      ],
      [
       -121.7995535,
       38.1793437
      ],
      [
       -121.7941498,
       38.1793186
      ],
      [
       -121.7936969,
       38.1796719
      ],
      [
       -121.7918956,
       38.1796635
      ],
      [
       -121.791448,
       38.179306
      ],
      [
       -121.7900971,
       38.1792996
      ],
      [
       -121.7896441,
       38.1796529
      ],
      [
       -121.7876178,
       38.1796434
      ],
      [
       -121.7873953,
       38.1792869
      ],
      [
       -121.7819917,
       38.1792612
      ],
      [
       -121.7817638,
       38.1796156
      ],
      [
       -121.7799626,
       38.179607
      ],
      [
       -121.7790647,
       38.1792472
      ],
      [
       -121.77883,
       38.1804902
      ],
      [
       -121.7797293,
       38.1806722
      ],
      [
       -121.779717,
       38.1822718
      ],
      [
       -121.778815,
       38.1824452
      ],
      [
       -121.7785857,
       38.1829772
      ],
      [
       -121.7614735,
       38.1828939
      ],
      [
       -121.7612582,
       38.1816487
      ],
      [
       -121.7603604,
       38.1812888
      ],
      [
       -121.7603717,
       38.179867
      ],
      [
       -121.7610486,
       38.1796926
      ],
      [
       -121.7610528,
       38.1791595
      ],
      [
       -121.7554241,
       38.1791315
      ],
      [
       -121.7551932,
       38.1798412
      ],
      [
       -121.7533935,
       38.1796545
      ],
      [
       -121.7531583,
       38.1808974
      ],
      [
       -121.7538309,
       38.1812562
      ],
      [
       -121.7538195,
       38.182678
      ],
      [
       -121.7502155,
       38.1828376
      ],
      [
       -121.749999,
       38.1817702
      ],
      [
       -121.7493249,
       38.181589
      ],
      [
       -121.7493379,
       38.1799895
      ],
      [
       -121.7500148,
       38.1798152
      ],
      [
       -121.7500205,
       38.1791043
      ],
      [
       -121.7486697,
       38.1790975
      ],
      [
       -121.7484402,
       38.1796296
      ],
      [
       -121.746639,
       38.1796204
      ],
      [
       -121.7464182,
       38.1790861
      ],
      [
       -121.7423655,
       38.1790655
      ],
      [
       -121.742351,
       38.1808427
      ],
      [
       -121.743025,
       38.1810239
      ],
      [
       -121.7430119,
       38.1826234
      ],
      [
       -121.740984,
       38.1827907
      ],
      [
       -121.741196,
       38.1843914
      ],
      [
       -121.7402924,
       38.1847422
      ],
      [
       -121.7402588,
       38.1888298
      ],
      [
       -121.741158,
       38.1890121
      ],
      [
       -121.7416055,
       38.1893699
      ],
      [
       -121.7415982,
       38.1902585
      ],
      [
       -121.7429434,
       38.1909763
      ],
      [
       -121.7429303,
       38.1925757
      ],
      [
       -121.7422533,
       38.19275
      ],
      [
       -121.7422139,
       38.1975485
      ],
      [
       -121.7401841,
       38.1978935
      ],
      [
       -121.7401768,
       38.1987821
      ],
      [
       -121.7408495,
       38.199141
      ],
      [
       -121.7408363,
       38.2007405
      ],
      [
       -121.7401578,
       38.2010925
      ],
      [
       -121.7401241,
       38.2051801
      ],
      [
       -121.7407969,
       38.205539
      ],
      [
       -121.7407851,
       38.2069607
      ],
      [
       -121.7401051,
       38.2074904
      ],
      [
       -121.7400977,
       38.208379
      ],
      [
       -121.7407705,
       38.2087379
      ],
      [
       -121.7407588,
       38.2101597
      ],
      [
       -121.7400787,
       38.2106894
      ],
      [
       -121.740045,
       38.214777
      ],
      [
       -121.7411683,
       38.2151382
      ],
      [
       -121.7411552,
       38.2167377
      ],
      [
       -121.7400259,
       38.2170873
      ],
      [
       -121.7400186,
       38.2179759
      ],
      [
       -121.7406915,
       38.2183348
      ],
      [
       -121.7406797,
       38.2197566
      ],
      [
       -121.7399995,
       38.2202863
      ],
      [
       -121.7399673,
       38.2241961
      ],
      [
       -121.7406402,
       38.224555
      ],
      [
       -121.740627,
       38.2261545
      ],
      [
       -121.7399467,
       38.2266842
      ],
      [
       -121.7399409,
       38.2273951
      ],
      [
       -121.7406138,
       38.227754
      ],
      [
       -121.7406006,
       38.2293535
      ],
      [
       -121.7399218,
       38.2297054
      ],
      [
       -121.7399012,
       38.2321935
      ],
      [
       -121.7403401,
       38.2336176
      ],
      [
       -121.7410161,
       38.233621
      ],
      [
       -121.7414711,
       38.2330902
      ],
      [
       -121.7432736,
       38.2330994
      ],
      [
       -121.7437198,
       38.2336349
      ],
      [
       -121.7450717,
       38.2336418
      ],
      [
       -121.7455282,
       38.2329332
      ],
      [
       -121.7473307,
       38.2329423
      ],
      [
       -121.7477755,
       38.2336555
      ],
      [
       -121.7531831,
       38.2336828
      ],
      [
       -121.7536366,
       38.2333296
      ],
      [
       -121.7572388,
       38.2337031
      ],
      [
       -121.7576951,
       38.2329945
      ],
      [
       -121.7594976,
       38.2330035
      ],
      [
       -121.7599426,
       38.2337166
      ],
      [
       -121.7653502,
       38.2337433
      ],
      [
       -121.7658036,
       38.2333901
      ],
      [
       -121.7694059,
       38.2337632
      ],
      [
       -121.769634,
       38.2334089
      ],
      [
       -121.7714365,
       38.2334177
      ],
      [
       -121.7718844,
       38.2337753
      ],
      [
       -121.7772907,
       38.2339792
      ],
      [
       -121.7777454,
       38.2334482
      ],
      [
       -121.7797733,
       38.233458
      ],
      [
       -121.7802198,
       38.2339933
      ],
      [
       -121.7813464,
       38.2339987
      ],
      [
       -121.7818011,
       38.2334677
      ],
      [
       -121.783829,
       38.2334773
      ],
      [
       -121.7842755,
       38.2340127
      ],
      [
       -121.786978,
       38.2342032
      ],
      [
       -121.7869712,
       38.2350918
      ],
      [
       -121.7874178,
       38.2356271
      ],
      [
       -121.7874057,
       38.2372266
      ],
      [
       -121.7869523,
       38.2375799
      ],
      [
       -121.7869442,
       38.2386463
      ],
      [
       -121.7873921,
       38.2390038
      ],
      [
       -121.7873813,
       38.2404256
      ],
      [
       -121.7869293,
       38.2406012
      ],
      [
       -121.7871492,
       38.2413132
      ],
      [
       -121.7921067,
       38.2413365
      ],
      [
       -121.7925628,
       38.2406278
      ],
      [
       -121.7945908,
       38.2406373
      ],
      [
       -121.7950362,
       38.2413503
      ],
      [
       -121.7961629,
       38.2413555
      ],
      [
       -121.7966189,
       38.2406467
      ],
      [
       -121.7984216,
       38.2406551
      ],
      [
       -121.798867,
       38.2413681
      ],
      [
       -121.8042752,
       38.241393
      ],
      [
       -121.8049618,
       38.2399744
      ],
      [
       -121.8063138,
       38.2399805
      ],
      [
       -121.8067514,
       38.2417598
      ],
      [
       -121.8078781,
       38.241765
      ],
      [
       -121.8083366,
       38.2407007
      ],
      [
       -121.8103647,
       38.2407099
      ],
      [
       -121.8108076,
       38.2417783
      ],
      [
       -121.8148638,
       38.2417966
      ],
      [
       -121.8162172,
       38.241625
      ],
      [
       -121.8164451,
       38.2412705
      ],
      [
       -121.8202734,
       38.2416431
      ],
      [
       -121.8205026,
       38.241111
      ],
      [
       -121.8223053,
       38.241119
      ],
      [
       -121.8225268,
       38.2416531
      ],
      [
       -121.8256804,
       38.2418448
      ],
      [
       -121.8279339,
       38.2418547
      ],
      [
       -121.8286137,
       38.2413245
      ],
      [
       -121.8304164,
       38.2413324
      ],
      [
       -121.8310887,
       38.2418685
      ],
      [
       -121.8322155,
       38.2418734
      ],
      [
       -121.8326699,
       38.2413422
      ],
      [
       -121.8344726,
       38.2413501
      ],
      [
       -121.8349196,
       38.2418852
      ],
      [
       -121.8403279,
       38.2419085
      ],
      [
       -121.8407823,
       38.2413772
      ],
      [
       -121.8425851,
       38.2413849
      ],
      [
       -121.8430321,
       38.24192
      ],
      [
       -121.8443842,
       38.2419258
      ],
      [
       -121.8448385,
       38.2413945
      ],
      [
       -121.8466413,
       38.2414022
      ],
      [
       -121.8470884,
       38.2419372
      ],
      [
       -121.8524967,
       38.24196
      ],
      [
       -121.8527245,
       38.2416055
      ],
      [
       -121.8547526,
       38.2416139
      ],
      [
       -121.8549755,
       38.2419703
      ],
      [
       -121.8558758,
       38.2421518
      ],
      [
       -121.8567807,
       38.2416223
      ],
      [
       -121.8588088,
       38.2416307
      ],
      [
       -121.8590306,
       38.2421648
      ],
      [
       -121.864439,
       38.242187
      ],
      [
       -121.8648932,
       38.2416557
      ],
      [
       -121.866696,
       38.241663
      ],
      [
       -121.8671432,
       38.242198
      ],
      [
       -121.8687207,
       38.2422044
      ],
      [
       -121.8689495,
       38.2416721
      ],
      [
       -121.8709776,
       38.2416803
      ],
      [
       -121.8711995,
       38.2422144
      ],
      [
       -121.8768333,
       38.2422369
      ],
      [
       -121.8770609,
       38.2418823
      ],
      [
       -121.8806642,
       38.2422521
      ],
      [
       -121.8808918,
       38.2418975
      ],
      [
       -121.88292,
       38.2419055
      ],
      [
       -121.8831431,
       38.2422618
      ],
      [
       -121.8860715,
       38.242451
      ],
      [
       -121.8910315,
       38.2421147
      ],
      [
       -121.89148,
       38.2424719
      ],
      [
       -121.8926056,
       38.242654
      ],
      [
       -121.893285,
       38.2421234
      ],
      [
       -121.8950878,
       38.2421303
      ],
      [
       -121.8955352,
       38.2426652
      ],
      [
       -121.9007184,
       38.2426848
      ],
      [
       -121.9013976,
       38.2421542
      ],
      [
       -121.9032005,
       38.242161
      ],
      [
       -121.9034226,
       38.242695
      ],
      [
       -121.9050001,
       38.2427009
      ],
      [
       -121.905454,
       38.2421694
      ],
      [
       -121.9070314,
       38.2421753
      ],
      [
       -121.907479,
       38.2427101
      ],
      [
       -121.9131128,
       38.2427309
      ],
      [
       -121.9133402,
       38.2423763
      ],
      [
       -121.9171692,
       38.2427457
      ],
      [
       -121.9173966,
       38.242391
      ],
      [
       -121.9194248,
       38.2423984
      ],
      [
       -121.9196481,
       38.2427546
      ],
      [
       -121.9243795,
       38.2429494
      ],
      [
       -121.9255083,
       38.2425979
      ],
      [
       -121.9275365,
       38.2426051
      ],
      [
       -121.9279852,
       38.2429622
      ],
      [
       -121.929112,
       38.2429661
      ],
      [
       -121.9295647,
       38.2426123
      ],
      [
       -121.9315929,
       38.2426194
      ],
      [
       -121.9318162,
       38.2429756
      ],
      [
       -121.9369994,
       38.2429937
      ],
      [
       -121.9376775,
       38.2426406
      ],
      [
       -121.9394803,
       38.2426468
      ],
      [
       -121.9399291,
       38.2430038
      ],
      [
       -121.9410558,
       38.2430077
      ],
      [
       -121.9417339,
       38.2426545
      ],
      [
       -121.9435367,
       38.2426607
      ],
      [
       -121.9439855,
       38.2430177
      ],
      [
       -121.9471405,
       38.2430283
      ],
      [
       -121.950072,
       38.2426827
      ],
      [
       -121.9509782,
       38.2417971
      ],
      [
       -121.9516552,
       38.2416216
      ],
      [
       -121.95166,
       38.240733
      ],
      [
       -121.9521126,
       38.240379
      ],
      [
       -121.953014,
       38.240382
      ],
      [
       -121.9543737,
       38.2389647
      ],
      [
       -121.9550497,
       38.2389669
      ],
      [
       -121.9555023,
       38.2386129
      ],
      [
       -121.9557333,
       38.2375473
      ],
      [
       -121.9573107,
       38.2375525
      ],
      [
       -121.9586608,
       38.2379124
      ],
      [
       -121.9586533,
       38.2393342
      ],
      [
       -121.959997,
       38.2409382
      ],
      [
       -121.9599942,
       38.2414714
      ],
      [
       -121.9617896,
       38.2428991
      ],
      [
       -121.9671982,
       38.2429166
      ],
      [
       -121.9676471,
       38.2432735
      ],
      [
       -121.9689993,
       38.2432778
      ],
      [
       -121.9692264,
       38.242923
      ],
      [
       -121.9712547,
       38.2429295
      ],
      [
       -121.9723787,
       38.2434662
      ],
      [
       -121.9723462,
       38.2498645
      ],
      [
       -121.9678377,
       38.2500279
      ],
      [
       -121.9676005,
       38.2523377
      ],
      [
       -121.9680503,
       38.2525169
      ],
      [
       -121.9680439,
       38.253761
      ],
      [
       -121.9723255,
       38.2539523
      ],
      [
       -121.9723119,
       38.2566183
      ],
      [
       -121.9729872,
       38.2567981
      ],
      [
       -121.9729827,
       38.2576868
      ],
      [
       -121.973658,
       38.2578667
      ],
      [
       -121.9736508,
       38.2592885
      ],
      [
       -121.9731991,
       38.2594648
      ],
      [
       -121.9731765,
       38.2639081
      ],
      [
       -121.9736238,
       38.2646204
      ]
     ]
    ]
   }
  }
 ]
}
