{
 "type": "FeatureCollection",
 "properties": {
  "project": "tanforan",
  "source": "County of San Mateo parcels, the six APNs in the Tanforan Redevelopment Project EIR",
  "sourceLabel": "San Mateo County parcels",
  "sourceUrl": "https://data.smcgov.org/d/nr6j-72z7",
  "query": "https://data.smcgov.org/resource/nr6j-72z7.json?%24where=apn+in+%28%27014316080%27%2C+%27014316300%27%2C+%27014316310%27%2C+%27014316360%27%2C+%27014316330%27%2C+%27014311060%27%29&%24limit=5000",
  "accuracy": "official",
  "accuracyNote": "The six parcels the Draft EIR (p. 53) lists for the 44-acre project site: the Shops at Tanforan and the vacant lot north of Sneath Lane, whose APN the Draft EIR gives as 014-316-060 and the NOP and the County layer as 014-311-060. 43.9 acres as drawn.",
  "license": "Public Domain (County of San Mateo)",
  "features_used": 6
 },
 "features": [
  {
   "type": "Feature",
   "properties": {
    "kind": "site",
    "name": "Project site"
   },
   "geometry": {
    "type": "MultiPolygon",
    "coordinates": [
     [
      [
       [
        -122.4210161,
        37.63681
       ],
       [
        -122.4210014,
        37.6368355
       ],
       [
        -122.420559,
        37.6370538
       ],
       [
        -122.4203442,
        37.6372131
       ],
       [
        -122.4184138,
        37.6391531
       ],
       [
        -122.4183607,
        37.6391814
       ],
       [
        -122.4182969,
        37.6391795
       ],
       [
        -122.4181076,
        37.6391073
       ],
       [
        -122.4178047,
        37.6390212
       ],
       [
        -122.4173273,
        37.638209
       ],
       [
        -122.4172624,
        37.6382283
       ],
       [
        -122.4172079,
        37.6381345
       ],
       [
        -122.4171493,
        37.6381246
       ],
       [
        -122.4167168,
        37.6373963
       ],
       [
        -122.4163892,
        37.6375145
       ],
       [
        -122.4163178,
        37.6375074
       ],
       [
        -122.4162764,
        37.6374808
       ],
       [
        -122.4158171,
        37.6366988
       ],
       [
        -122.4158009,
        37.6366998
       ],
       [
        -122.4157294,
        37.6365928
       ],
       [
        -122.4148057,
        37.6349898
       ],
       [
        -122.4147246,
        37.6348805
       ],
       [
        -122.4156511,
        37.6347312
       ],
       [
        -122.4176482,
        37.6343011
       ],
       [
        -122.4187218,
        37.6346441
       ],
       [
        -122.4194711,
        37.6343971
       ],
       [
        -122.4196482,
        37.6344658
       ],
       [
        -122.4196966,
        37.6346447
       ],
       [
        -122.4199486,
        37.6350953
       ],
       [
        -122.4199624,
        37.6351513
       ],
       [
        -122.419938,
        37.6352193
       ],
       [
        -122.4198777,
        37.6352713
       ],
       [
        -122.4198036,
        37.6353035
       ],
       [
        -122.4199124,
        37.6354901
       ],
       [
        -122.4201254,
        37.635424
       ],
       [
        -122.4202203,
        37.6354718
       ],
       [
        -122.4210161,
        37.63681
       ]
      ]
     ],
     [
      [
       [
        -122.4189114,
        37.6401825
       ],
       [
        -122.4179704,
        37.6405388
       ],
       [
        -122.4176046,
        37.639904
       ],
       [
        -122.4177408,
        37.6399222
       ],
       [
        -122.4179129,
        37.6398982
       ],
       [
        -122.4181555,
        37.639823
       ],
       [
        -122.4183367,
        37.6397336
       ],
       [
        -122.418414,
        37.6397325
       ],
       [
        -122.4185237,
        37.6397912
       ],
       [
        -122.4186595,
        37.6398931
       ],
       [
        -122.4188211,
        37.640065
       ],
       [
        -122.4188345,
        37.6400467
       ],
       [
        -122.4189114,
        37.6401825
       ]
      ]
     ]
    ]
   }
  }
 ]
}
