{
 "type": "FeatureCollection",
 "properties": {
  "project": "tasman-east",
  "source": "City of Santa Clara zoning, the 37 TN parcels tagged with the Tasman East plan (SPPLAN \u201cTE\u201d)",
  "sourceLabel": "Santa Clara zoning",
  "sourceUrl": "https://map.santaclaraca.gov/maps/rest/services/OPENDATA/RegionalZoningOpenData/MapServer/0",
  "query": "https://map.santaclaraca.gov/maps/rest/services/OPENDATA/RegionalZoningOpenData/MapServer/0/query?where=ZONGDSGN+%3D+%27TN%27+and+SPPLAN+%3D+%27TE%27&outFields=%2A&outSR=4326&f=geojson",
  "accuracy": "approximate",
  "accuracyNote": "The parcels of the Tasman East Specific Plan area, which the City describes as about 45 acres between Tasman Drive, the Guadalupe River, the golf course and Lafayette Street. The plan's own streets are outside the parcels, so the shape is net of them. The layer's 10 other TN parcels are retired records that lie wholly inside these and add no area. 41.0 acres as drawn.",
  "license": "City of Santa Clara Open Data Portal terms of use (2018)",
  "features_used": 37
 },
 "features": [
  {
   "type": "Feature",
   "properties": {
    "kind": "site",
    "name": "Project site"
   },
   "geometry": {
    "type": "MultiPolygon",
    "coordinates": [
     [
      [
       [
        -121.9640539,
        37.4110582
       ],
       [
        -121.9633351,
        37.4112935
       ],
       [
        -121.9629475,
        37.4112608
       ],
       [
        -121.9629392,
        37.4112805
       ],
       [
        -121.9627196,
        37.411262
       ],
       [
        -121.9615743,
        37.4100666
       ],
       [
        -121.9613321,
        37.409859
       ],
       [
        -121.9609535,
        37.4095876
       ],
       [
        -121.9617157,
        37.4087161
       ],
       [
        -121.9618407,
        37.4085962
       ],
       [
        -121.9619622,
        37.4085139
       ],
       [
        -121.9622155,
        37.4083658
       ],
       [
        -121.9624809,
        37.4082404
       ],
       [
        -121.9629868,
        37.4080307
       ],
       [
        -121.9631439,
        37.4080107
       ],
       [
        -121.9633084,
        37.407954
       ],
       [
        -121.9633077,
        37.4079421
       ],
       [
        -121.9634769,
        37.4078433
       ],
       [
        -121.9638742,
        37.4076913
       ],
       [
        -121.9639765,
        37.4076967
       ],
       [
        -121.964054,
        37.4077244
       ],
       [
        -121.9645115,
        37.4084456
       ],
       [
        -121.9646029,
        37.4086212
       ],
       [
        -121.9645971,
        37.4087042
       ],
       [
        -121.9645746,
        37.4087401
       ],
       [
        -121.9645227,
        37.4087755
       ],
       [
        -121.9633715,
        37.4091537
       ],
       [
        -121.9633032,
        37.4092046
       ],
       [
        -121.9632532,
        37.4092731
       ],
       [
        -121.9632255,
        37.4093532
       ],
       [
        -121.9632227,
        37.4094374
       ],
       [
        -121.963245,
        37.4095198
       ],
       [
        -121.9640539,
        37.4110582
       ]
      ]
     ],
     [
      [
       [
        -121.9628383,
        37.4080892
       ],
       [
        -121.9628383,
        37.4080892
       ],
       [
        -121.9628383,
        37.4080892
       ],
       [
        -121.9628383,
        37.4080892
       ]
      ]
     ],
     [
      [
       [
        -121.967372,
        37.4080764
       ],
       [
        -121.9678939,
        37.4088438
       ],
       [
        -121.9678911,
        37.4089457
       ],
       [
        -121.9678323,
        37.4090042
       ],
       [
        -121.9669504,
        37.4093421
       ],
       [
        -121.9640529,
        37.410294
       ],
       [
        -121.9639903,
        37.4103057
       ],
       [
        -121.9639274,
        37.410296
       ],
       [
        -121.9638713,
        37.410266
       ],
       [
        -121.9638283,
        37.4102193
       ],
       [
        -121.9634291,
        37.4094372
       ],
       [
        -121.9634354,
        37.4093542
       ],
       [
        -121.9635094,
        37.4092835
       ],
       [
        -121.9664271,
        37.4083257
       ],
       [
        -121.967193,
        37.4080327
       ],
       [
        -121.9672879,
        37.4080322
       ],
       [
        -121.967372,
        37.4080764
       ]
      ]
     ],
     [
      [
       [
        -121.9669504,
        37.4093421
       ],
       [
        -121.9669504,
        37.4093421
       ],
       [
        -121.9669504,
        37.4093421
       ],
       [
        -121.9669504,
        37.4093421
       ]
      ]
     ],
     [
      [
       [
        -121.9672684,
        37.4092272
       ],
       [
        -121.9672684,
        37.4092272
       ],
       [
        -121.9672684,
        37.4092272
       ],
       [
        -121.9672684,
        37.4092272
       ]
      ]
     ],
     [
      [
       [
        -121.9675841,
        37.4091052
       ],
       [
        -121.9675841,
        37.4091052
       ],
       [
        -121.9675841,
        37.4091052
       ],
       [
        -121.9675841,
        37.4091052
       ]
      ]
     ],
     [
      [
       [
        -121.96843,
        37.4096325
       ],
       [
        -121.9641654,
        37.4110217
       ],
       [
        -121.9639543,
        37.4106087
       ],
       [
        -121.963963,
        37.4105239
       ],
       [
        -121.9639913,
        37.4104873
       ],
       [
        -121.9640563,
        37.4104499
       ],
       [
        -121.964711,
        37.4102567
       ],
       [
        -121.966743,
        37.4095912
       ],
       [
        -121.9673733,
        37.4093699
       ],
       [
        -121.9679443,
        37.4091449
       ],
       [
        -121.9680394,
        37.4091443
       ],
       [
        -121.9681237,
        37.4091886
       ],
       [
        -121.96843,
        37.4096325
       ]
      ]
     ],
     [
      [
       [
        -121.9671497,
        37.4077544
       ],
       [
        -121.9671423,
        37.4078243
       ],
       [
        -121.9670961,
        37.4078841
       ],
       [
        -121.9667446,
        37.4080317
       ],
       [
        -121.9658831,
        37.4083376
       ],
       [
        -121.9649994,
        37.4086261
       ],
       [
        -121.9649207,
        37.4086344
       ],
       [
        -121.9648472,
        37.4086104
       ],
       [
        -121.9648107,
        37.4085792
       ],
       [
        -121.9645901,
        37.4081894
       ],
       [
        -121.9642529,
        37.4076721
       ],
       [
        -121.9642391,
        37.4076274
       ],
       [
        -121.964276,
        37.4075582
       ],
       [
        -121.9644261,
        37.4074954
       ],
       [
        -121.9653664,
        37.4072268
       ],
       [
        -121.9654728,
        37.4071987
       ],
       [
        -121.9657126,
        37.4072029
       ],
       [
        -121.9666209,
        37.4069516
       ],
       [
        -121.9669604,
        37.407455
       ],
       [
        -121.9669779,
        37.4075273
       ],
       [
        -121.9671176,
        37.4077345
       ],
       [
        -121.9671497,
        37.4077544
       ]
      ]
     ],
     [
      [
       [
        -121.9653664,
        37.4072268
       ],
       [
        -121.9653664,
        37.4072268
       ],
       [
        -121.9653664,
        37.4072268
       ],
       [
        -121.9653664,
        37.4072268
       ]
      ]
     ]
    ]
   }
  }
 ]
}
