{
 "type": "FeatureCollection",
 "properties": {
  "project": "the-rise",
  "source": "Santa Clara County parcels 316-20-121 and 316-20-122",
  "sourceLabel": "Santa Clara County parcels",
  "sourceUrl": "https://data.sccgov.org/d/ubcd-cewv",
  "query": "https://data.sccgov.org/resource/ubcd-cewv.geojson?%24where=apn+in+%28%2731620121%27%2C+%2731620122%27%29&%24limit=5000",
  "accuracy": "official",
  "accuracyNote": "The two parcels of the former Vallco site named in the Phase 1 final map report (about 50 acres). 50.0 acres as drawn.",
  "license": "Santa Clara County open data (terms of use)",
  "features_used": 2
 },
 "features": [
  {
   "type": "Feature",
   "properties": {
    "kind": "site",
    "name": "Project site"
   },
   "geometry": {
    "type": "MultiPolygon",
    "coordinates": [
     [
      [
       [
        -122.0140676,
        37.3275948
       ],
       [
        -122.0139384,
        37.3276395
       ],
       [
        -122.0137469,
        37.3276425
       ],
       [
        -122.0136501,
        37.3276672
       ],
       [
        -122.0135628,
        37.3277166
       ],
       [
        -122.013464,
        37.3278277
       ],
       [
        -122.0134153,
        37.3279692
       ],
       [
        -122.0134291,
        37.3286993
       ],
       [
        -122.0133771,
        37.3287019
       ],
       [
        -122.0133773,
        37.3287603
       ],
       [
        -122.0120548,
        37.3287774
       ],
       [
        -122.0116859,
        37.3286078
       ],
       [
        -122.0116276,
        37.3257254
       ],
       [
        -122.0139697,
        37.3256952
       ],
       [
        -122.0140005,
        37.3257053
       ],
       [
        -122.0140289,
        37.3257495
       ],
       [
        -122.0140676,
        37.3275948
       ]
      ]
     ],
     [
      [
       [
        -122.014079,
        37.3285423
       ],
       [
        -122.0136894,
        37.3285531
       ],
       [
        -122.0136427,
        37.3285383
       ],
       [
        -122.0136027,
        37.3284876
       ],
       [
        -122.0135947,
        37.3279211
       ],
       [
        -122.0136444,
        37.3278261
       ],
       [
        -122.0136998,
        37.3277807
       ],
       [
        -122.0137667,
        37.3277551
       ],
       [
        -122.0140639,
        37.3277478
       ],
       [
        -122.014079,
        37.3285423
       ]
      ]
     ],
     [
      [
       [
        -122.0173923,
        37.3265881
       ],
       [
        -122.0163602,
        37.3265983
       ],
       [
        -122.0163563,
        37.3288128
       ],
       [
        -122.0153164,
        37.3288262
       ],
       [
        -122.0153096,
        37.328679
       ],
       [
        -122.0146423,
        37.3286251
       ],
       [
        -122.0146572,
        37.3285139
       ],
       [
        -122.0146837,
        37.328509
       ],
       [
        -122.0146804,
        37.3283522
       ],
       [
        -122.0146609,
        37.3283483
       ],
       [
        -122.014604,
        37.3255507
       ],
       [
        -122.014551,
        37.3255469
       ],
       [
        -122.0144518,
        37.3248184
       ],
       [
        -122.0144208,
        37.3233014
       ],
       [
        -122.0144543,
        37.3232122
       ],
       [
        -122.0145273,
        37.3231512
       ],
       [
        -122.0145892,
        37.3231343
       ],
       [
        -122.0173462,
        37.3231237
       ],
       [
        -122.0173923,
        37.3265881
       ]
      ]
     ]
    ]
   }
  }
 ]
}
