{
 "type": "FeatureCollection",
 "properties": {
  "project": "treasure-island",
  "source": "DataSF Zoning Map \u2013 Height and Bulk Districts, the \u201c-TI\u201d and \u201cYBI\u201d districts",
  "sourceLabel": "DataSF height districts",
  "sourceUrl": "https://data.sf.gov/d/h9wh-cg3m",
  "query": "https://data.sf.gov/resource/h9wh-cg3m.geojson?%24where=height+like+%27%25-TI%25%27+or+height+like+%27%25YBI%25%27&%24limit=5000",
  "accuracy": "official",
  "accuracyNote": "Treasure Island and Yerba Buena Island height districts. The Job Corps campus and federal land are outside them. 390.4 acres as drawn.",
  "license": "Public Domain U.S. Government (DataSF)",
  "features_used": 128
 },
 "features": [
  {
   "type": "Feature",
   "properties": {
    "kind": "site",
    "name": "Project site"
   },
   "geometry": {
    "type": "MultiPolygon",
    "coordinates": [
     [
      [
       [
        -122.3596521,
        37.8147549
       ],
       [
        -122.3594765,
        37.8149146
       ],
       [
        -122.3590562,
        37.8146238
       ],
       [
        -122.3592317,
        37.8144641
       ],
       [
        -122.3596521,
        37.8147549
       ]
      ]
     ],
     [
      [
       [
        -122.3791245,
        37.8267838
       ],
       [
        -122.3789581,
        37.8273227
       ],
       [
        -122.3788776,
        37.8274959
       ],
       [
        -122.3782417,
        37.8291876
       ],
       [
        -122.3780207,
        37.8296275
       ],
       [
        -122.3776932,
        37.8304359
       ],
       [
        -122.37756,
        37.830515
       ],
       [
        -122.3768364,
        37.8308554
       ],
       [
        -122.3751792,
        37.8315396
       ],
       [
        -122.3749038,
        37.8316668
       ],
       [
        -122.3743529,
        37.8320122
       ],
       [
        -122.3742086,
        37.8320605
       ],
       [
        -122.374083,
        37.8320628
       ],
       [
        -122.3737866,
        37.8321593
       ],
       [
        -122.3734342,
        37.8323096
       ],
       [
        -122.3733199,
        37.8323967
       ],
       [
        -122.3731761,
        37.8327959
       ],
       [
        -122.3730357,
        37.8329972
       ],
       [
        -122.3727999,
        37.8331926
       ],
       [
        -122.3725894,
        37.8332879
       ],
       [
        -122.3724545,
        37.8332976
       ],
       [
        -122.3724147,
        37.8332289
       ],
       [
        -122.3724426,
        37.8331674
       ],
       [
        -122.372577,
        37.8331349
       ],
       [
        -122.3727193,
        37.8330714
       ],
       [
        -122.3728435,
        37.8329926
       ],
       [
        -122.3729932,
        37.8328299
       ],
       [
        -122.3730931,
        37.8325909
       ],
       [
        -122.3731717,
        37.8323006
       ],
       [
        -122.373133,
        37.8322537
       ],
       [
        -122.3686219,
        37.8311479
       ],
       [
        -122.3677795,
        37.8300138
       ],
       [
        -122.3676834,
        37.8298475
       ],
       [
        -122.3628365,
        37.8225943
       ],
       [
        -122.3634363,
        37.8210357
       ],
       [
        -122.3635784,
        37.8208706
       ],
       [
        -122.3609567,
        37.8202431
       ],
       [
        -122.3606756,
        37.8198226
       ],
       [
        -122.3636398,
        37.8205391
       ],
       [
        -122.3636859,
        37.8203559
       ],
       [
        -122.3640234,
        37.819601
       ],
       [
        -122.3641734,
        37.8190168
       ],
       [
        -122.3642558,
        37.8188548
       ],
       [
        -122.3643509,
        37.818777
       ],
       [
        -122.3643967,
        37.8187667
       ],
       [
        -122.364357,
        37.8186773
       ],
       [
        -122.3644716,
        37.8186219
       ],
       [
        -122.3645213,
        37.8186262
       ],
       [
        -122.3648266,
        37.8184986
       ],
       [
        -122.3647553,
        37.8184032
       ],
       [
        -122.3649232,
        37.8183333
       ],
       [
        -122.365052,
        37.818509
       ],
       [
        -122.3650945,
        37.8184644
       ],
       [
        -122.3664855,
        37.817878
       ],
       [
        -122.3693182,
        37.8167367
       ],
       [
        -122.3717258,
        37.8157237
       ],
       [
        -122.3750548,
        37.820702
       ],
       [
        -122.3755869,
        37.821369
       ],
       [
        -122.3758621,
        37.821776
       ],
       [
        -122.3761362,
        37.8221443
       ],
       [
        -122.3762483,
        37.8222575
       ],
       [
        -122.3763646,
        37.8225332
       ],
       [
        -122.376635,
        37.8227582
       ],
       [
        -122.3767862,
        37.8229858
       ],
       [
        -122.3768271,
        37.8231664
       ],
       [
        -122.3770236,
        37.823537
       ],
       [
        -122.3788587,
        37.8262716
       ],
       [
        -122.3791245,
        37.8267838
       ]
      ],
      [
       [
        -122.3664306,
        37.8185989
       ],
       [
        -122.3662764,
        37.8186674
       ],
       [
        -122.3668307,
        37.8195081
       ],
       [
        -122.3673857,
        37.8192808
       ],
       [
        -122.3666855,
        37.818218
       ],
       [
        -122.3662893,
        37.8183833
       ],
       [
        -122.3664306,
        37.8185989
       ]
      ],
      [
       [
        -122.3684824,
        37.8186422
       ],
       [
        -122.367603,
        37.8190033
       ],
       [
        -122.3676963,
        37.8191519
       ],
       [
        -122.3685759,
        37.8187912
       ],
       [
        -122.3684824,
        37.8186422
       ]
      ],
      [
       [
        -122.3713992,
        37.824579
       ],
       [
        -122.3738614,
        37.82355
       ],
       [
        -122.3703783,
        37.8182861
       ],
       [
        -122.3692118,
        37.8187729
       ],
       [
        -122.3700209,
        37.8200037
       ],
       [
        -122.3688738,
        37.8204803
       ],
       [
        -122.3693953,
        37.8212602
       ],
       [
        -122.367848,
        37.8219024
       ],
       [
        -122.3683101,
        37.822605
       ],
       [
        -122.3700792,
        37.8218758
       ],
       [
        -122.370958,
        37.8232041
       ],
       [
        -122.370591,
        37.823361
       ],
       [
        -122.3713992,
        37.824579
       ]
      ],
      [
       [
        -122.3682756,
        37.8182401
       ],
       [
        -122.3684882,
        37.8181507
       ],
       [
        -122.3683866,
        37.8179982
       ],
       [
        -122.3681748,
        37.818085
       ],
       [
        -122.3682756,
        37.8182401
       ]
      ],
      [
       [
        -122.3684951,
        37.8185706
       ],
       [
        -122.3687084,
        37.8184822
       ],
       [
        -122.3685938,
        37.8183129
       ],
       [
        -122.3683839,
        37.8184024
       ],
       [
        -122.3684951,
        37.8185706
       ]
      ],
      [
       [
        -122.3706093,
        37.8171642
       ],
       [
        -122.3706486,
        37.8169364
       ],
       [
        -122.3707166,
        37.8168336
       ],
       [
        -122.3706391,
        37.8167812
       ],
       [
        -122.370588,
        37.8168381
       ],
       [
        -122.3705158,
        37.8170054
       ],
       [
        -122.3705058,
        37.8171393
       ],
       [
        -122.3705577,
        37.8173221
       ],
       [
        -122.3706452,
        37.8172877
       ],
       [
        -122.3706093,
        37.8171642
       ]
      ],
      [
       [
        -122.3711098,
        37.817708
       ],
       [
        -122.3712592,
        37.8177212
       ],
       [
        -122.3712666,
        37.8176464
       ],
       [
        -122.3711306,
        37.8176342
       ],
       [
        -122.3710156,
        37.817606
       ],
       [
        -122.3708063,
        37.8175005
       ],
       [
        -122.3707436,
        37.8174352
       ],
       [
        -122.3706656,
        37.8174661
       ],
       [
        -122.3707017,
        37.8175211
       ],
       [
        -122.3708269,
        37.8176105
       ],
       [
        -122.3709654,
        37.8176729
       ],
       [
        -122.3711098,
        37.817708
       ]
      ],
      [
       [
        -122.3717473,
        37.8167973
       ],
       [
        -122.3714942,
        37.8164163
       ],
       [
        -122.3712193,
        37.8165326
       ],
       [
        -122.3714713,
        37.8169134
       ],
       [
        -122.3717473,
        37.8167973
       ]
      ],
      [
       [
        -122.3715974,
        37.8170973
       ],
       [
        -122.3718266,
        37.8174518
       ],
       [
        -122.3721033,
        37.8173368
       ],
       [
        -122.3718717,
        37.8169842
       ],
       [
        -122.3715974,
        37.8170973
       ]
      ]
     ],
     [
      [
       [
        -122.3675061,
        37.8108439
       ],
       [
        -122.3674975,
        37.8109846
       ],
       [
        -122.3674709,
        37.8110209
       ],
       [
        -122.3674254,
        37.8110403
       ],
       [
        -122.3663991,
        37.8110381
       ],
       [
        -122.3661989,
        37.8110805
       ],
       [
        -122.366072,
        37.8111368
       ],
       [
        -122.3659531,
        37.811222
       ],
       [
        -122.365879,
        37.8113084
       ],
       [
        -122.3657311,
        37.8116071
       ],
       [
        -122.365664,
        37.8116856
       ],
       [
        -122.3652013,
        37.8118765
       ],
       [
        -122.3651804,
        37.8118662
       ],
       [
        -122.3652274,
        37.8119511
       ],
       [
        -122.3651254,
        37.8119802
       ],
       [
        -122.3649459,
        37.8119922
       ],
       [
        -122.3647894,
        37.8119789
       ],
       [
        -122.364592,
        37.8120117
       ],
       [
        -122.3645304,
        37.8120454
       ],
       [
        -122.3644567,
        37.8121776
       ],
       [
        -122.3643238,
        37.8123187
       ],
       [
        -122.3641102,
        37.8124071
       ],
       [
        -122.3640124,
        37.8124291
       ],
       [
        -122.3644012,
        37.8125472
       ],
       [
        -122.3643775,
        37.812641
       ],
       [
        -122.3645202,
        37.812759
       ],
       [
        -122.3646338,
        37.8128202
       ],
       [
        -122.3646983,
        37.8128866
       ],
       [
        -122.364693,
        37.8130991
       ],
       [
        -122.3646051,
        37.8132477
       ],
       [
        -122.3644715,
        37.8134297
       ],
       [
        -122.3643479,
        37.8135448
       ],
       [
        -122.3642616,
        37.8135954
       ],
       [
        -122.3640994,
        37.8136504
       ],
       [
        -122.3638753,
        37.8136589
       ],
       [
        -122.3635477,
        37.8135827
       ],
       [
        -122.3635154,
        37.8134052
       ],
       [
        -122.3635287,
        37.8132731
       ],
       [
        -122.3635017,
        37.8132293
       ],
       [
        -122.3634618,
        37.8131932
       ],
       [
        -122.3632974,
        37.8131052
       ],
       [
        -122.3630337,
        37.8128316
       ],
       [
        -122.3629546,
        37.8127128
       ],
       [
        -122.3629128,
        37.8127573
       ],
       [
        -122.3633256,
        37.8132401
       ],
       [
        -122.3623763,
        37.8132277
       ],
       [
        -122.3623072,
        37.8132977
       ],
       [
        -122.3622533,
        37.8132848
       ],
       [
        -122.3622341,
        37.8132561
       ],
       [
        -122.3627891,
        37.8126959
       ],
       [
        -122.3628667,
        37.8126767
       ],
       [
        -122.3629638,
        37.8125838
       ],
       [
        -122.3640358,
        37.811745
       ],
       [
        -122.3641863,
        37.8117746
       ],
       [
        -122.3642498,
        37.8117239
       ],
       [
        -122.3645004,
        37.8117814
       ],
       [
        -122.3647201,
        37.8111958
       ],
       [
        -122.3647813,
        37.8110994
       ],
       [
        -122.3650651,
        37.8108369
       ],
       [
        -122.3651922,
        37.8108794
       ],
       [
        -122.365842,
        37.8103194
       ],
       [
        -122.3659792,
        37.8104136
       ],
       [
        -122.3660817,
        37.810459
       ],
       [
        -122.3663277,
        37.8105142
       ],
       [
        -122.3673336,
        37.8105264
       ],
       [
        -122.3673818,
        37.8105488
       ],
       [
        -122.3674195,
        37.8105935
       ],
       [
        -122.3674578,
        37.8107744
       ],
       [
        -122.3675061,
        37.8108439
       ]
      ]
     ],
     [
      [
       [
        -122.3675777,
        37.8099448
       ],
       [
        -122.3674169,
        37.8100492
       ],
       [
        -122.3674251,
        37.8100747
       ],
       [
        -122.3673078,
        37.8101205
       ],
       [
        -122.3671693,
        37.8099608
       ],
       [
        -122.3670351,
        37.8098835
       ],
       [
        -122.3670094,
        37.8098268
       ],
       [
        -122.3668799,
        37.8099414
       ],
       [
        -122.3667909,
        37.8098676
       ],
       [
        -122.3665398,
        37.8097253
       ],
       [
        -122.3662719,
        37.8096319
       ],
       [
        -122.366253,
        37.8094192
       ],
       [
        -122.3662934,
        37.8093669
       ],
       [
        -122.3664175,
        37.80941
       ],
       [
        -122.366496,
        37.80938
       ],
       [
        -122.366509,
        37.8093379
       ],
       [
        -122.3665339,
        37.8093193
       ],
       [
        -122.3668753,
        37.8094046
       ],
       [
        -122.3669729,
        37.8094463
       ],
       [
        -122.3672048,
        37.8096124
       ],
       [
        -122.3672935,
        37.8097208
       ],
       [
        -122.3674559,
        37.80981
       ],
       [
        -122.3675777,
        37.8099448
       ]
      ]
     ],
     [
      [
       [
        -122.3711359,
        37.8104906
       ],
       [
        -122.371112,
        37.8111013
       ],
       [
        -122.3710456,
        37.8112757
       ],
       [
        -122.3709219,
        37.8114959
       ],
       [
        -122.3706868,
        37.8116933
       ],
       [
        -122.3701094,
        37.8120091
       ],
       [
        -122.3699784,
        37.8118758
       ],
       [
        -122.3697954,
        37.8118071
       ],
       [
        -122.3695756,
        37.8117439
       ],
       [
        -122.3690943,
        37.8116673
       ],
       [
        -122.3688746,
        37.8110899
       ],
       [
        -122.3690992,
        37.8111295
       ],
       [
        -122.3692278,
        37.8111181
       ],
       [
        -122.3693574,
        37.8110576
       ],
       [
        -122.3695565,
        37.8109081
       ],
       [
        -122.3698902,
        37.8106253
       ],
       [
        -122.3698979,
        37.8105354
       ],
       [
        -122.3698732,
        37.810439
       ],
       [
        -122.3698064,
        37.8103595
       ],
       [
        -122.3686389,
        37.8100755
       ],
       [
        -122.3683988,
        37.8100426
       ],
       [
        -122.3679022,
        37.8100644
       ],
       [
        -122.3678543,
        37.8098522
       ],
       [
        -122.3683989,
        37.8096693
       ],
       [
        -122.368736,
        37.8096233
       ],
       [
        -122.3690943,
        37.8096387
       ],
       [
        -122.3696458,
        37.8097286
       ],
       [
        -122.3701366,
        37.8099201
       ],
       [
        -122.3703754,
        37.8100367
       ],
       [
        -122.3707753,
        37.8102598
       ],
       [
        -122.3711359,
        37.8104906
       ]
      ]
     ]
    ]
   }
  }
 ]
}
