{
 "type": "FeatureCollection",
 "properties": {
  "project": "ucsf-parnassus",
  "source": "DataSF Parcels \u2013 Active and Retired, block 2634A lots 003, 005, 011 and 012",
  "sourceLabel": "DataSF parcels",
  "sourceUrl": "https://data.sf.gov/d/acdm-wktn",
  "query": "https://data.sf.gov/resource/acdm-wktn.geojson?%24where=blklot+in+%28%272634A003%27%2C+%272634A005%27%2C+%272634A011%27%2C+%272634A012%27%29&%24limit=5000",
  "accuracy": "approximate",
  "accuracyNote": "The four assessor parcels of block 2634A that hold the Parnassus Heights campus and the Mount Sutro Open Space Reserve, against the approximately 107 acres the Regents and the CPHP EIR give for the site. The official campus boundary (2014 LRDP Figure 6-11, as amended) couldn't be read, and campus blocks north of Parnassus Avenue may be missing. 108.1 acres as drawn.",
  "license": "ODC Public Domain Dedication and License (DataSF)",
  "features_used": 4
 },
 "features": [
  {
   "type": "Feature",
   "properties": {
    "kind": "site",
    "name": "Project site"
   },
   "geometry": {
    "type": "Polygon",
    "coordinates": [
     [
      [
       -122.4607705,
       37.7581926
      ],
      [
       -122.4607397,
       37.7582996
      ],
      [
       -122.4606483,
       37.7583388
      ],
      [
       -122.459262,
       37.7586334
      ],
      [
       -122.4592746,
       37.7588616
      ],
      [
       -122.4593367,
       37.7590664
      ],
      [
       -122.4594993,
       37.7591119
      ],
      [
       -122.4597522,
       37.759665
      ],
      [
       -122.4598116,
       37.759858
      ],
      [
       -122.4597373,
       37.7600047
      ],
      [
       -122.4595286,
       37.7600674
      ],
      [
       -122.4591864,
       37.7600785
      ],
      [
       -122.4590722,
       37.7601073
      ],
      [
       -122.4590096,
       37.7602028
      ],
      [
       -122.4590058,
       37.7603177
      ],
      [
       -122.4590951,
       37.7605064
      ],
      [
       -122.4605663,
       37.760442
      ],
      [
       -122.4607137,
       37.7625549
      ],
      [
       -122.4555211,
       37.764022
      ],
      [
       -122.4554616,
       37.7636849
      ],
      [
       -122.4554632,
       37.7621948
      ],
      [
       -122.4556521,
       37.7602588
      ],
      [
       -122.4551956,
       37.7606122
      ],
      [
       -122.455088,
       37.7606083
      ],
      [
       -122.4550812,
       37.760674
      ],
      [
       -122.4538009,
       37.7617265
      ],
      [
       -122.4535526,
       37.7615382
      ],
      [
       -122.4534873,
       37.7615851
      ],
      [
       -122.4524811,
       37.7614029
      ],
      [
       -122.4522652,
       37.7603371
      ],
      [
       -122.4520077,
       37.760366
      ],
      [
       -122.4520099,
       37.7587993
      ],
      [
       -122.4524317,
       37.7588035
      ],
      [
       -122.4524417,
       37.7583526
      ],
      [
       -122.4527235,
       37.7582603
      ],
      [
       -122.4530465,
       37.7581243
      ],
      [
       -122.4533009,
       37.757991
      ],
      [
       -122.4535895,
       37.7578087
      ],
      [
       -122.4537812,
       37.7576587
      ],
      [
       -122.4539783,
       37.7574649
      ],
      [
       -122.4541226,
       37.7572845
      ],
      [
       -122.454214,
       37.7571126
      ],
      [
       -122.4554796,
       37.7567733
      ],
      [
       -122.4557011,
       37.7567406
      ],
      [
       -122.4559012,
       37.756735
      ],
      [
       -122.4560756,
       37.7567482
      ],
      [
       -122.4570402,
       37.7569007
      ],
      [
       -122.4572018,
       37.7568868
      ],
      [
       -122.4573477,
       37.7568299
      ],
      [
       -122.4574256,
       37.7567729
      ],
      [
       -122.4574854,
       37.7567033
      ],
      [
       -122.4575239,
       37.7566249
      ],
      [
       -122.4575393,
       37.7565417
      ],
      [
       -122.4575079,
       37.7563956
      ],
      [
       -122.4573748,
       37.7562284
      ],
      [
       -122.4573249,
       37.7561099
      ],
      [
       -122.4573234,
       37.7559705
      ],
      [
       -122.4573803,
       37.7558224
      ],
      [
       -122.4574104,
       37.7558008
      ],
      [
       -122.4576791,
       37.7557377
      ],
      [
       -122.4578833,
       37.7556345
      ],
      [
       -122.4580469,
       37.7554929
      ],
      [
       -122.4582129,
       37.7552551
      ],
      [
       -122.4582797,
       37.7552212
      ],
      [
       -122.4584332,
       37.7551929
      ],
      [
       -122.4585814,
       37.7552188
      ],
      [
       -122.4592087,
       37.755571
      ],
      [
       -122.4592288,
       37.7557087
      ],
      [
       -122.459203,
       37.7559807
      ],
      [
       -122.4592274,
       37.7562316
      ],
      [
       -122.4593813,
       37.7565944
      ],
      [
       -122.4594858,
       37.7570252
      ],
      [
       -122.4597469,
       37.7572798
      ],
      [
       -122.4600774,
       37.7575569
      ],
      [
       -122.4603289,
       37.7578925
      ],
      [
       -122.4606642,
       37.7580811
      ],
      [
       -122.4607705,
       37.7581926
      ]
     ]
    ]
   }
  }
 ]
}
