{"type":"FeatureCollection","properties":{"project":"alameda-point","illustrative":true,"summary":"Illustrative massing: Site A's 12 unbuilt development blocks are drawn to the heights in the 2022 Development Plan (40 to 65 ft; Block 11 at its approved 78 ft), over whole blocks, not as building designs. The Radium theater on Blocks 12–13, approved in 2026, is drawn from its conceptual plan. The finished buildings on Blocks 6–9 use their real footprints and the heights in their approved designs. Parks, streets, parking and the Navy-era buildings aren't drawn.","note":"Unbuilt blocks are drawn to their height limits, not as building designs.","sourceUrl":"https://legistar1.granicus.com/alameda/attachments/73ff7e59-888e-443a-afc5-9a808b1d2091.pdf","sourceLabel":"Site A development plan, 2022 (PDF)","georeference":{"land_use_diagram":{"scale_m_per_unit":0.20348,"rotation_deg":-2.764,"rms_m":2.55,"controls":[{"label":"Ardent Way / Coronado Avenue","residual_m":2.69},{"label":"Ardent Way / West Atlantic Avenue","residual_m":1.06},{"label":"Orion Street / Coronado Avenue","residual_m":3.14},{"label":"Orion Street / West Atlantic Avenue","residual_m":1.94},{"label":"Corsair Street / Coronado Avenue","residual_m":3.87},{"label":"Corsair Street / West Atlantic Avenue","residual_m":3.05},{"label":"Skylark Street / Coronado Avenue","residual_m":4.14},{"label":"Skylark Street / West Atlantic Avenue","residual_m":2.15},{"label":"Hangar 40 (outline centroid)","residual_m":1.17},{"label":"Hangar 41 (outline centroid)","residual_m":1.46},{"label":"Building 77 (Naval Air Museum) (outline centroid)","residual_m":0.48}],"method":"raster figure; street centrelines midway between block fills at eight intersections and the outline centroids of Hangars 40 and 41 and Building 77, matched to OpenStreetMap via Overture"},"radium_site_plan":{"method":"vector site plan; scale from its 436-ft lot dimension, rotation and shift fitted to the Naval Air Museum outline's corners against the museum's OpenStreetMap footprint (w202009369)","scale_m_per_pt":0.36073,"rotation_deg":-3.334,"rms_m":0.88,"residuals_m":[0.88,0.88,0.88,0.88],"note":"The plan's museum outline is 17 m deep against 15.5 m in OpenStreetMap (its porch), which sets the RMS.","fly_tower":"p. 17 roof plan's fly tower, mapped from that plan's building outline onto the p. 10 rectangle"}},"license":"Shapes traced from public City of Alameda documents. Building footprints and georeference: OpenStreetMap contributors (ODbL 1.0), via Overture Maps."},"features":[{"type":"Feature","properties":{"kind":"block","block":"17b","label":"Block 17b","stage":"entitled","height_ft":50,"podium_ft":null,"base_ft":0,"use":"Affordable residential (103 homes)","phase":"Phase 2","illustrative":true,"source":"illustrative: drawn to the 50-ft height shown for the block in Alameda Point Site A Development Plan, Second Amendment (BAR Architects, July 25, 2022), Land Use Diagram, p. 11 (https://legistar1.granicus.com/alameda/attachments/73ff7e59-888e-443a-afc5-9a808b1d2091.pdf); block outline traced from the same diagram; phase from Illustrative Site Plan – Phasing table, p. 9","fid":1},"geometry":{"type":"MultiPolygon","coordinates":[[[[-122.2982061,37.7828408],[-122.2982257,37.7825622],[-122.2982325,37.7825573],[-122.2982345,37.7825298],[-122.2982284,37.7825225],[-122.2982349,37.7824965],[-122.2982342,37.7824413],[-122.2982419,37.7824306],[-122.2982562,37.7821285],[-122.2977346,37.7821072],[-122.2977297,37.7821107],[-122.2977134,37.7823433],[-122.2977088,37.782343],[-122.2976993,37.7824179],[-122.297702,37.7824401],[-122.2976973,37.7824399],[-122.2976954,37.7824674],[-122.2977023,37.7824677],[-122.2977083,37.7824808],[-122.2977069,37.7825009],[-122.297692,37.7825153],[-122.29769,37.7825443],[-122.2976991,37.7825462],[-122.29768,37.7828175],[-122.2982061,37.7828408]]]]}},{"type":"Feature","properties":{"kind":"block","block":"17a","label":"Block 17a","stage":"entitled","height_ft":50,"podium_ft":null,"base_ft":0,"use":"Residential (42–52 homes)","phase":"Phase 2","illustrative":true,"source":"illustrative: drawn to the 50-ft height shown for the block in Alameda Point Site A Development Plan, Second Amendment (BAR Architects, July 25, 2022), Land Use Diagram, p. 11 (https://legistar1.granicus.com/alameda/attachments/73ff7e59-888e-443a-afc5-9a808b1d2091.pdf); block outline traced from the same diagram; phase from Illustrative Site Plan – Phasing table, p. 9","fid":2},"geometry":{"type":"MultiPolygon","coordinates":[[[[-122.297688,37.7824083],[-122.2976998,37.7824048],[-122.2977015,37.782381],[-122.2977108,37.7823744],[-122.297697,37.7823738],[-122.2976867,37.7823608],[-122.2977049,37.7821023],[-122.2976703,37.7821007],[-122.2976475,37.7820905],[-122.2975757,37.782091],[-122.2975745,37.7820803],[-122.2975652,37.7820869],[-122.2967573,37.7820511],[-122.2967569,37.7820566],[-122.2967473,37.7820562],[-122.2967368,37.7820468],[-122.2967362,37.7820557],[-122.2967081,37.7820544],[-122.2967065,37.7820488],[-122.2960583,37.7820201],[-122.2960356,37.7822435],[-122.2960334,37.7823408],[-122.296023,37.7823893],[-122.2960223,37.7824318],[-122.2960302,37.7824524],[-122.2960296,37.7824597],[-122.2960201,37.7824632],[-122.2960096,37.7826131],[-122.2960188,37.7826135],[-122.2960097,37.7827435],[-122.2976547,37.7828164],[-122.2976734,37.7825506],[-122.2976874,37.7825478],[-122.2976867,37.7825254],[-122.2976936,37.7825205],[-122.2976874,37.7825151],[-122.2976868,37.7824909],[-122.2976776,37.7824904],[-122.2976782,37.7824813],[-122.2976926,37.7824746],[-122.2976957,37.7824634],[-122.2976973,37.7824402],[-122.2976817,37.7824319],[-122.297688,37.7824083]]]]}},{"type":"Feature","properties":{"kind":"block","block":"16","label":"Block 16","stage":"entitled","height_ft":40,"podium_ft":null,"base_ft":0,"use":"Residential (73–88 homes)","phase":"Phase 2","illustrative":true,"source":"illustrative: drawn to the 40-ft height shown for the block in Alameda Point Site A Development Plan, Second Amendment (BAR Architects, July 25, 2022), Land Use Diagram, p. 11 (https://legistar1.granicus.com/alameda/attachments/73ff7e59-888e-443a-afc5-9a808b1d2091.pdf); block outline traced from the same diagram; phase from Illustrative Site Plan – Phasing table, p. 9","fid":3},"geometry":{"type":"MultiPolygon","coordinates":[[[[-122.2958506,37.7820109],[-122.2958679,37.7817659],[-122.2958615,37.7817579],[-122.2955016,37.781742],[-122.2954993,37.7817474],[-122.2954735,37.7817462],[-122.2954666,37.7817404],[-122.2954254,37.7817386],[-122.295425,37.7817441],[-122.2953539,37.7817354],[-122.2953535,37.7817409],[-122.2953397,37.7817403],[-122.2953399,37.7817366],[-122.2952456,37.7817291],[-122.2948693,37.7817158],[-122.2948551,37.7819833],[-122.2948505,37.7819831],[-122.2948398,37.7821017],[-122.2948324,37.7823059],[-122.2948187,37.7823087],[-122.2948292,37.782318],[-122.2948228,37.7823437],[-122.2948292,37.7823511],[-122.2948171,37.7823968],[-122.2948252,37.7824081],[-122.2948065,37.7826736],[-122.2948019,37.7826734],[-122.2948054,37.7826901],[-122.2953037,37.7827122],[-122.2953138,37.7826998],[-122.2958076,37.7827217],[-122.2958575,37.7820112],[-122.2958506,37.7820109]]]]}},{"type":"Feature","properties":{"kind":"block","block":"15","label":"Block 15","stage":"entitled","height_ft":40,"podium_ft":null,"base_ft":0,"use":"Residential (128–153 homes)","phase":"Phase 2","illustrative":true,"source":"illustrative: drawn to the 40-ft height shown for the block in Alameda Point Site A Development Plan, Second Amendment (BAR Architects, July 25, 2022), Land Use Diagram, p. 11 (https://legistar1.granicus.com/alameda/attachments/73ff7e59-888e-443a-afc5-9a808b1d2091.pdf); block outline traced from the same diagram; phase from Illustrative Site Plan – Phasing table, p. 9","note":"Drawn in two pieces either side of the Skylark Street extension, as in the plan.","fid":4},"geometry":{"type":"MultiPolygon","coordinates":[[[[-122.2945594,37.7822715],[-122.2945634,37.7821486],[-122.2945681,37.7821488],[-122.2945642,37.7821376],[-122.2945991,37.7817075],[-122.2941445,37.7816837],[-122.2941361,37.7816763],[-122.2941354,37.7816869],[-122.2941238,37.7816864],[-122.2941242,37.7816809],[-122.2941147,37.7816787],[-122.2938455,37.7816686],[-122.2937666,37.7816706],[-122.2936536,37.7816601],[-122.2936532,37.7816655],[-122.2936278,37.7816644],[-122.2936282,37.7816589],[-122.2934371,37.7816505],[-122.293416,37.781655],[-122.2933416,37.7816481],[-122.2933117,37.7816504],[-122.293312,37.7816467],[-122.2932473,37.7816402],[-122.2932108,37.7816386],[-122.2932104,37.7816441],[-122.2931942,37.7816434],[-122.2931946,37.7816379],[-122.2931108,37.7816397],[-122.2930696,37.7816323],[-122.2929178,37.7816256],[-122.2929149,37.7816328],[-122.2927392,37.781625],[-122.2927354,37.7816193],[-122.2927238,37.7816188],[-122.2926971,37.7820309],[-122.2926735,37.7820375],[-122.292679,37.7820907],[-122.2926679,37.7820902],[-122.2926762,37.7820976],[-122.2926757,37.7821056],[-122.2926686,37.7821068],[-122.292667,37.7821303],[-122.2926782,37.7821348],[-122.2926738,37.7821658],[-122.2926641,37.7821712],[-122.2926625,37.7821944],[-122.2926713,37.7822006],[-122.2926441,37.782587],[-122.2929421,37.7826002],[-122.292958,37.7826046],[-122.2929595,37.7826101],[-122.2929984,37.7826119],[-122.2930103,37.7826069],[-122.2930295,37.7826077],[-122.2930384,37.7826136],[-122.2931076,37.7826112],[-122.2931122,37.7826169],[-122.2931576,37.7826189],[-122.2931906,37.7826149],[-122.2933544,37.7826221],[-122.2933547,37.7826185],[-122.2933662,37.782619],[-122.2933657,37.7826263],[-122.2945285,37.7826779],[-122.2945548,37.7822712],[-122.2945594,37.7822715]]],[[[-122.2925052,37.7821932],[-122.2925075,37.7821603],[-122.2924962,37.7821564],[-122.292495,37.782141],[-122.2924997,37.7821342],[-122.2925093,37.7821346],[-122.2925054,37.7820588],[-122.2925147,37.7820577],[-122.2925168,37.7820288],[-122.292508,37.7820225],[-122.2925405,37.7816199],[-122.2925322,37.7816125],[-122.2925181,37.7816152],[-122.2925188,37.7816061],[-122.2921823,37.7815911],[-122.2921492,37.7815952],[-122.2921496,37.7815897],[-122.2921269,37.7815887],[-122.2921057,37.7815896],[-122.2921034,37.781595],[-122.2920753,37.7815937],[-122.2920758,37.7815864],[-122.292032,37.7815845],[-122.2920317,37.7815881],[-122.2919558,37.7815811],[-122.2919554,37.7815866],[-122.2919254,37.7815798],[-122.2918451,37.7815762],[-122.2918447,37.7815817],[-122.2917824,37.7815789],[-122.2917828,37.7815734],[-122.2916605,37.781568],[-122.2916601,37.7815735],[-122.2915821,37.78157],[-122.2915672,37.7815789],[-122.2915648,37.7816133],[-122.2915717,37.7816137],[-122.2915768,37.7816393],[-122.2915746,37.7816707],[-122.2915677,37.7816704],[-122.2915665,37.7816866],[-122.2915777,37.7817257],[-122.2915683,37.7817601],[-122.2915689,37.7818835],[-122.2915797,37.7818947],[-122.2915816,37.7819334],[-122.2915674,37.7820029],[-122.2915838,37.7820327],[-122.2915843,37.782059],[-122.2915766,37.7820749],[-122.2915796,37.7820934],[-122.2915888,37.7820938],[-122.2915815,37.7821321],[-122.2915703,37.7821316],[-122.2915808,37.7821409],[-122.2915734,37.7821538],[-122.2915817,37.7821615],[-122.2915761,37.7821756],[-122.291578,37.7822804],[-122.2915827,37.7823118],[-122.2915916,37.7823162],[-122.2915821,37.7824183],[-122.2915824,37.7824808],[-122.2915886,37.7824902],[-122.2915843,37.7825198],[-122.2915912,37.7825201],[-122.2915989,37.7825421],[-122.2920561,37.7825627],[-122.2920626,37.7825685],[-122.2920991,37.7825701],[-122.2921042,37.782563],[-122.2921339,37.7825695],[-122.2921479,37.7825668],[-122.2921476,37.7825723],[-122.2921914,37.7825742],[-122.2921922,37.7825632],[-122.2922201,37.7825663],[-122.2922214,37.7825756],[-122.2922602,37.7825773],[-122.2922656,37.782572],[-122.2924613,37.7825807],[-122.2924719,37.782568],[-122.2924983,37.7821929],[-122.2925052,37.7821932]]]]}},{"type":"Feature","properties":{"kind":"block","block":"14","label":"Block 14","stage":"entitled","height_ft":50,"podium_ft":null,"base_ft":0,"use":"Residential (20–25 homes)","phase":"Phase 2","illustrative":true,"source":"illustrative: drawn to the 50-ft height shown for the block in Alameda Point Site A Development Plan, Second Amendment (BAR Architects, July 25, 2022), Land Use Diagram, p. 11 (https://legistar1.granicus.com/alameda/attachments/73ff7e59-888e-443a-afc5-9a808b1d2091.pdf); block outline traced from the same diagram; phase from Illustrative Site Plan – Phasing table, p. 9","fid":5},"geometry":{"type":"MultiPolygon","coordinates":[[[[-122.2978882,37.7816016],[-122.2978889,37.7815924],[-122.297845,37.7815905],[-122.2978394,37.7816049],[-122.2978232,37.7816042],[-122.2978237,37.7815969],[-122.29781,37.7815889],[-122.29776,37.7815867],[-122.2977679,37.7816018],[-122.2977563,37.7816013],[-122.297757,37.7815921],[-122.2977411,37.7815877],[-122.2976904,37.7815836],[-122.2976899,37.781591],[-122.2976764,37.7815922],[-122.297658,37.7815844],[-122.2976574,37.7815932],[-122.2972903,37.7815806],[-122.2972639,37.7818899],[-122.2972731,37.7818958],[-122.2973397,37.7818987],[-122.2973394,37.7819024],[-122.2977089,37.7819132],[-122.2977083,37.7819221],[-122.2977176,37.7819155],[-122.2977571,37.7819191],[-122.2977576,37.7819117],[-122.297783,37.7819129],[-122.2977825,37.7819202],[-122.2978309,37.7819223],[-122.2978315,37.781915],[-122.2978568,37.7819161],[-122.2978563,37.7819234],[-122.2982666,37.7819416],[-122.2982743,37.7819361],[-122.2982964,37.7816215],[-122.2978882,37.7816016]]]]}},{"type":"Feature","properties":{"kind":"block","block":"11","label":"Block 11","stage":"entitled","height_ft":78,"podium_ft":null,"base_ft":0,"use":"Mixed use (about 220 homes, 50,000 sq ft retail)","phase":"Phase 1","illustrative":true,"source":"illustrative: drawn to the 78 ft of the Block 11 design the Planning Board approved (\"Block 11 is 78 feet to the top of the parapet\", Planning Board staff report, design review for Blocks 11 and 8 (Mar 14, 2016), https://alameda.legistar.com/LegislationDetail.aspx?ID=4388&GUID=86CB9634-CF02-45CE-B727-207C9DAC8CA3; still \"approved in 2016\" in Planning Board staff report, Site A Development Plan amendment (July 25, 2022), https://alameda.legistar.com/LegislationDetail.aspx?ID=12022&GUID=20068886-A972-46BC-A300-2C70A91CBB55); block outline traced from Alameda Point Site A Development Plan, Second Amendment (BAR Architects, July 25, 2022), Land Use Diagram, p. 11 (https://legistar1.granicus.com/alameda/attachments/73ff7e59-888e-443a-afc5-9a808b1d2091.pdf)","note":"220 homes approved in 2016 (amended 2019 and 2022), not yet built. The plan's limit is 65 ft, which the Precise Plan lets the Planning Board exceed for exceptional design; the approved building is about 78 ft.","fid":6},"geometry":{"type":"MultiPolygon","coordinates":[[[[-122.2983784,37.7805818],[-122.2983675,37.7805777],[-122.2979681,37.7805637],[-122.2979571,37.7805561],[-122.2978897,37.7805602],[-122.2978833,37.7805529],[-122.2978487,37.7805513],[-122.2978412,37.780558],[-122.2978228,37.7805572],[-122.2978094,37.7805496],[-122.2977788,37.7805516],[-122.2977722,37.7805476],[-122.2975877,37.7805431],[-122.2975875,37.7805468],[-122.2973502,37.7805363],[-122.2973586,37.7805437],[-122.2973571,37.7805645],[-122.2973509,37.7806524],[-122.2973416,37.780659],[-122.2973528,37.7806595],[-122.297353,37.7806886],[-122.2973316,37.7808609],[-122.2973112,37.7811517],[-122.2973202,37.7811558],[-122.2972873,37.7815566],[-122.297395,37.7815669],[-122.2974024,37.7815654],[-122.2974031,37.7815562],[-122.2974954,37.7815603],[-122.2974949,37.7815676],[-122.2975091,37.7815683],[-122.2975174,37.7815757],[-122.2975181,37.7815668],[-122.2976611,37.7815732],[-122.2976608,37.7815768],[-122.2977603,37.7815775],[-122.2977599,37.781583],[-122.2977757,37.7815837],[-122.2978177,37.7815838],[-122.2978295,37.7815806],[-122.2978299,37.7815751],[-122.2978437,37.7815757],[-122.2978426,37.7815919],[-122.2978519,37.7815853],[-122.2978827,37.7815866],[-122.2978911,37.781594],[-122.2978917,37.7815852],[-122.2979009,37.7815856],[-122.2979014,37.7815783],[-122.2982894,37.7815955],[-122.2982977,37.7816029],[-122.2983691,37.7805885],[-122.2983784,37.7805818]]]]}},{"type":"Feature","properties":{"kind":"block","block":"10a","label":"Block 10a","stage":"entitled","height_ft":50,"podium_ft":null,"base_ft":0,"use":"Residential (70–88 homes)","phase":"Phase 1B","illustrative":true,"source":"illustrative: drawn to the 50-ft height shown for the block in Alameda Point Site A Development Plan, Second Amendment (BAR Architects, July 25, 2022), Land Use Diagram, p. 11 (https://legistar1.granicus.com/alameda/attachments/73ff7e59-888e-443a-afc5-9a808b1d2091.pdf); block outline traced from the same diagram; phase from Illustrative Site Plan – Phasing table, p. 9","note":"The 2016 design review gave Block 10 a 60-ft limit; the 2022 Development Plan split it into 10a at 50 ft and 10b at 65 ft.","fid":7},"geometry":{"type":"MultiPolygon","coordinates":[[[[-122.297287,37.7813637],[-122.2972916,37.7813639],[-122.2973128,37.7810636],[-122.2973012,37.7810631],[-122.2973017,37.7810558],[-122.2967715,37.7810268],[-122.2967709,37.7810359],[-122.2967455,37.7810348],[-122.296741,37.7810273],[-122.2966681,37.7810222],[-122.296626,37.7810222],[-122.2966229,37.7810331],[-122.2965953,37.7810318],[-122.2965962,37.781019],[-122.2961463,37.7809991],[-122.2961387,37.7810082],[-122.2961322,37.781101],[-122.2961321,37.7811344],[-122.2961367,37.7811346],[-122.2960851,37.7818355],[-122.2960888,37.7818488],[-122.2972513,37.7818985],[-122.297243,37.7818911],[-122.297274,37.7814495],[-122.297281,37.7814498],[-122.297287,37.7813637]]]]}},{"type":"Feature","properties":{"kind":"block","block":"10b","label":"Block 10b","stage":"entitled","height_ft":65,"podium_ft":null,"base_ft":0,"use":"Mixed use (91 affordable homes, 10,500 sq ft retail)","phase":"Phase 1B","illustrative":true,"source":"illustrative: drawn to the 65-ft height shown for the block in Alameda Point Site A Development Plan, Second Amendment (BAR Architects, July 25, 2022), Land Use Diagram, p. 11 (https://legistar1.granicus.com/alameda/attachments/73ff7e59-888e-443a-afc5-9a808b1d2091.pdf); block outline traced from the same diagram; phase from Illustrative Site Plan – Phasing table, p. 9","note":"The 2016 design review gave Block 10 a 60-ft limit; the 2022 Development Plan split it into 10a at 50 ft and 10b at 65 ft. Eden Housing is the affordable developer (2025 annual report).","fid":8},"geometry":{"type":"MultiPolygon","coordinates":[[[[-122.2973405,37.7805708],[-122.2973474,37.7805711],[-122.2973497,37.7805384],[-122.297347,37.7804774],[-122.2973378,37.780477],[-122.2973386,37.7804663],[-122.2973292,37.7804729],[-122.296872,37.7804527],[-122.2968726,37.7804453],[-122.296859,37.7804411],[-122.2967869,37.7804452],[-122.2967875,37.7804379],[-122.2967463,37.7804361],[-122.2967408,37.7804432],[-122.2967202,37.7804459],[-122.2966416,37.7804388],[-122.2966299,37.7804456],[-122.296182,37.7804257],[-122.2961586,37.7807259],[-122.2961655,37.7807263],[-122.296153,37.7808381],[-122.2961557,37.7808654],[-122.2961422,37.7808648],[-122.2961506,37.7808722],[-122.2961429,37.7809809],[-122.2961336,37.7809875],[-122.2961471,37.7809881],[-122.2961465,37.7809954],[-122.2966177,37.7810145],[-122.296629,37.7810186],[-122.2966701,37.7810205],[-122.2966705,37.781015],[-122.2967439,37.7810237],[-122.2967443,37.7810182],[-122.2967556,37.7810169],[-122.2967743,37.7810196],[-122.2967789,37.7810253],[-122.2968178,37.781027],[-122.2968184,37.7810178],[-122.2972957,37.7810427],[-122.2973029,37.7810393],[-122.2973074,37.781008],[-122.2973096,37.780878],[-122.2973165,37.7808783],[-122.297322,37.7808341],[-122.2973337,37.7806014],[-122.2973405,37.7805708]]]]}},{"type":"Feature","properties":{"kind":"block","block":"04","label":"Block 4","stage":"entitled","height_ft":65,"podium_ft":null,"base_ft":0,"use":"Mixed use (6,000 sq ft retail and hotel)","phase":"Phase 3","illustrative":true,"source":"illustrative: drawn to the 65-ft height shown for the block in Alameda Point Site A Development Plan, Second Amendment (BAR Architects, July 25, 2022), Land Use Diagram, p. 11 (https://legistar1.granicus.com/alameda/attachments/73ff7e59-888e-443a-afc5-9a808b1d2091.pdf); block outline traced from the same diagram; phase from Illustrative Site Plan – Phasing table, p. 9","fid":9},"geometry":{"type":"MultiPolygon","coordinates":[[[[-122.2972521,37.7798523],[-122.2972633,37.7798528],[-122.2972507,37.7798397],[-122.2972519,37.7798226],[-122.2972592,37.7798177],[-122.2972563,37.7797604],[-122.2972636,37.7797552],[-122.2972595,37.779748],[-122.2972658,37.7797244],[-122.2972576,37.7797096],[-122.2972657,37.7796546],[-122.2972679,37.7795628],[-122.2972633,37.7795626],[-122.2972733,37.7793867],[-122.2972246,37.7793827],[-122.2972049,37.779373],[-122.2972041,37.7793837],[-122.2971207,37.77938],[-122.2970934,37.7793732],[-122.2970776,37.7793725],[-122.2970772,37.779378],[-122.2968507,37.779368],[-122.2968284,37.7793618],[-122.2967681,37.7793643],[-122.2967612,37.7793585],[-122.296699,37.7793594],[-122.2966996,37.7793506],[-122.2966879,37.7793589],[-122.2966554,37.7793593],[-122.2966408,37.7793587],[-122.2966303,37.7793494],[-122.2966297,37.7793582],[-122.2965785,37.7793559],[-122.296577,37.7793504],[-122.2965585,37.7793495],[-122.2965581,37.779355],[-122.2963692,37.779343],[-122.296369,37.7793466],[-122.2962604,37.7793437],[-122.2962299,37.779811],[-122.2962181,37.7798194],[-122.2962292,37.7798199],[-122.2961998,37.7801727],[-122.2962066,37.7801807],[-122.2968405,37.7802106],[-122.2968412,37.7801996],[-122.297231,37.7802132],[-122.2972227,37.7802058],[-122.2972521,37.7798523]]]]}},{"type":"Feature","properties":{"kind":"block","block":"03","label":"Block 3","stage":"entitled","height_ft":65,"podium_ft":null,"base_ft":0,"use":"Commercial (about 70,000 sq ft)","phase":"Phase 3","illustrative":true,"source":"illustrative: drawn to the 65-ft height shown for the block in Alameda Point Site A Development Plan, Second Amendment (BAR Architects, July 25, 2022), Land Use Diagram, p. 11 (https://legistar1.granicus.com/alameda/attachments/73ff7e59-888e-443a-afc5-9a808b1d2091.pdf); block outline traced from the same diagram; phase from Illustrative Site Plan – Phasing table, p. 9","fid":10},"geometry":{"type":"MultiPolygon","coordinates":[[[[-122.2959907,37.7793281],[-122.295991,37.7793244],[-122.2959776,37.7793238],[-122.2959722,37.7793291],[-122.2959325,37.7793273],[-122.295926,37.7793215],[-122.295901,37.7793259],[-122.2958728,37.779321],[-122.2958057,37.7793217],[-122.2957857,37.7793156],[-122.2957695,37.7793201],[-122.2950615,37.779285],[-122.2950422,37.7792918],[-122.2950045,37.7797619],[-122.2950091,37.7797621],[-122.2949873,37.7801046],[-122.2950816,37.780118],[-122.2952821,37.7801306],[-122.2952905,37.7801361],[-122.2952974,37.7801312],[-122.2953213,37.7801323],[-122.2953367,37.7801382],[-122.2954272,37.7801407],[-122.2954706,37.7801481],[-122.2958718,37.780164],[-122.2958825,37.78017],[-122.2959842,37.7801727],[-122.2959895,37.7801689],[-122.2960481,37.7793346],[-122.2960274,37.7793278],[-122.2959907,37.7793281]]]]}},{"type":"Feature","properties":{"kind":"block","block":"01a","label":"Block 1a","stage":"entitled","height_ft":40,"podium_ft":null,"base_ft":0,"use":"Residential (17–21 homes)","phase":"Phase 1B","illustrative":true,"source":"illustrative: drawn to the 40-ft height shown for the block in Alameda Point Site A Development Plan, Second Amendment (BAR Architects, July 25, 2022), Land Use Diagram, p. 11 (https://legistar1.granicus.com/alameda/attachments/73ff7e59-888e-443a-afc5-9a808b1d2091.pdf); block outline traced from the same diagram; phase from Illustrative Site Plan – Phasing table, p. 9","fid":11},"geometry":{"type":"MultiPolygon","coordinates":[[[[-122.2929249,37.7797487],[-122.2926068,37.7797309],[-122.2925697,37.7797366],[-122.2924355,37.7797307],[-122.2924291,37.779723],[-122.2924057,37.779722],[-122.2923973,37.7797146],[-122.2923947,37.7797252],[-122.2923666,37.7797239],[-122.2923663,37.7797276],[-122.2923548,37.7797271],[-122.2923503,37.7797195],[-122.2922911,37.7797117],[-122.2922541,37.7797171],[-122.2922007,37.7797129],[-122.292191,37.7797198],[-122.2921702,37.7797189],[-122.2921706,37.7797134],[-122.2915229,37.7796828],[-122.2915156,37.7797153],[-122.291518,37.7797797],[-122.2915246,37.779784],[-122.2915192,37.7798278],[-122.2915261,37.7798281],[-122.2915202,37.779879],[-122.291522,37.7798867],[-122.2919998,37.7799042],[-122.2919994,37.7799097],[-122.2920596,37.779916],[-122.2920824,37.7799152],[-122.2920829,37.7799079],[-122.2921086,37.779909],[-122.2921545,37.7799147],[-122.2921629,37.7799222],[-122.2921635,37.7799133],[-122.2921867,37.7799125],[-122.2921859,37.7799235],[-122.2922159,37.7799248],[-122.2922155,37.7799303],[-122.2923793,37.7799431],[-122.2924442,37.7799423],[-122.292448,37.779948],[-122.2924829,37.7799514],[-122.2925425,37.7799485],[-122.2930782,37.7799704],[-122.293091,37.7797561],[-122.2929894,37.7797479],[-122.2929252,37.779745],[-122.2929249,37.7797487]]]]}},{"type":"Feature","properties":{"kind":"block","block":"01b","label":"Block 1b","stage":"entitled","height_ft":40,"podium_ft":null,"base_ft":0,"use":"Commercial (about 38,000 sq ft)","phase":"Phase 3","illustrative":true,"source":"illustrative: drawn to the 40-ft height shown for the block in Alameda Point Site A Development Plan, Second Amendment (BAR Architects, July 25, 2022), Land Use Diagram, p. 11 (https://legistar1.granicus.com/alameda/attachments/73ff7e59-888e-443a-afc5-9a808b1d2091.pdf); block outline traced from the same diagram; phase from Illustrative Site Plan – Phasing table, p. 9","fid":12},"geometry":{"type":"MultiPolygon","coordinates":[[[[-122.2947633,37.7792755],[-122.2947637,37.77927],[-122.2946984,37.7792708],[-122.294683,37.7792649],[-122.2946761,37.7792698],[-122.2946479,37.7792704],[-122.2946486,37.7792615],[-122.2946392,37.7792682],[-122.2945997,37.7792646],[-122.2945995,37.7792682],[-122.2945694,37.7792632],[-122.2943134,37.7792555],[-122.2943088,37.7792498],[-122.2938585,37.7792354],[-122.2938433,37.7792277],[-122.293834,37.7792343],[-122.293792,37.7792269],[-122.2936859,37.7792277],[-122.2936862,37.7792241],[-122.2936425,37.7792203],[-122.2936356,37.7792255],[-122.2936094,37.7792243],[-122.2935966,37.7792149],[-122.2935959,37.7792237],[-122.2934557,37.7792105],[-122.2933468,37.7792127],[-122.293313,37.7792057],[-122.2933232,37.7792187],[-122.293299,37.7795632],[-122.2932897,37.7795628],[-122.2932888,37.7795756],[-122.2915221,37.7794973],[-122.2915119,37.7795045],[-122.2915097,37.779535],[-122.2915091,37.7795775],[-122.2915183,37.7795779],[-122.2915169,37.7795984],[-122.2915075,37.779605],[-122.2915187,37.7796055],[-122.2915122,37.779664],[-122.2915183,37.7796771],[-122.2922565,37.7797099],[-122.2922573,37.7796989],[-122.292317,37.7797052],[-122.2923167,37.7797089],[-122.2923678,37.7797075],[-122.2923672,37.7797148],[-122.2924229,37.7797136],[-122.2924225,37.7797191],[-122.2927802,37.7797331],[-122.2927807,37.7797258],[-122.2930764,37.7797389],[-122.2930942,37.7797433],[-122.2931088,37.779766],[-122.2930896,37.7799727],[-122.2930989,37.7799732],[-122.2931032,37.7799825],[-122.2931513,37.7799847],[-122.2931537,37.7799774],[-122.2932537,37.7799819],[-122.2932645,37.7799875],[-122.2932881,37.7799812],[-122.2932959,37.7798695],[-122.2933154,37.779823],[-122.2933265,37.7798234],[-122.2933373,37.7798074],[-122.2933633,37.7797994],[-122.2933637,37.7797939],[-122.2934055,37.7797921],[-122.2934133,37.7797795],[-122.2934272,37.7797802],[-122.2934403,37.7797914],[-122.293441,37.7797808],[-122.2934711,37.7797803],[-122.2934993,37.7797687],[-122.2935228,37.7797697],[-122.2935323,37.7797664],[-122.2935328,37.7797591],[-122.2935553,37.779762],[-122.2936003,37.7797474],[-122.2936497,37.7797423],[-122.2936501,37.7797368],[-122.2937149,37.7797305],[-122.2937253,37.7797199],[-122.2937369,37.7797204],[-122.2937362,37.7797293],[-122.2937572,37.7797213],[-122.2937629,37.7797124],[-122.293828,37.7797079],[-122.293838,37.7796973],[-122.2938655,37.7796949],[-122.2938852,37.7796847],[-122.2939056,37.7796908],[-122.293913,37.7796841],[-122.2939403,37.7796853],[-122.2939503,37.7796803],[-122.2939508,37.779673],[-122.2939673,37.7796737],[-122.2939757,37.7796811],[-122.2939763,37.7796722],[-122.2940064,37.7796717],[-122.2940141,37.7796611],[-122.2940458,37.7796661],[-122.2941186,37.7796565],[-122.2941209,37.7796511],[-122.2941746,37.7796498],[-122.294175,37.7796443],[-122.2942007,37.77964],[-122.2942278,37.7796448],[-122.2942443,37.77964],[-122.2943113,37.7796412],[-122.2943745,37.7796311],[-122.2944064,37.779638],[-122.2945776,37.7796401],[-122.2945853,37.779635],[-122.2946106,37.7796361],[-122.2946104,37.7796397],[-122.2946473,37.7796414],[-122.2946467,37.7796502],[-122.294659,37.7796401],[-122.2946843,37.7796412],[-122.2946888,37.7796487],[-122.2947047,37.7796531],[-122.2947439,37.7796493],[-122.2947703,37.7793073],[-122.2947702,37.7792758],[-122.2947633,37.7792755]]]]}},{"type":"Feature","properties":{"kind":"building","block":"12–13","label":"Radium Performing Arts Center","stage":"entitled","height_ft":43,"podium_ft":null,"base_ft":0,"use":"Performing arts center (about 600 + 210 seats, 53,000 sq ft)","phase":"Phase 2","illustrative":true,"source":"illustrative: footprint traced from the \"Performing Arts Center\" on Radium Theatre Revised Development Plan (Bora Architecture & Interiors, Nov 7, 2025), p. 10 (https://legistar1.granicus.com/alameda/attachments/cc7a429d-3973-4f6f-83a1-6cef51878c67.pdf), approved by the Planning Board on Mar 23, 2026 (City Council staff report, Radium project agreements (Apr 21, 2026), https://alameda.legistar.com/LegislationDetail.aspx?ID=15669&GUID=3F0A0DF1-528E-4FB6-A635-3D46C9DA144E); height: the 43-ft roof of the conceptual elevations, p. 35","note":"Conceptual design: roofs step from about 32–35 ft at the edges to 43–44.5 ft over the house. Design review is still to come. The 2022 plan showed a 35-ft theater here.","fid":13},"geometry":{"type":"Polygon","coordinates":[[[-122.2993293,37.7806148],[-122.2999796,37.7806487],[-122.2999356,37.7811804],[-122.2992852,37.7811465],[-122.2993293,37.7806148]],[[-122.2998667,37.7810596],[-122.2998866,37.7808193],[-122.2997537,37.7808123],[-122.2997337,37.7810526],[-122.2998667,37.7810596]]]}},{"type":"Feature","properties":{"kind":"building","block":"12–13","label":"Radium fly tower","stage":"entitled","height_ft":72,"podium_ft":null,"base_ft":0,"use":"Performing arts center (stage house)","phase":"Phase 2","illustrative":true,"source":"illustrative: footprint traced from the \"Performing Arts Center\" on Radium Theatre Revised Development Plan (Bora Architecture & Interiors, Nov 7, 2025), p. 10 (https://legistar1.granicus.com/alameda/attachments/cc7a429d-3973-4f6f-83a1-6cef51878c67.pdf), approved by the Planning Board on Mar 23, 2026 (City Council staff report, Radium project agreements (Apr 21, 2026), https://alameda.legistar.com/LegislationDetail.aspx?ID=15669&GUID=3F0A0DF1-528E-4FB6-A635-3D46C9DA144E); fly tower located from the roof plan, p. 17 (spot height 70'-6\"); height: 72 ft on the conceptual elevations, p. 35","note":"The stage's fly tower, the tallest part of the theater.","fid":14},"geometry":{"type":"Polygon","coordinates":[[[-122.2997337,37.7810526],[-122.2997537,37.7808123],[-122.2998866,37.7808193],[-122.2998667,37.7810596],[-122.2997337,37.7810526]]]}},{"type":"Feature","properties":{"kind":"building","block":"06","label":"Leeward at Alameda Point","stage":"complete","height_ft":40,"podium_ft":null,"base_ft":0,"use":"Residential","phase":"Phase 1","illustrative":false,"source":"footprints: OpenStreetMap w813217096, w813217097, w947894648, w947894649, w813217100, w813217099, w813217098 via Overture 2026-09-23.1; height: \"+/- 40'-0\"\" to top of parapet (+/- 41'-0\" on some elevations; zoning max shown as 50 ft) on the approved elevations, Alameda Point Block 6 design review plans (KTGY, June 15, 2016), elevations on PDF pp. 34–40 (https://legistar1.granicus.com/alameda/attachments/dfc15a4c-b254-4699-b53d-2b4f7118c903.pdf); complete per Alameda Point Partners' 2025 annual report to the City, Jan 23, 2026 (https://legistar1.granicus.com/alameda/attachments/4ed2a440-9155-4809-8443-5c523301c557.pdf)","stories":3,"homes":64,"note":"64 townhomes in eleven buildings, three stories with a two-story corner at Main Street.","fid":15},"geometry":{"type":"MultiPolygon","coordinates":[[[[-122.2917383,37.7802493],[-122.2917346,37.780294],[-122.2915728,37.7802857],[-122.2915795,37.7802044],[-122.2916525,37.7802081],[-122.2916557,37.7801686],[-122.2920719,37.7801898],[-122.2920619,37.7803121],[-122.2919738,37.7803077],[-122.2919776,37.7802615],[-122.2917383,37.7802493]]],[[[-122.2925464,37.7802879],[-122.2923027,37.7802755],[-122.2922964,37.7803531],[-122.2923709,37.7803568],[-122.2923437,37.7806919],[-122.2921213,37.7806806],[-122.2921259,37.7806235],[-122.2921505,37.7806248],[-122.2921558,37.7805596],[-122.2921856,37.7805611],[-122.2922144,37.7802085],[-122.2926349,37.7802299],[-122.2925962,37.7807031],[-122.2924382,37.780695],[-122.2924652,37.7803647],[-122.2925399,37.7803685],[-122.2925464,37.7802879]]],[[[-122.291602,37.7805331],[-122.2916298,37.7805346],[-122.2916491,37.7803166],[-122.2918033,37.7803251],[-122.2917732,37.7806643],[-122.2915556,37.7806522],[-122.2915612,37.7805883],[-122.291597,37.7805903],[-122.291602,37.7805331]]],[[[-122.2920364,37.7806761],[-122.291868,37.7806673],[-122.2918961,37.7803323],[-122.2920645,37.7803411],[-122.2920364,37.7806761]]],[[[-122.29173,37.7812508],[-122.2915632,37.7812425],[-122.2915995,37.7807829],[-122.2917663,37.7807912],[-122.29173,37.7812508]]],[[[-122.2920003,37.7811424],[-122.2920217,37.7811434],[-122.2920174,37.7812014],[-122.2920564,37.7812032],[-122.2920519,37.7812646],[-122.2918302,37.7812543],[-122.2918637,37.7808036],[-122.292025,37.7808111],[-122.2920003,37.7811424]]],[[[-122.2921298,37.7809128],[-122.2921351,37.7808477],[-122.2921106,37.7808464],[-122.2921153,37.7807893],[-122.2923376,37.7808007],[-122.2923102,37.7811357],[-122.2922356,37.7811319],[-122.2922293,37.7812095],[-122.292473,37.781222],[-122.2924796,37.7811413],[-122.292405,37.7811375],[-122.2924319,37.7808072],[-122.2925899,37.7808153],[-122.2925315,37.7812925],[-122.2921363,37.7812743],[-122.2921596,37.7809144],[-122.2921298,37.7809128]]]]}},{"type":"Feature","properties":{"kind":"building","block":"07","label":"Crest at Alameda Point","stage":"complete","height_ft":32,"podium_ft":null,"base_ft":0,"use":"Residential","phase":"Phase 1","illustrative":false,"source":"footprints: OpenStreetMap w1076136526, w1076136525, w947894647, w947894652 via Overture 2026-09-23.1; height: roof at 31'-6\" on the approved elevations, Alameda Point Block 7 design review plans (KwanHenmi, June 15, 2016), sheets 15–16 (https://legistar1.granicus.com/alameda/attachments/0a9551c2-cd42-4dcf-82bd-4e84b38110c0.pdf); complete per Alameda Point Partners' 2025 annual report to the City, Jan 23, 2026 (https://legistar1.granicus.com/alameda/attachments/4ed2a440-9155-4809-8443-5c523301c557.pdf)","stories":3,"homes":60,"note":"60 three-story townhomes. Sawtooth roof forms rise a little above the 31.5-ft roof line.","fid":16},"geometry":{"type":"MultiPolygon","coordinates":[[[[-122.2929621,37.7803392],[-122.2929353,37.7806167],[-122.2928042,37.7806098],[-122.29284,37.7802356],[-122.2932076,37.780249],[-122.2931868,37.7806296],[-122.2930496,37.780622],[-122.2930648,37.7803469],[-122.2929621,37.7803392]]],[[[-122.2937444,37.7807902],[-122.2936015,37.7807828],[-122.2936357,37.7803709],[-122.2935367,37.7803658],[-122.2935105,37.7807778],[-122.2933699,37.7807743],[-122.2934036,37.7802551],[-122.2937874,37.780275],[-122.2937444,37.7807902]]],[[[-122.2927962,37.7806733],[-122.2929398,37.78068],[-122.2929089,37.7810921],[-122.2930074,37.7810967],[-122.2930376,37.780692],[-122.2931799,37.7806987],[-122.2931418,37.7812067],[-122.2927575,37.7811887],[-122.2927962,37.7806733]]],[[[-122.2935796,37.7811397],[-122.2936039,37.7808563],[-122.2937453,37.7808639],[-122.293713,37.7812418],[-122.2933252,37.7812211],[-122.2933575,37.7808439],[-122.2935011,37.7808516],[-122.2934769,37.7811342],[-122.2935796,37.7811397]]]]}},{"type":"Feature","properties":{"kind":"building","block":"08","label":"Corsair Flats and The Starling","stage":"complete","height_ft":50,"podium_ft":null,"base_ft":0,"use":"Residential","phase":"Phase 1","illustrative":false,"source":"footprints: OpenStreetMap w1287923269, w1287923270 via Overture 2026-09-23.1; height: \"50 feet high to the top of the parapet\", Planning Board staff report, design review for Blocks 11 and 8 (Mar 14, 2016) (https://alameda.legistar.com/LegislationDetail.aspx?ID=4388&GUID=86CB9634-CF02-45CE-B727-207C9DAC8CA3); complete per Alameda Point Partners' 2025 annual report to the City, Jan 23, 2026 (https://legistar1.granicus.com/alameda/attachments/4ed2a440-9155-4809-8443-5c523301c557.pdf)","stories":4,"homes":130,"note":"Two four-story Eden Housing buildings: Corsair Flats (60 senior homes) and The Starling (70 family homes), 128 of them affordable.","fid":17},"geometry":{"type":"MultiPolygon","coordinates":[[[[-122.2946893,37.7803265],[-122.2946665,37.7806643],[-122.2940597,37.7806274],[-122.2940611,37.7805763],[-122.2939727,37.7805724],[-122.2939966,37.7802888],[-122.2946893,37.7803265]]],[[[-122.2939555,37.7807733],[-122.2943935,37.7807996],[-122.294663,37.7808121],[-122.2946209,37.7812926],[-122.2939133,37.7812538],[-122.2939555,37.7807733]]]]}},{"type":"Feature","properties":{"kind":"building","block":"09","label":"Aero Apartments","stage":"complete","height_ft":59,"podium_ft":null,"base_ft":0,"use":"Residential over ground-floor retail","phase":"Phase 1","illustrative":false,"source":"footprints: OpenStreetMap w898321213, w813217101, w813217102, w898321214 via Overture 2026-09-23.1; height: \"a maximum height of 59 feet to the top of the parapet\", Planning Board staff report, design review for Block 9 (Dec 11, 2017) (https://alameda.legistar.com/LegislationDetail.aspx?ID=6711&GUID=6634ADEE-5B8D-42B2-A475-3097540463FB); complete per Alameda Point Partners' 2025 annual report to the City, Jan 23, 2026 (https://legistar1.granicus.com/alameda/attachments/4ed2a440-9155-4809-8443-5c523301c557.pdf)","stories":4,"homes":200,"note":"Four stories around a parking garage; 59 ft on West Atlantic Avenue, about 50 ft at the sides and rear.","fid":18},"geometry":{"type":"MultiPolygon","coordinates":[[[[-122.2949691,37.7805673],[-122.2949818,37.7803766],[-122.2959763,37.7804136],[-122.2959584,37.7806173],[-122.2949691,37.7805673]]],[[[-122.2949885,37.7806642],[-122.2950366,37.7806662],[-122.2950401,37.7806154],[-122.2952357,37.7806237],[-122.2952202,37.7808508],[-122.2956695,37.7808714],[-122.2956864,37.7806572],[-122.2958771,37.7806666],[-122.2958876,37.7806894],[-122.2959223,37.7806911],[-122.2958714,37.7813397],[-122.2952644,37.78131],[-122.2952719,37.7812158],[-122.2951338,37.7812094],[-122.295132,37.7812331],[-122.2950741,37.7812304],[-122.2950698,37.7812976],[-122.2949455,37.7812923],[-122.2949885,37.7806642]]]]}}]}
