{
 "type": "FeatureCollection",
 "properties": {
  "project": "berryessa-flea-market",
  "illustrative": true,
  "summary": "Illustrative massing: each development area is drawn to its height limit in the Berryessa BART Urban Village Plan's height diagram (90, 160 and 270 ft), which the 2021 Planned Development zoning adopts, not as a building design. The plan's areas are conceptual, and towers would rise on only part of the 270-ft areas. The creek corridors, parks and plazas, including the 5-acre urban market, and the streets are not drawn; nothing has been built or permitted.",
  "note": "Development areas are drawn to the urban village plan's height limits, not as building designs; no development application is on file.",
  "sourceUrl": "https://sanjose.legistar.com/LegislationDetail.aspx?ID=9320&GUID=52462B47-4D5A-4FEE-9F38-A2588DDC1C50",
  "sourceLabel": "Urban village plan height diagram, 2021",
  "georeference": {
   "figure_1": {
    "scale_m_per_unit": 1.63681,
    "rotation_deg": 1.495,
    "rms_m": 1.06,
    "controls": [
     {
      "label": "street and BART trackway centrelines: trimmed RMS over the closest 50% of 7253 points",
      "residual_m": 1.06
     }
    ],
    "method": "trimmed ICP",
    "points": 7253,
    "inlier_share": 0.5,
    "median_m": 2.27,
    "p90_m": 24.48,
    "track_median_m": 1.09,
    "scale_bar_m_per_px": 1.6402,
    "scale_vs_bar": "-0.2%"
   }
  },
  "license": "Height areas: traced from a public City of San Jos\u00e9 document. Georeference: OpenStreetMap contributors (ODbL 1.0), via Overture Maps."
 },
 "features": [
  {
   "type": "Feature",
   "properties": {
    "kind": "block",
    "block": "1",
    "label": "Development area 1, up to 270 ft",
    "stage": "entitled",
    "height_ft": 270,
    "podium_ft": null,
    "base_ft": 0,
    "use": null,
    "phase": null,
    "illustrative": true,
    "source": "illustrative: drawn to the 270-ft height limit traced from Planning Commission supplemental staff report, File Nos. GP20-008 and C21-001 (Berryessa BART Urban Village Plan), May 5, 2021, Figure 1: BBUV Plan Height Limit Diagram, p. 12 of 20 (https://legistar.granicus.com/sanjose/attachments/afe4bc58-e013-42b2-870b-ccdbfd873751.pdf)",
    "note": "Height limit of the Berryessa BART Urban Village Plan, which the PD zoning (PDC17-051) adopts; drawn as an envelope, not a building design. The plan marks tower locations in these areas; towers would cover only part of them."
   },
   "geometry": {
    "type": "Polygon",
    "coordinates": [
     [
      [
       -121.8753595,
       37.3700859
      ],
      [
       -121.8753778,
       37.370071
      ],
      [
       -121.8753775,
       37.3700562
      ],
      [
       -121.8753957,
       37.3700412
      ],
      [
       -121.875394,
       37.3699441
      ],
      [
       -121.8753753,
       37.3699296
      ],
      [
       -121.8753745,
       37.3698853
      ],
      [
       -121.8753557,
       37.3698708
      ],
      [
       -121.8753555,
       37.369856
      ],
      [
       -121.8753367,
       37.3698415
      ],
      [
       -121.8753354,
       37.3697677
      ],
      [
       -121.8753167,
       37.3697532
      ],
      [
       -121.8753161,
       37.3697237
      ],
      [
       -121.8752974,
       37.3697091
      ],
      [
       -121.8752965,
       37.3696588
      ],
      [
       -121.8753565,
       37.3696095
      ],
      [
       -121.8754304,
       37.3696087
      ],
      [
       -121.8754486,
       37.3695937
      ],
      [
       -121.8754856,
       37.3695933
      ],
      [
       -121.8755038,
       37.3695783
      ],
      [
       -121.8755962,
       37.3695773
      ],
      [
       -121.8756145,
       37.3695623
      ],
      [
       -121.875733,
       37.369561
      ],
      [
       -121.8757517,
       37.3695755
      ],
      [
       -121.8758365,
       37.3695746
      ],
      [
       -121.8758547,
       37.3695596
      ],
      [
       -121.8758732,
       37.3695594
      ],
      [
       -121.8759096,
       37.3695295
      ],
      [
       -121.8759281,
       37.3695293
      ],
      [
       -121.8759463,
       37.3695143
      ],
      [
       -121.8759833,
       37.3695139
      ],
      [
       -121.8760015,
       37.3694989
      ],
      [
       -121.8761755,
       37.369497
      ],
      [
       -121.8761943,
       37.3695115
      ],
      [
       -121.8762127,
       37.3695113
      ],
      [
       -121.876237,
       37.3695301
      ],
      [
       -121.8762372,
       37.3695449
      ],
      [
       -121.876256,
       37.3695594
      ],
      [
       -121.8762562,
       37.3695741
      ],
      [
       -121.876275,
       37.3695887
      ],
      [
       -121.8762755,
       37.3696182
      ],
      [
       -121.8762943,
       37.3696327
      ],
      [
       -121.8762953,
       37.3696917
      ],
      [
       -121.876314,
       37.3697063
      ],
      [
       -121.8763143,
       37.369721
      ],
      [
       -121.8763331,
       37.3697356
      ],
      [
       -121.8763336,
       37.3697651
      ],
      [
       -121.8763523,
       37.3697796
      ],
      [
       -121.8763536,
       37.3698534
      ],
      [
       -121.8763724,
       37.3698679
      ],
      [
       -121.8763737,
       37.3699417
      ],
      [
       -121.8763924,
       37.3699562
      ],
      [
       -121.8763927,
       37.369971
      ],
      [
       -121.8764114,
       37.3699855
      ],
      [
       -121.8764131,
       37.3700801
      ],
      [
       -121.8763531,
       37.3701294
      ],
      [
       -121.8763346,
       37.3701296
      ],
      [
       -121.8763164,
       37.3701445
      ],
      [
       -121.8762979,
       37.3701447
      ],
      [
       -121.8762486,
       37.3701852
      ],
      [
       -121.8762497,
       37.3702442
      ],
      [
       -121.8761168,
       37.3703533
      ],
      [
       -121.8760983,
       37.3703536
      ],
      [
       -121.8759708,
       37.3704583
      ],
      [
       -121.8759523,
       37.3704585
      ],
      [
       -121.8759394,
       37.3704691
      ],
      [
       -121.8759397,
       37.3704838
      ],
      [
       -121.8758797,
       37.3705331
      ],
      [
       -121.8758612,
       37.3705333
      ],
      [
       -121.8756661,
       37.3706935
      ],
      [
       -121.8756664,
       37.3707082
      ],
      [
       -121.8756246,
       37.3707425
      ],
      [
       -121.8756061,
       37.3707427
      ],
      [
       -121.8755841,
       37.3707608
      ],
      [
       -121.8753595,
       37.3700859
      ]
     ]
    ]
   }
  },
  {
   "type": "Feature",
   "properties": {
    "kind": "block",
    "block": "2",
    "label": "Development area 2, up to 160 ft",
    "stage": "entitled",
    "height_ft": 160,
    "podium_ft": null,
    "base_ft": 0,
    "use": null,
    "phase": null,
    "illustrative": true,
    "source": "illustrative: drawn to the 160-ft height limit traced from Planning Commission supplemental staff report, File Nos. GP20-008 and C21-001 (Berryessa BART Urban Village Plan), May 5, 2021, Figure 1: BBUV Plan Height Limit Diagram, p. 12 of 20 (https://legistar.granicus.com/sanjose/attachments/afe4bc58-e013-42b2-870b-ccdbfd873751.pdf)",
    "note": "Height limit of the Berryessa BART Urban Village Plan, which the PD zoning (PDC17-051) adopts; drawn as an envelope, not a building design."
   },
   "geometry": {
    "type": "Polygon",
    "coordinates": [
     [
      [
       -121.8769681,
       37.3697978
      ],
      [
       -121.8769251,
       37.3697645
      ],
      [
       -121.8769248,
       37.3697497
      ],
      [
       -121.8768499,
       37.3696916
      ],
      [
       -121.8768495,
       37.3696707
      ],
      [
       -121.8768677,
       37.3696557
      ],
      [
       -121.8768674,
       37.3696367
      ],
      [
       -121.8768913,
       37.3696364
      ],
      [
       -121.8769095,
       37.3696214
      ],
      [
       -121.8769649,
       37.3696208
      ],
      [
       -121.8770743,
       37.3695311
      ],
      [
       -121.8771297,
       37.3695304
      ],
      [
       -121.877179,
       37.3694899
      ],
      [
       -121.8771788,
       37.3694752
      ],
      [
       -121.8772388,
       37.3694259
      ],
      [
       -121.8772572,
       37.3694257
      ],
      [
       -121.8773301,
       37.3693659
      ],
      [
       -121.8773486,
       37.3693657
      ],
      [
       -121.8773668,
       37.3693507
      ],
      [
       -121.8773853,
       37.3693505
      ],
      [
       -121.8774217,
       37.3693206
      ],
      [
       -121.8774402,
       37.3693204
      ],
      [
       -121.8774767,
       37.3692904
      ],
      [
       -121.8774951,
       37.3692902
      ],
      [
       -121.8775498,
       37.3692453
      ],
      [
       -121.8775683,
       37.3692451
      ],
      [
       -121.8776047,
       37.3692152
      ],
      [
       -121.8776232,
       37.369215
      ],
      [
       -121.8776596,
       37.3691851
      ],
      [
       -121.8776781,
       37.3691849
      ],
      [
       -121.8777328,
       37.36914
      ],
      [
       -121.8777513,
       37.3691398
      ],
      [
       -121.8777877,
       37.3691099
      ],
      [
       -121.8778062,
       37.3691097
      ],
      [
       -121.8778426,
       37.3690797
      ],
      [
       -121.8778611,
       37.3690795
      ],
      [
       -121.8778793,
       37.3690646
      ],
      [
       -121.8778978,
       37.3690644
      ],
      [
       -121.8779525,
       37.3690195
      ],
      [
       -121.8779709,
       37.3690193
      ],
      [
       -121.8780256,
       37.3689744
      ],
      [
       -121.8780441,
       37.3689742
      ],
      [
       -121.8781298,
       37.3689038
      ],
      [
       -121.8781295,
       37.3688847
      ],
      [
       -121.8781534,
       37.3688844
      ],
      [
       -121.8783174,
       37.3687498
      ],
      [
       -121.8783358,
       37.3687496
      ],
      [
       -121.8783578,
       37.3687315
      ],
      [
       -121.8783805,
       37.3687491
      ],
      [
       -121.8783989,
       37.3687488
      ],
      [
       -121.8784794,
       37.3688113
      ],
      [
       -121.8784797,
       37.368826
      ],
      [
       -121.8784984,
       37.3688406
      ],
      [
       -121.8784993,
       37.3688909
      ],
      [
       -121.8784811,
       37.3689059
      ],
      [
       -121.8784814,
       37.3689206
      ],
      [
       -121.8784085,
       37.3689805
      ],
      [
       -121.8784088,
       37.3689995
      ],
      [
       -121.8783849,
       37.3689998
      ],
      [
       -121.8782027,
       37.3691494
      ],
      [
       -121.8781843,
       37.3691496
      ],
      [
       -121.8781478,
       37.3691796
      ],
      [
       -121.8781293,
       37.3691798
      ],
      [
       -121.8780747,
       37.3692246
      ],
      [
       -121.8780562,
       37.3692249
      ],
      [
       -121.8780198,
       37.3692548
      ],
      [
       -121.8780013,
       37.369255
      ],
      [
       -121.8779831,
       37.3692699
      ],
      [
       -121.8779646,
       37.3692702
      ],
      [
       -121.8779099,
       37.369315
      ],
      [
       -121.8778914,
       37.3693152
      ],
      [
       -121.877855,
       37.3693452
      ],
      [
       -121.8778365,
       37.3693454
      ],
      [
       -121.8777819,
       37.3693903
      ],
      [
       -121.8777634,
       37.3693905
      ],
      [
       -121.8777087,
       37.3694353
      ],
      [
       -121.8776902,
       37.3694356
      ],
      [
       -121.8776538,
       37.3694655
      ],
      [
       -121.8776353,
       37.3694657
      ],
      [
       -121.8776171,
       37.3694806
      ],
      [
       -121.8775986,
       37.3694809
      ],
      [
       -121.8775622,
       37.3695108
      ],
      [
       -121.8775437,
       37.369511
      ],
      [
       -121.8775255,
       37.3695259
      ],
      [
       -121.877507,
       37.3695261
      ],
      [
       -121.8774523,
       37.369571
      ],
      [
       -121.8774339,
       37.3695712
      ],
      [
       -121.8773974,
       37.3696012
      ],
      [
       -121.8773789,
       37.3696014
      ],
      [
       -121.8773607,
       37.3696163
      ],
      [
       -121.8773237,
       37.3696167
      ],
      [
       -121.8773055,
       37.3696317
      ],
      [
       -121.877287,
       37.3696319
      ],
      [
       -121.8772742,
       37.3696425
      ],
      [
       -121.8772744,
       37.3696572
      ],
      [
       -121.8771962,
       37.3697215
      ],
      [
       -121.8771777,
       37.3697217
      ],
      [
       -121.8771595,
       37.3697366
      ],
      [
       -121.877141,
       37.3697368
      ],
      [
       -121.8771228,
       37.3697518
      ],
      [
       -121.8770674,
       37.3697524
      ],
      [
       -121.8770309,
       37.3697824
      ],
      [
       -121.8770124,
       37.3697826
      ],
      [
       -121.8769942,
       37.3697975
      ],
      [
       -121.8769681,
       37.3697978
      ]
     ]
    ]
   }
  },
  {
   "type": "Feature",
   "properties": {
    "kind": "block",
    "block": "3",
    "label": "Development area 3, up to 90 ft",
    "stage": "entitled",
    "height_ft": 90,
    "podium_ft": null,
    "base_ft": 0,
    "use": null,
    "phase": null,
    "illustrative": true,
    "source": "illustrative: drawn to the 90-ft height limit traced from Planning Commission supplemental staff report, File Nos. GP20-008 and C21-001 (Berryessa BART Urban Village Plan), May 5, 2021, Figure 1: BBUV Plan Height Limit Diagram, p. 12 of 20 (https://legistar.granicus.com/sanjose/attachments/afe4bc58-e013-42b2-870b-ccdbfd873751.pdf)",
    "note": "Height limit of the Berryessa BART Urban Village Plan, which the PD zoning (PDC17-051) adopts; drawn as an envelope, not a building design."
   },
   "geometry": {
    "type": "Polygon",
    "coordinates": [
     [
      [
       -121.8768171,
       37.3696225
      ],
      [
       -121.8766991,
       37.369531
      ],
      [
       -121.8766989,
       37.3695162
      ],
      [
       -121.8766614,
       37.3694871
      ],
      [
       -121.8766611,
       37.3694724
      ],
      [
       -121.8766424,
       37.3694579
      ],
      [
       -121.8766421,
       37.3694431
      ],
      [
       -121.8766046,
       37.369414
      ],
      [
       -121.8766037,
       37.3693637
      ],
      [
       -121.8766273,
       37.3693443
      ],
      [
       -121.8766642,
       37.3693439
      ],
      [
       -121.8766825,
       37.3693289
      ],
      [
       -121.8767194,
       37.3693285
      ],
      [
       -121.8767376,
       37.3693136
      ],
      [
       -121.8767931,
       37.3693129
      ],
      [
       -121.8768113,
       37.369298
      ],
      [
       -121.8768852,
       37.3692971
      ],
      [
       -121.8769035,
       37.3692822
      ],
      [
       -121.8769959,
       37.3692811
      ],
      [
       -121.8770141,
       37.3692662
      ],
      [
       -121.8770326,
       37.369266
      ],
      [
       -121.8770508,
       37.369251
      ],
      [
       -121.8770693,
       37.3692508
      ],
      [
       -121.8770875,
       37.3692358
      ],
      [
       -121.877106,
       37.3692356
      ],
      [
       -121.8773246,
       37.3690561
      ],
      [
       -121.8773431,
       37.3690559
      ],
      [
       -121.8775435,
       37.3688913
      ],
      [
       -121.877562,
       37.3688911
      ],
      [
       -121.8778717,
       37.3686368
      ],
      [
       -121.8778902,
       37.3686366
      ],
      [
       -121.8780177,
       37.3685319
      ],
      [
       -121.8780362,
       37.3685317
      ],
      [
       -121.8780544,
       37.3685167
      ],
      [
       -121.8780806,
       37.3685164
      ],
      [
       -121.8780993,
       37.3685309
      ],
      [
       -121.8781178,
       37.3685307
      ],
      [
       -121.8782732,
       37.3686513
      ],
      [
       -121.8782735,
       37.3686661
      ],
      [
       -121.878311,
       37.3686952
      ],
      [
       -121.8783116,
       37.3687308
      ],
      [
       -121.8782934,
       37.3687457
      ],
      [
       -121.8782937,
       37.3687605
      ],
      [
       -121.8781972,
       37.3688397
      ],
      [
       -121.8781787,
       37.3688399
      ],
      [
       -121.878093,
       37.3689103
      ],
      [
       -121.8780933,
       37.3689294
      ],
      [
       -121.8780694,
       37.3689296
      ],
      [
       -121.8779783,
       37.3690044
      ],
      [
       -121.8779598,
       37.3690046
      ],
      [
       -121.8779052,
       37.3690495
      ],
      [
       -121.8778867,
       37.3690497
      ],
      [
       -121.8778685,
       37.3690647
      ],
      [
       -121.87785,
       37.3690649
      ],
      [
       -121.8778136,
       37.3690948
      ],
      [
       -121.8777951,
       37.369095
      ],
      [
       -121.8777404,
       37.3691399
      ],
      [
       -121.8777219,
       37.3691401
      ],
      [
       -121.8776673,
       37.369185
      ],
      [
       -121.8776488,
       37.3691852
      ],
      [
       -121.8776124,
       37.3692151
      ],
      [
       -121.8775939,
       37.3692153
      ],
      [
       -121.8775392,
       37.3692602
      ],
      [
       -121.8775207,
       37.3692604
      ],
      [
       -121.8774843,
       37.3692903
      ],
      [
       -121.8774658,
       37.3692906
      ],
      [
       -121.8774294,
       37.3693205
      ],
      [
       -121.8774109,
       37.3693207
      ],
      [
       -121.8773745,
       37.3693506
      ],
      [
       -121.877356,
       37.3693508
      ],
      [
       -121.8773378,
       37.3693658
      ],
      [
       -121.8773193,
       37.369366
      ],
      [
       -121.8772464,
       37.3694258
      ],
      [
       -121.8772279,
       37.369426
      ],
      [
       -121.8772097,
       37.369441
      ],
      [
       -121.8771912,
       37.3694412
      ],
      [
       -121.8771548,
       37.3694711
      ],
      [
       -121.8771363,
       37.3694713
      ],
      [
       -121.8771181,
       37.3694863
      ],
      [
       -121.8770996,
       37.3694865
      ],
      [
       -121.8770814,
       37.3695015
      ],
      [
       -121.8770629,
       37.3695017
      ],
      [
       -121.8770447,
       37.3695166
      ],
      [
       -121.8770262,
       37.3695168
      ],
      [
       -121.8769351,
       37.3695916
      ],
      [
       -121.8769166,
       37.3695919
      ],
      [
       -121.8768984,
       37.3696068
      ],
      [
       -121.8768799,
       37.369607
      ],
      [
       -121.8768617,
       37.369622
      ],
      [
       -121.8768171,
       37.3696225
      ]
     ]
    ]
   }
  },
  {
   "type": "Feature",
   "properties": {
    "kind": "block",
    "block": "4",
    "label": "Development area 4, up to 270 ft",
    "stage": "entitled",
    "height_ft": 270,
    "podium_ft": null,
    "base_ft": 0,
    "use": null,
    "phase": null,
    "illustrative": true,
    "source": "illustrative: drawn to the 270-ft height limit traced from Planning Commission supplemental staff report, File Nos. GP20-008 and C21-001 (Berryessa BART Urban Village Plan), May 5, 2021, Figure 1: BBUV Plan Height Limit Diagram, p. 12 of 20 (https://legistar.granicus.com/sanjose/attachments/afe4bc58-e013-42b2-870b-ccdbfd873751.pdf)",
    "note": "Height limit of the Berryessa BART Urban Village Plan, which the PD zoning (PDC17-051) adopts; drawn as an envelope, not a building design. The plan marks tower locations in these areas; towers would cover only part of them."
   },
   "geometry": {
    "type": "Polygon",
    "coordinates": [
     [
      [
       -121.8754273,
       37.3694317
      ],
      [
       -121.8753843,
       37.3693983
      ],
      [
       -121.8753835,
       37.3693541
      ],
      [
       -121.8753648,
       37.3693395
      ],
      [
       -121.8753645,
       37.3693248
      ],
      [
       -121.8753458,
       37.3693102
      ],
      [
       -121.8753431,
       37.3691627
      ],
      [
       -121.8753244,
       37.3691482
      ],
      [
       -121.8753239,
       37.3691187
      ],
      [
       -121.8753051,
       37.3691042
      ],
      [
       -121.8753049,
       37.3690894
      ],
      [
       -121.8752861,
       37.3690749
      ],
      [
       -121.8752859,
       37.3690601
      ],
      [
       -121.8752671,
       37.3690456
      ],
      [
       -121.8752666,
       37.3690161
      ],
      [
       -121.8752479,
       37.3690015
      ],
      [
       -121.8752471,
       37.3689573
      ],
      [
       -121.8752283,
       37.3689427
      ],
      [
       -121.8752275,
       37.3688985
      ],
      [
       -121.8752088,
       37.3688839
      ],
      [
       -121.8752069,
       37.3687746
      ],
      [
       -121.8752251,
       37.3687596
      ],
      [
       -121.8752245,
       37.3687301
      ],
      [
       -121.8752663,
       37.3686958
      ],
      [
       -121.8753772,
       37.3686946
      ],
      [
       -121.8753954,
       37.3686796
      ],
      [
       -121.8754509,
       37.368679
      ],
      [
       -121.8754691,
       37.368664
      ],
      [
       -121.8755061,
       37.3686636
      ],
      [
       -121.8755243,
       37.3686486
      ],
      [
       -121.8755982,
       37.3686478
      ],
      [
       -121.8756164,
       37.3686328
      ],
      [
       -121.8756349,
       37.3686326
      ],
      [
       -121.8756531,
       37.3686177
      ],
      [
       -121.8756716,
       37.3686175
      ],
      [
       -121.8756898,
       37.3686025
      ],
      [
       -121.8758823,
       37.3686003
      ],
      [
       -121.875944,
       37.3686482
      ],
      [
       -121.8759443,
       37.368663
      ],
      [
       -121.875963,
       37.3686775
      ],
      [
       -121.8759633,
       37.3686922
      ],
      [
       -121.875982,
       37.3687068
      ],
      [
       -121.8759833,
       37.3687805
      ],
      [
       -121.8760021,
       37.3687951
      ],
      [
       -121.8760023,
       37.3688098
      ],
      [
       -121.8760211,
       37.3688244
      ],
      [
       -121.8760216,
       37.3688539
      ],
      [
       -121.8760404,
       37.3688684
      ],
      [
       -121.8760423,
       37.3689778
      ],
      [
       -121.8760241,
       37.3689927
      ],
      [
       -121.8760245,
       37.3690161
      ],
      [
       -121.876062,
       37.3690452
      ],
      [
       -121.8760622,
       37.36906
      ],
      [
       -121.8760997,
       37.369089
      ],
      [
       -121.8761,
       37.3691038
      ],
      [
       -121.8761187,
       37.3691183
      ],
      [
       -121.8761193,
       37.3691478
      ],
      [
       -121.876138,
       37.3691624
      ],
      [
       -121.8761397,
       37.369257
      ],
      [
       -121.8760979,
       37.3692913
      ],
      [
       -121.876061,
       37.3692917
      ],
      [
       -121.8760427,
       37.3693067
      ],
      [
       -121.8759688,
       37.3693075
      ],
      [
       -121.8759506,
       37.3693225
      ],
      [
       -121.8758767,
       37.3693233
      ],
      [
       -121.8758584,
       37.3693383
      ],
      [
       -121.8758215,
       37.3693387
      ],
      [
       -121.8758033,
       37.3693536
      ],
      [
       -121.8757293,
       37.3693545
      ],
      [
       -121.8757111,
       37.3693694
      ],
      [
       -121.8756557,
       37.3693701
      ],
      [
       -121.8756374,
       37.369385
      ],
      [
       -121.8756005,
       37.3693855
      ],
      [
       -121.8755823,
       37.3694004
      ],
      [
       -121.8755453,
       37.3694008
      ],
      [
       -121.8755271,
       37.3694158
      ],
      [
       -121.8754901,
       37.3694162
      ],
      [
       -121.8754719,
       37.3694312
      ],
      [
       -121.8754273,
       37.3694317
      ]
     ]
    ]
   }
  },
  {
   "type": "Feature",
   "properties": {
    "kind": "block",
    "block": "5",
    "label": "Development area 5, up to 90 ft",
    "stage": "entitled",
    "height_ft": 90,
    "podium_ft": null,
    "base_ft": 0,
    "use": null,
    "phase": null,
    "illustrative": true,
    "source": "illustrative: drawn to the 90-ft height limit traced from Planning Commission supplemental staff report, File Nos. GP20-008 and C21-001 (Berryessa BART Urban Village Plan), May 5, 2021, Figure 1: BBUV Plan Height Limit Diagram, p. 12 of 20 (https://legistar.granicus.com/sanjose/attachments/afe4bc58-e013-42b2-870b-ccdbfd873751.pdf)",
    "note": "Height limit of the Berryessa BART Urban Village Plan, which the PD zoning (PDC17-051) adopts; drawn as an envelope, not a building design."
   },
   "geometry": {
    "type": "Polygon",
    "coordinates": [
     [
      [
       -121.8764586,
       37.3692134
      ],
      [
       -121.8764156,
       37.3691801
      ],
      [
       -121.8764153,
       37.3691654
      ],
      [
       -121.8763966,
       37.3691508
      ],
      [
       -121.8763958,
       37.3691066
      ],
      [
       -121.8763771,
       37.369092
      ],
      [
       -121.8763763,
       37.3690478
      ],
      [
       -121.8763575,
       37.3690332
      ],
      [
       -121.8763568,
       37.368989
      ],
      [
       -121.876338,
       37.3689744
      ],
      [
       -121.8763372,
       37.3689302
      ],
      [
       -121.8763185,
       37.3689156
      ],
      [
       -121.8763177,
       37.3688714
      ],
      [
       -121.8762989,
       37.3688568
      ],
      [
       -121.8762979,
       37.3687978
      ],
      [
       -121.8762792,
       37.3687833
      ],
      [
       -121.8762783,
       37.3687329
      ],
      [
       -121.87632,
       37.3686986
      ],
      [
       -121.8763385,
       37.3686984
      ],
      [
       -121.8763567,
       37.3686835
      ],
      [
       -121.8764491,
       37.3686824
      ],
      [
       -121.8764674,
       37.3686675
      ],
      [
       -121.8765043,
       37.368667
      ],
      [
       -121.8765225,
       37.3686521
      ],
      [
       -121.876578,
       37.3686515
      ],
      [
       -121.8765962,
       37.3686365
      ],
      [
       -121.8766332,
       37.3686361
      ],
      [
       -121.8766514,
       37.3686211
      ],
      [
       -121.8767438,
       37.3686201
      ],
      [
       -121.876762,
       37.3686051
      ],
      [
       -121.876799,
       37.3686047
      ],
      [
       -121.8768172,
       37.3685897
      ],
      [
       -121.8768911,
       37.3685889
      ],
      [
       -121.8769093,
       37.3685739
      ],
      [
       -121.8769463,
       37.3685735
      ],
      [
       -121.8769645,
       37.3685586
      ],
      [
       -121.87702,
       37.3685579
      ],
      [
       -121.8770382,
       37.368543
      ],
      [
       -121.8770567,
       37.3685428
      ],
      [
       -121.8770749,
       37.3685278
      ],
      [
       -121.8771303,
       37.3685272
      ],
      [
       -121.8771486,
       37.3685122
      ],
      [
       -121.8772225,
       37.3685114
      ],
      [
       -121.8772407,
       37.3684964
      ],
      [
       -121.8772962,
       37.3684958
      ],
      [
       -121.8773144,
       37.3684808
      ],
      [
       -121.8773513,
       37.3684804
      ],
      [
       -121.8773696,
       37.3684654
      ],
      [
       -121.8774435,
       37.3684646
      ],
      [
       -121.8774617,
       37.3684496
      ],
      [
       -121.8774987,
       37.3684492
      ],
      [
       -121.8775169,
       37.3684343
      ],
      [
       -121.8775908,
       37.3684334
      ],
      [
       -121.877609,
       37.3684185
      ],
      [
       -121.877646,
       37.368418
      ],
      [
       -121.8776642,
       37.3684031
      ],
      [
       -121.8777197,
       37.3684025
      ],
      [
       -121.8777379,
       37.3683875
      ],
      [
       -121.8777933,
       37.3683869
      ],
      [
       -121.8778115,
       37.3683719
      ],
      [
       -121.8778562,
       37.3683714
      ],
      [
       -121.8778804,
       37.3683902
      ],
      [
       -121.877881,
       37.3684258
      ],
      [
       -121.8778028,
       37.36849
      ],
      [
       -121.8777843,
       37.3684902
      ],
      [
       -121.8776932,
       37.368565
      ],
      [
       -121.8776747,
       37.3685653
      ],
      [
       -121.8775708,
       37.3686506
      ],
      [
       -121.877571,
       37.3686654
      ],
      [
       -121.8775475,
       37.3686847
      ],
      [
       -121.877529,
       37.3686849
      ],
      [
       -121.8772921,
       37.3688794
      ],
      [
       -121.8772737,
       37.3688796
      ],
      [
       -121.877055,
       37.3690592
      ],
      [
       -121.8770366,
       37.3690594
      ],
      [
       -121.8770001,
       37.3690893
      ],
      [
       -121.8769816,
       37.3690895
      ],
      [
       -121.8769634,
       37.3691045
      ],
      [
       -121.8769449,
       37.3691047
      ],
      [
       -121.8769267,
       37.3691196
      ],
      [
       -121.8768897,
       37.36912
      ],
      [
       -121.8768715,
       37.369135
      ],
      [
       -121.8768161,
       37.3691356
      ],
      [
       -121.8767979,
       37.3691506
      ],
      [
       -121.8767055,
       37.3691516
      ],
      [
       -121.8766872,
       37.3691666
      ],
      [
       -121.8766688,
       37.3691668
      ],
      [
       -121.8766505,
       37.3691818
      ],
      [
       -121.8765951,
       37.3691824
      ],
      [
       -121.8765769,
       37.3691974
      ],
      [
       -121.8765584,
       37.3691976
      ],
      [
       -121.8765402,
       37.3692125
      ],
      [
       -121.8764586,
       37.3692134
      ]
     ]
    ]
   }
  },
  {
   "type": "Feature",
   "properties": {
    "kind": "block",
    "block": "6",
    "label": "Development area 6, up to 160 ft",
    "stage": "entitled",
    "height_ft": 160,
    "podium_ft": null,
    "base_ft": 0,
    "use": null,
    "phase": null,
    "illustrative": true,
    "source": "illustrative: drawn to the 160-ft height limit traced from Planning Commission supplemental staff report, File Nos. GP20-008 and C21-001 (Berryessa BART Urban Village Plan), May 5, 2021, Figure 1: BBUV Plan Height Limit Diagram, p. 12 of 20 (https://legistar.granicus.com/sanjose/attachments/afe4bc58-e013-42b2-870b-ccdbfd873751.pdf)",
    "note": "Height limit of the Berryessa BART Urban Village Plan, which the PD zoning (PDC17-051) adopts; drawn as an envelope, not a building design."
   },
   "geometry": {
    "type": "Polygon",
    "coordinates": [
     [
      [
       -121.8762828,
       37.3686843
      ],
      [
       -121.8762641,
       37.3686698
      ],
      [
       -121.8762402,
       37.36867
      ],
      [
       -121.8762398,
       37.368651
      ],
      [
       -121.8762211,
       37.3686364
      ],
      [
       -121.8762203,
       37.3685922
      ],
      [
       -121.8762016,
       37.3685776
      ],
      [
       -121.8762007,
       37.3685273
      ],
      [
       -121.8762424,
       37.368493
      ],
      [
       -121.8762609,
       37.3684928
      ],
      [
       -121.8762791,
       37.3684778
      ],
      [
       -121.8763161,
       37.3684774
      ],
      [
       -121.8763343,
       37.3684624
      ],
      [
       -121.8764082,
       37.3684616
      ],
      [
       -121.8764265,
       37.3684466
      ],
      [
       -121.8764634,
       37.3684462
      ],
      [
       -121.8764817,
       37.3684312
      ],
      [
       -121.8765371,
       37.3684306
      ],
      [
       -121.8765553,
       37.3684157
      ],
      [
       -121.8765923,
       37.3684152
      ],
      [
       -121.8766105,
       37.3684003
      ],
      [
       -121.8766844,
       37.3683994
      ],
      [
       -121.8767026,
       37.3683845
      ],
      [
       -121.8767581,
       37.3683838
      ],
      [
       -121.8767763,
       37.3683689
      ],
      [
       -121.8768318,
       37.3683683
      ],
      [
       -121.87685,
       37.3683533
      ],
      [
       -121.8769054,
       37.3683527
      ],
      [
       -121.8769236,
       37.3683377
      ],
      [
       -121.8769791,
       37.3683371
      ],
      [
       -121.8769973,
       37.3683221
      ],
      [
       -121.8770158,
       37.3683219
      ],
      [
       -121.877034,
       37.368307
      ],
      [
       -121.8771079,
       37.3683061
      ],
      [
       -121.8771261,
       37.3682912
      ],
      [
       -121.8771816,
       37.3682905
      ],
      [
       -121.8771998,
       37.3682756
      ],
      [
       -121.8772553,
       37.3682749
      ],
      [
       -121.8772735,
       37.36826
      ],
      [
       -121.8773289,
       37.3682594
      ],
      [
       -121.8773471,
       37.3682444
      ],
      [
       -121.8774026,
       37.3682438
      ],
      [
       -121.8774208,
       37.3682288
      ],
      [
       -121.8775132,
       37.3682278
      ],
      [
       -121.8775314,
       37.3682128
      ],
      [
       -121.8775499,
       37.3682126
      ],
      [
       -121.8775681,
       37.3681976
      ],
      [
       -121.8776236,
       37.368197
      ],
      [
       -121.8776418,
       37.368182
      ],
      [
       -121.8777157,
       37.3681812
      ],
      [
       -121.8777339,
       37.3681662
      ],
      [
       -121.877797,
       37.3681655
      ],
      [
       -121.87784,
       37.3681989
      ],
      [
       -121.8778403,
       37.3682136
      ],
      [
       -121.877859,
       37.3682282
      ],
      [
       -121.8778598,
       37.3682724
      ],
      [
       -121.8778785,
       37.368287
      ],
      [
       -121.8778792,
       37.3683226
      ],
      [
       -121.8778374,
       37.3683569
      ],
      [
       -121.8778189,
       37.3683571
      ],
      [
       -121.8778007,
       37.368372
      ],
      [
       -121.8777637,
       37.3683725
      ],
      [
       -121.8777455,
       37.3683874
      ],
      [
       -121.8777086,
       37.3683878
      ],
      [
       -121.8776903,
       37.3684028
      ],
      [
       -121.8776349,
       37.3684034
      ],
      [
       -121.8776167,
       37.3684184
      ],
      [
       -121.8775797,
       37.3684188
      ],
      [
       -121.8775615,
       37.3684338
      ],
      [
       -121.8774691,
       37.3684348
      ],
      [
       -121.8774509,
       37.3684498
      ],
      [
       -121.8774324,
       37.36845
      ],
      [
       -121.8774142,
       37.3684649
      ],
      [
       -121.8773402,
       37.3684658
      ],
      [
       -121.877322,
       37.3684807
      ],
      [
       -121.8772851,
       37.3684812
      ],
      [
       -121.8772668,
       37.3684961
      ],
      [
       -121.8771744,
       37.3684972
      ],
      [
       -121.8771562,
       37.3685121
      ],
      [
       -121.8771193,
       37.3685125
      ],
      [
       -121.877101,
       37.3685275
      ],
      [
       -121.8770456,
       37.3685281
      ],
      [
       -121.8770274,
       37.3685431
      ],
      [
       -121.8770089,
       37.3685433
      ],
      [
       -121.8769907,
       37.3685583
      ],
      [
       -121.8769352,
       37.3685589
      ],
      [
       -121.876917,
       37.3685738
      ],
      [
       -121.8768616,
       37.3685745
      ],
      [
       -121.8768433,
       37.3685894
      ],
      [
       -121.8767879,
       37.3685901
      ],
      [
       -121.8767697,
       37.368605
      ],
      [
       -121.8767327,
       37.3686054
      ],
      [
       -121.8767145,
       37.3686204
      ],
      [
       -121.8766406,
       37.3686212
      ],
      [
       -121.8766223,
       37.3686362
      ],
      [
       -121.8765669,
       37.3686368
      ],
      [
       -121.8765487,
       37.3686518
      ],
      [
       -121.8764932,
       37.3686524
      ],
      [
       -121.876475,
       37.3686674
      ],
      [
       -121.8764196,
       37.368668
      ],
      [
       -121.8764014,
       37.368683
      ],
      [
       -121.8762828,
       37.3686843
      ]
     ]
    ]
   }
  },
  {
   "type": "Feature",
   "properties": {
    "kind": "block",
    "block": "7",
    "label": "Development area 7, up to 90 ft",
    "stage": "entitled",
    "height_ft": 90,
    "podium_ft": null,
    "base_ft": 0,
    "use": null,
    "phase": null,
    "illustrative": true,
    "source": "illustrative: drawn to the 90-ft height limit traced from Planning Commission supplemental staff report, File Nos. GP20-008 and C21-001 (Berryessa BART Urban Village Plan), May 5, 2021, Figure 1: BBUV Plan Height Limit Diagram, p. 12 of 20 (https://legistar.granicus.com/sanjose/attachments/afe4bc58-e013-42b2-870b-ccdbfd873751.pdf)",
    "note": "Height limit of the Berryessa BART Urban Village Plan, which the PD zoning (PDC17-051) adopts; drawn as an envelope, not a building design."
   },
   "geometry": {
    "type": "Polygon",
    "coordinates": [
     [
      [
       -121.8784985,
       37.3685412
      ],
      [
       -121.8784368,
       37.3684933
      ],
      [
       -121.8784365,
       37.3684785
      ],
      [
       -121.8784233,
       37.3684683
      ],
      [
       -121.8784048,
       37.3684685
      ],
      [
       -121.8782118,
       37.3683188
      ],
      [
       -121.8782116,
       37.368304
      ],
      [
       -121.8781741,
       37.368275
      ],
      [
       -121.8781737,
       37.3682541
      ],
      [
       -121.8782155,
       37.3682198
      ],
      [
       -121.8782525,
       37.3682194
      ],
      [
       -121.8782707,
       37.3682044
      ],
      [
       -121.8782892,
       37.3682042
      ],
      [
       -121.8783074,
       37.3681892
      ],
      [
       -121.8783705,
       37.3681885
      ],
      [
       -121.8783892,
       37.3682031
      ],
      [
       -121.8784077,
       37.3682029
      ],
      [
       -121.8785257,
       37.3682944
      ],
      [
       -121.8785259,
       37.3683091
      ],
      [
       -121.8786196,
       37.3683818
      ],
      [
       -121.8786199,
       37.3683966
      ],
      [
       -121.8786387,
       37.3684111
      ],
      [
       -121.8786396,
       37.3684615
      ],
      [
       -121.8786213,
       37.3684764
      ],
      [
       -121.8786216,
       37.3684912
      ],
      [
       -121.8785616,
       37.3685405
      ],
      [
       -121.8784985,
       37.3685412
      ]
     ]
    ]
   }
  },
  {
   "type": "Feature",
   "properties": {
    "kind": "block",
    "block": "8",
    "label": "Development area 8, up to 160 ft",
    "stage": "entitled",
    "height_ft": 160,
    "podium_ft": null,
    "base_ft": 0,
    "use": null,
    "phase": null,
    "illustrative": true,
    "source": "illustrative: drawn to the 160-ft height limit traced from Planning Commission supplemental staff report, File Nos. GP20-008 and C21-001 (Berryessa BART Urban Village Plan), May 5, 2021, Figure 1: BBUV Plan Height Limit Diagram, p. 12 of 20 (https://legistar.granicus.com/sanjose/attachments/afe4bc58-e013-42b2-870b-ccdbfd873751.pdf)",
    "note": "Height limit of the Berryessa BART Urban Village Plan, which the PD zoning (PDC17-051) adopts; drawn as an envelope, not a building design."
   },
   "geometry": {
    "type": "Polygon",
    "coordinates": [
     [
      [
       -121.8786672,
       37.368672
      ],
      [
       -121.8786487,
       37.3686722
      ],
      [
       -121.8786057,
       37.3686389
      ],
      [
       -121.8786055,
       37.3686242
      ],
      [
       -121.878568,
       37.3685951
      ],
      [
       -121.8785674,
       37.3685595
      ],
      [
       -121.8785856,
       37.3685445
      ],
      [
       -121.8785853,
       37.3685297
      ],
      [
       -121.87864,
       37.3684849
      ],
      [
       -121.8786397,
       37.3684701
      ],
      [
       -121.8786579,
       37.3684552
      ],
      [
       -121.8786572,
       37.368417
      ],
      [
       -121.8786385,
       37.3684025
      ],
      [
       -121.8786382,
       37.3683877
      ],
      [
       -121.8785258,
       37.3683005
      ],
      [
       -121.8785255,
       37.3682857
      ],
      [
       -121.8784185,
       37.3682027
      ],
      [
       -121.8784001,
       37.3682029
      ],
      [
       -121.8783813,
       37.3681884
      ],
      [
       -121.8782781,
       37.3681896
      ],
      [
       -121.8782599,
       37.3682045
      ],
      [
       -121.8782414,
       37.3682047
      ],
      [
       -121.8782232,
       37.3682197
      ],
      [
       -121.8781416,
       37.3682206
      ],
      [
       -121.8780986,
       37.3681873
      ],
      [
       -121.8780981,
       37.3681578
      ],
      [
       -121.8780793,
       37.3681432
      ],
      [
       -121.8780788,
       37.3681137
      ],
      [
       -121.8780601,
       37.3680992
      ],
      [
       -121.8780589,
       37.3680341
      ],
      [
       -121.8781007,
       37.3679998
      ],
      [
       -121.8781192,
       37.3679996
      ],
      [
       -121.8781374,
       37.3679846
      ],
      [
       -121.8782483,
       37.3679834
      ],
      [
       -121.8782665,
       37.3679684
      ],
      [
       -121.878285,
       37.3679682
      ],
      [
       -121.8783032,
       37.3679532
      ],
      [
       -121.8783956,
       37.3679522
      ],
      [
       -121.8784138,
       37.3679372
      ],
      [
       -121.8784323,
       37.367937
      ],
      [
       -121.8784505,
       37.3679221
      ],
      [
       -121.878506,
       37.3679214
      ],
      [
       -121.8785242,
       37.3679065
      ],
      [
       -121.8785796,
       37.3679058
      ],
      [
       -121.8785978,
       37.3678909
      ],
      [
       -121.8786718,
       37.36789
      ],
      [
       -121.87869,
       37.3678751
      ],
      [
       -121.8787085,
       37.3678749
      ],
      [
       -121.8787631,
       37.36783
      ],
      [
       -121.8787816,
       37.3678298
      ],
      [
       -121.8789273,
       37.3677101
      ],
      [
       -121.8789458,
       37.3677099
      ],
      [
       -121.8790005,
       37.367665
      ],
      [
       -121.879019,
       37.3676648
      ],
      [
       -121.8790372,
       37.3676498
      ],
      [
       -121.8790633,
       37.3676495
      ],
      [
       -121.8790821,
       37.3676641
      ],
      [
       -121.879119,
       37.3676637
      ],
      [
       -121.8791378,
       37.3676782
      ],
      [
       -121.8791563,
       37.367678
      ],
      [
       -121.8791805,
       37.3676968
      ],
      [
       -121.8791807,
       37.3677115
      ],
      [
       -121.8791995,
       37.3677261
      ],
      [
       -121.8791998,
       37.3677408
      ],
      [
       -121.8792505,
       37.3677802
      ],
      [
       -121.8793059,
       37.3677796
      ],
      [
       -121.8793247,
       37.3677941
      ],
      [
       -121.8793432,
       37.3677939
      ],
      [
       -121.8793861,
       37.3678272
      ],
      [
       -121.8793864,
       37.367842
      ],
      [
       -121.8794052,
       37.3678565
      ],
      [
       -121.8794061,
       37.3679069
      ],
      [
       -121.8793878,
       37.3679219
      ],
      [
       -121.8793881,
       37.3679366
      ],
      [
       -121.8793699,
       37.3679516
      ],
      [
       -121.8793701,
       37.3679663
      ],
      [
       -121.8793101,
       37.3680156
      ],
      [
       -121.8792917,
       37.3680158
      ],
      [
       -121.8792788,
       37.3680264
      ],
      [
       -121.879279,
       37.3680411
      ],
      [
       -121.8792608,
       37.3680561
      ],
      [
       -121.8792614,
       37.3680856
      ],
      [
       -121.8792431,
       37.3681005
      ],
      [
       -121.8792434,
       37.3681153
      ],
      [
       -121.8792252,
       37.3681303
      ],
      [
       -121.8792254,
       37.368145
      ],
      [
       -121.8791343,
       37.3682198
      ],
      [
       -121.8791346,
       37.3682346
      ],
      [
       -121.8790982,
       37.3682645
      ],
      [
       -121.8790984,
       37.3682792
      ],
      [
       -121.8790438,
       37.3683241
      ],
      [
       -121.879044,
       37.3683389
      ],
      [
       -121.8790076,
       37.3683688
      ],
      [
       -121.8790079,
       37.3683835
      ],
      [
       -121.8788986,
       37.3684733
      ],
      [
       -121.8788988,
       37.368488
      ],
      [
       -121.8788806,
       37.368503
      ],
      [
       -121.8788809,
       37.3685178
      ],
      [
       -121.8788444,
       37.3685477
      ],
      [
       -121.8788447,
       37.3685624
      ],
      [
       -121.87879,
       37.3686073
      ],
      [
       -121.8787903,
       37.3686221
      ],
      [
       -121.8787303,
       37.3686713
      ],
      [
       -121.8787118,
       37.3686715
      ],
      [
       -121.8786898,
       37.3686896
      ],
      [
       -121.8786672,
       37.368672
      ]
     ]
    ]
   }
  },
  {
   "type": "Feature",
   "properties": {
    "kind": "block",
    "block": "9",
    "label": "Development area 9, up to 160 ft",
    "stage": "entitled",
    "height_ft": 160,
    "podium_ft": null,
    "base_ft": 0,
    "use": null,
    "phase": null,
    "illustrative": true,
    "source": "illustrative: drawn to the 160-ft height limit traced from Planning Commission supplemental staff report, File Nos. GP20-008 and C21-001 (Berryessa BART Urban Village Plan), May 5, 2021, Figure 1: BBUV Plan Height Limit Diagram, p. 12 of 20 (https://legistar.granicus.com/sanjose/attachments/afe4bc58-e013-42b2-870b-ccdbfd873751.pdf)",
    "note": "Height limit of the Berryessa BART Urban Village Plan, which the PD zoning (PDC17-051) adopts; drawn as an envelope, not a building design."
   },
   "geometry": {
    "type": "Polygon",
    "coordinates": [
     [
      [
       -121.8759701,
       37.3677289
      ],
      [
       -121.8759513,
       37.3677143
      ],
      [
       -121.8759274,
       37.3677146
      ],
      [
       -121.8759271,
       37.3676955
      ],
      [
       -121.8759083,
       37.367681
      ],
      [
       -121.8759078,
       37.3676515
      ],
      [
       -121.8758891,
       37.3676369
      ],
      [
       -121.8758882,
       37.3675866
      ],
      [
       -121.8759064,
       37.3675716
      ],
      [
       -121.8759061,
       37.3675525
      ],
      [
       -121.87593,
       37.3675523
      ],
      [
       -121.8759482,
       37.3675373
      ],
      [
       -121.8759851,
       37.3675369
      ],
      [
       -121.8760034,
       37.3675219
      ],
      [
       -121.8760218,
       37.3675217
      ],
      [
       -121.8760401,
       37.3675068
      ],
      [
       -121.8761509,
       37.3675055
      ],
      [
       -121.8761692,
       37.3674905
      ],
      [
       -121.8762061,
       37.3674901
      ],
      [
       -121.8762243,
       37.3674752
      ],
      [
       -121.8762983,
       37.3674743
      ],
      [
       -121.8763165,
       37.3674594
      ],
      [
       -121.876335,
       37.3674592
      ],
      [
       -121.8763532,
       37.3674442
      ],
      [
       -121.8764271,
       37.3674434
      ],
      [
       -121.8764453,
       37.3674284
      ],
      [
       -121.8764638,
       37.3674282
      ],
      [
       -121.876482,
       37.3674132
      ],
      [
       -121.8765744,
       37.3674122
      ],
      [
       -121.8765927,
       37.3673972
      ],
      [
       -121.8766373,
       37.3673967
      ],
      [
       -121.8766803,
       37.3674301
      ],
      [
       -121.876681,
       37.3674743
      ],
      [
       -121.8766998,
       37.3674889
      ],
      [
       -121.8767009,
       37.367554
      ],
      [
       -121.8766592,
       37.3675883
      ],
      [
       -121.8765668,
       37.3675893
      ],
      [
       -121.8765485,
       37.3676043
      ],
      [
       -121.8765116,
       37.3676047
      ],
      [
       -121.8764934,
       37.3676197
      ],
      [
       -121.876401,
       37.3676207
      ],
      [
       -121.8763827,
       37.3676357
      ],
      [
       -121.8763643,
       37.3676359
      ],
      [
       -121.876346,
       37.3676508
      ],
      [
       -121.8762906,
       37.3676515
      ],
      [
       -121.8762724,
       37.3676664
      ],
      [
       -121.8762169,
       37.367667
      ],
      [
       -121.8761987,
       37.367682
      ],
      [
       -121.8761802,
       37.3676822
      ],
      [
       -121.876162,
       37.3676972
      ],
      [
       -121.8761066,
       37.3676978
      ],
      [
       -121.8760883,
       37.3677128
      ],
      [
       -121.8760329,
       37.3677134
      ],
      [
       -121.8760147,
       37.3677284
      ],
      [
       -121.8759701,
       37.3677289
      ]
     ]
    ]
   }
  },
  {
   "type": "Feature",
   "properties": {
    "kind": "block",
    "block": "10",
    "label": "Development area 10, up to 270 ft",
    "stage": "entitled",
    "height_ft": 270,
    "podium_ft": null,
    "base_ft": 0,
    "use": null,
    "phase": null,
    "illustrative": true,
    "source": "illustrative: drawn to the 270-ft height limit traced from Planning Commission supplemental staff report, File Nos. GP20-008 and C21-001 (Berryessa BART Urban Village Plan), May 5, 2021, Figure 1: BBUV Plan Height Limit Diagram, p. 12 of 20 (https://legistar.granicus.com/sanjose/attachments/afe4bc58-e013-42b2-870b-ccdbfd873751.pdf)",
    "note": "Height limit of the Berryessa BART Urban Village Plan, which the PD zoning (PDC17-051) adopts; drawn as an envelope, not a building design. The plan marks tower locations in these areas; towers would cover only part of them."
   },
   "geometry": {
    "type": "Polygon",
    "coordinates": [
     [
      [
       -121.8749934,
       37.3679022
      ],
      [
       -121.8749747,
       37.3678877
      ],
      [
       -121.8749508,
       37.3678879
      ],
      [
       -121.8749505,
       37.3678689
      ],
      [
       -121.8749317,
       37.3678543
      ],
      [
       -121.8749315,
       37.3678396
      ],
      [
       -121.8749127,
       37.367825
      ],
      [
       -121.8749122,
       37.3677955
      ],
      [
       -121.8748934,
       37.367781
      ],
      [
       -121.8748929,
       37.3677515
      ],
      [
       -121.8748742,
       37.3677369
      ],
      [
       -121.8748731,
       37.3676779
      ],
      [
       -121.8748544,
       37.3676634
      ],
      [
       -121.8748533,
       37.3676044
      ],
      [
       -121.8748346,
       37.3675898
      ],
      [
       -121.8748338,
       37.3675456
      ],
      [
       -121.8748151,
       37.3675311
      ],
      [
       -121.874814,
       37.367472
      ],
      [
       -121.8747633,
       37.3674327
      ],
      [
       -121.8746524,
       37.3674339
      ],
      [
       -121.8745907,
       37.3673861
      ],
      [
       -121.8745904,
       37.3673713
      ],
      [
       -121.8745717,
       37.3673568
      ],
      [
       -121.8745706,
       37.3672978
      ],
      [
       -121.8745519,
       37.3672832
      ],
      [
       -121.8745508,
       37.3672242
      ],
      [
       -121.8745321,
       37.3672097
      ],
      [
       -121.8745316,
       37.3671802
      ],
      [
       -121.8745128,
       37.3671656
      ],
      [
       -121.8745122,
       37.36713
      ],
      [
       -121.8745722,
       37.3670808
      ],
      [
       -121.8745907,
       37.3670805
      ],
      [
       -121.8746089,
       37.3670656
      ],
      [
       -121.8746828,
       37.3670648
      ],
      [
       -121.874701,
       37.3670498
      ],
      [
       -121.874738,
       37.3670494
      ],
      [
       -121.8747562,
       37.3670344
      ],
      [
       -121.8748301,
       37.3670336
      ],
      [
       -121.8748484,
       37.3670186
      ],
      [
       -121.8748853,
       37.3670182
      ],
      [
       -121.8749035,
       37.3670032
      ],
      [
       -121.874959,
       37.3670026
      ],
      [
       -121.8749772,
       37.3669877
      ],
      [
       -121.8750326,
       37.366987
      ],
      [
       -121.8750509,
       37.3669721
      ],
      [
       -121.8751248,
       37.3669712
      ],
      [
       -121.875143,
       37.3669563
      ],
      [
       -121.8752354,
       37.3669552
      ],
      [
       -121.8752536,
       37.3669403
      ],
      [
       -121.8752721,
       37.3669401
      ],
      [
       -121.8752903,
       37.3669251
      ],
      [
       -121.8753349,
       37.3669246
      ],
      [
       -121.8753537,
       37.3669391
      ],
      [
       -121.8753776,
       37.3669389
      ],
      [
       -121.8753779,
       37.3669579
      ],
      [
       -121.8753967,
       37.3669725
      ],
      [
       -121.8753969,
       37.3669872
      ],
      [
       -121.8754157,
       37.3670018
      ],
      [
       -121.8754159,
       37.3670165
      ],
      [
       -121.8754347,
       37.3670311
      ],
      [
       -121.875436,
       37.3671048
      ],
      [
       -121.8754547,
       37.3671194
      ],
      [
       -121.8754553,
       37.3671489
      ],
      [
       -121.875474,
       37.3671634
      ],
      [
       -121.875475,
       37.3672224
      ],
      [
       -121.8754938,
       37.3672369
      ],
      [
       -121.8754944,
       37.3672726
      ],
      [
       -121.8754762,
       37.3672875
      ],
      [
       -121.8754769,
       37.3673257
      ],
      [
       -121.8754956,
       37.3673402
      ],
      [
       -121.8754959,
       37.3673549
      ],
      [
       -121.8755146,
       37.3673695
      ],
      [
       -121.8755149,
       37.3673842
      ],
      [
       -121.8755524,
       37.3674133
      ],
      [
       -121.8755529,
       37.3674428
      ],
      [
       -121.8755716,
       37.3674574
      ],
      [
       -121.875573,
       37.3675311
      ],
      [
       -121.8755917,
       37.3675457
      ],
      [
       -121.8755922,
       37.3675752
      ],
      [
       -121.875611,
       37.3675897
      ],
      [
       -121.8756134,
       37.3677286
      ],
      [
       -121.8755952,
       37.3677435
      ],
      [
       -121.8755955,
       37.3677583
      ],
      [
       -121.8755537,
       37.3677926
      ],
      [
       -121.8755167,
       37.367793
      ],
      [
       -121.8754985,
       37.367808
      ],
      [
       -121.87548,
       37.3678082
      ],
      [
       -121.8754618,
       37.3678231
      ],
      [
       -121.8754064,
       37.3678238
      ],
      [
       -121.8753882,
       37.3678387
      ],
      [
       -121.8753512,
       37.3678391
      ],
      [
       -121.875333,
       37.3678541
      ],
      [
       -121.875296,
       37.3678545
      ],
      [
       -121.8752778,
       37.3678695
      ],
      [
       -121.8751854,
       37.3678705
      ],
      [
       -121.8751672,
       37.3678855
      ],
      [
       -121.8750748,
       37.3678865
      ],
      [
       -121.8750565,
       37.3679015
      ],
      [
       -121.8749934,
       37.3679022
      ]
     ]
    ]
   }
  },
  {
   "type": "Feature",
   "properties": {
    "kind": "block",
    "block": "11",
    "label": "Development area 11, up to 90 ft",
    "stage": "entitled",
    "height_ft": 90,
    "podium_ft": null,
    "base_ft": 0,
    "use": null,
    "phase": null,
    "illustrative": true,
    "source": "illustrative: drawn to the 90-ft height limit traced from Planning Commission supplemental staff report, File Nos. GP20-008 and C21-001 (Berryessa BART Urban Village Plan), May 5, 2021, Figure 1: BBUV Plan Height Limit Diagram, p. 12 of 20 (https://legistar.granicus.com/sanjose/attachments/afe4bc58-e013-42b2-870b-ccdbfd873751.pdf)",
    "note": "Height limit of the Berryessa BART Urban Village Plan, which the PD zoning (PDC17-051) adopts; drawn as an envelope, not a building design."
   },
   "geometry": {
    "type": "Polygon",
    "coordinates": [
     [
      [
       -121.8758927,
       37.3675379
      ],
      [
       -121.8758498,
       37.3675046
      ],
      [
       -121.8758484,
       37.3674308
      ],
      [
       -121.8758297,
       37.3674163
      ],
      [
       -121.8758294,
       37.3674015
      ],
      [
       -121.8758107,
       37.367387
      ],
      [
       -121.8758102,
       37.3673575
      ],
      [
       -121.8757914,
       37.367343
      ],
      [
       -121.8757904,
       37.367284
      ],
      [
       -121.8757716,
       37.3672694
      ],
      [
       -121.8757709,
       37.3672252
      ],
      [
       -121.8757521,
       37.3672106
      ],
      [
       -121.8757513,
       37.3671664
      ],
      [
       -121.8757326,
       37.3671518
      ],
      [
       -121.8757321,
       37.3671223
      ],
      [
       -121.8757133,
       37.3671078
      ],
      [
       -121.875712,
       37.367034
      ],
      [
       -121.8756933,
       37.3670195
      ],
      [
       -121.875693,
       37.3670047
      ],
      [
       -121.8756743,
       37.3669902
      ],
      [
       -121.8756732,
       37.3669312
      ],
      [
       -121.8756545,
       37.3669167
      ],
      [
       -121.8756538,
       37.366881
      ],
      [
       -121.8757138,
       37.3668318
      ],
      [
       -121.8757323,
       37.3668316
      ],
      [
       -121.8757505,
       37.3668166
      ],
      [
       -121.875769,
       37.3668164
      ],
      [
       -121.8757872,
       37.3668014
      ],
      [
       -121.8758796,
       37.3668004
      ],
      [
       -121.8758978,
       37.3667854
      ],
      [
       -121.8759163,
       37.3667852
      ],
      [
       -121.8759345,
       37.3667703
      ],
      [
       -121.876027,
       37.3667692
      ],
      [
       -121.8760452,
       37.3667543
      ],
      [
       -121.8760821,
       37.3667538
      ],
      [
       -121.8761004,
       37.3667389
      ],
      [
       -121.8761558,
       37.3667383
      ],
      [
       -121.876174,
       37.3667233
      ],
      [
       -121.8762295,
       37.3667227
      ],
      [
       -121.8762477,
       37.3667077
      ],
      [
       -121.8763216,
       37.3667069
      ],
      [
       -121.8763398,
       37.3666919
      ],
      [
       -121.8763844,
       37.3666914
      ],
      [
       -121.8764462,
       37.3667393
      ],
      [
       -121.8764469,
       37.3667835
      ],
      [
       -121.8764657,
       37.3667981
      ],
      [
       -121.8764667,
       37.3668571
      ],
      [
       -121.8764855,
       37.3668716
      ],
      [
       -121.876486,
       37.3669011
      ],
      [
       -121.8765047,
       37.3669157
      ],
      [
       -121.8765055,
       37.3669599
      ],
      [
       -121.8765243,
       37.3669745
      ],
      [
       -121.8765251,
       37.3670187
      ],
      [
       -121.8765438,
       37.3670333
      ],
      [
       -121.8765451,
       37.367107
      ],
      [
       -121.8765639,
       37.3671216
      ],
      [
       -121.8765644,
       37.3671511
      ],
      [
       -121.8765831,
       37.3671656
      ],
      [
       -121.8765842,
       37.3672246
      ],
      [
       -121.8766029,
       37.3672391
      ],
      [
       -121.8766034,
       37.3672686
      ],
      [
       -121.8766222,
       37.3672832
      ],
      [
       -121.8766227,
       37.3673127
      ],
      [
       -121.8766415,
       37.3673272
      ],
      [
       -121.8766421,
       37.3673628
      ],
      [
       -121.8766003,
       37.3673971
      ],
      [
       -121.8765264,
       37.367398
      ],
      [
       -121.8765082,
       37.3674129
      ],
      [
       -121.8764527,
       37.3674136
      ],
      [
       -121.8764345,
       37.3674285
      ],
      [
       -121.8763975,
       37.3674289
      ],
      [
       -121.8763793,
       37.3674439
      ],
      [
       -121.8763424,
       37.3674443
      ],
      [
       -121.8763241,
       37.3674593
      ],
      [
       -121.8762502,
       37.3674601
      ],
      [
       -121.876232,
       37.3674751
      ],
      [
       -121.876195,
       37.3674755
      ],
      [
       -121.8761768,
       37.3674905
      ],
      [
       -121.8761399,
       37.3674909
      ],
      [
       -121.8761216,
       37.3675058
      ],
      [
       -121.8760292,
       37.3675069
      ],
      [
       -121.876011,
       37.3675218
      ],
      [
       -121.8759741,
       37.3675223
      ],
      [
       -121.8759558,
       37.3675372
      ],
      [
       -121.8758927,
       37.3675379
      ]
     ]
    ]
   }
  },
  {
   "type": "Feature",
   "properties": {
    "kind": "block",
    "block": "12",
    "label": "Development area 12, up to 160 ft",
    "stage": "entitled",
    "height_ft": 160,
    "podium_ft": null,
    "base_ft": 0,
    "use": null,
    "phase": null,
    "illustrative": true,
    "source": "illustrative: drawn to the 160-ft height limit traced from Planning Commission supplemental staff report, File Nos. GP20-008 and C21-001 (Berryessa BART Urban Village Plan), May 5, 2021, Figure 1: BBUV Plan Height Limit Diagram, p. 12 of 20 (https://legistar.granicus.com/sanjose/attachments/afe4bc58-e013-42b2-870b-ccdbfd873751.pdf)",
    "note": "Height limit of the Berryessa BART Urban Village Plan, which the PD zoning (PDC17-051) adopts; drawn as an envelope, not a building design."
   },
   "geometry": {
    "type": "Polygon",
    "coordinates": [
     [
      [
       -121.8769274,
       37.3675115
      ],
      [
       -121.8768844,
       37.3674781
      ],
      [
       -121.8768842,
       37.3674634
      ],
      [
       -121.8768654,
       37.3674488
      ],
      [
       -121.876864,
       37.367369
      ],
      [
       -121.8769058,
       37.3673347
      ],
      [
       -121.8769428,
       37.3673342
      ],
      [
       -121.876961,
       37.3673193
      ],
      [
       -121.8770349,
       37.3673184
      ],
      [
       -121.8770531,
       37.3673035
      ],
      [
       -121.8771086,
       37.3673029
      ],
      [
       -121.8771268,
       37.3672879
      ],
      [
       -121.8771637,
       37.3672875
      ],
      [
       -121.8772131,
       37.367247
      ],
      [
       -121.8772113,
       37.3671498
      ],
      [
       -121.8771739,
       37.3671208
      ],
      [
       -121.8771736,
       37.367106
      ],
      [
       -121.8771548,
       37.3670915
      ],
      [
       -121.8771543,
       37.367062
      ],
      [
       -121.8771356,
       37.3670474
      ],
      [
       -121.8771351,
       37.3670179
      ],
      [
       -121.8771163,
       37.3670034
      ],
      [
       -121.877116,
       37.3669886
      ],
      [
       -121.8769099,
       37.3668287
      ],
      [
       -121.8769096,
       37.3668139
      ],
      [
       -121.8766659,
       37.3666249
      ],
      [
       -121.876665,
       37.3665745
      ],
      [
       -121.8767197,
       37.3665296
      ],
      [
       -121.8767194,
       37.3665106
      ],
      [
       -121.8767433,
       37.3665103
      ],
      [
       -121.8767797,
       37.3664804
      ],
      [
       -121.8768058,
       37.3664801
      ],
      [
       -121.8768621,
       37.3665237
      ],
      [
       -121.876886,
       37.3665234
      ],
      [
       -121.8768863,
       37.3665425
      ],
      [
       -121.8769613,
       37.3666007
      ],
      [
       -121.8769615,
       37.3666154
      ],
      [
       -121.8770498,
       37.3666839
      ],
      [
       -121.8770682,
       37.3666837
      ],
      [
       -121.87713,
       37.3667315
      ],
      [
       -121.8771302,
       37.3667463
      ],
      [
       -121.8771435,
       37.3667566
      ],
      [
       -121.8771674,
       37.3667563
      ],
      [
       -121.8771677,
       37.3667754
      ],
      [
       -121.8772427,
       37.3668335
      ],
      [
       -121.8772429,
       37.3668483
      ],
      [
       -121.8773742,
       37.3669501
      ],
      [
       -121.8773744,
       37.3669648
      ],
      [
       -121.8774306,
       37.3670085
      ],
      [
       -121.8774325,
       37.3671117
      ],
      [
       -121.8774512,
       37.3671263
      ],
      [
       -121.8774515,
       37.367141
      ],
      [
       -121.8774702,
       37.3671555
      ],
      [
       -121.8774705,
       37.3671703
      ],
      [
       -121.8774892,
       37.3671848
      ],
      [
       -121.8774898,
       37.3672143
      ],
      [
       -121.8775085,
       37.3672289
      ],
      [
       -121.8775091,
       37.3672645
      ],
      [
       -121.8774909,
       37.3672795
      ],
      [
       -121.8774916,
       37.3673176
      ],
      [
       -121.8775103,
       37.3673321
      ],
      [
       -121.8775113,
       37.3673868
      ],
      [
       -121.8774613,
       37.3673874
      ],
      [
       -121.8774425,
       37.3673728
      ],
      [
       -121.8774241,
       37.3673731
      ],
      [
       -121.8774092,
       37.3673615
      ],
      [
       -121.8773219,
       37.3674332
      ],
      [
       -121.8773034,
       37.3674334
      ],
      [
       -121.8772852,
       37.3674484
      ],
      [
       -121.8772667,
       37.3674486
      ],
      [
       -121.8772485,
       37.3674636
      ],
      [
       -121.8771746,
       37.3674644
      ],
      [
       -121.8771563,
       37.3674794
      ],
      [
       -121.8771194,
       37.3674798
      ],
      [
       -121.8771012,
       37.3674947
      ],
      [
       -121.8770272,
       37.3674956
      ],
      [
       -121.877009,
       37.3675105
      ],
      [
       -121.8769274,
       37.3675115
      ]
     ]
    ]
   }
  },
  {
   "type": "Feature",
   "properties": {
    "kind": "block",
    "block": "13",
    "label": "Development area 13, up to 90 ft",
    "stage": "entitled",
    "height_ft": 90,
    "podium_ft": null,
    "base_ft": 0,
    "use": null,
    "phase": null,
    "illustrative": true,
    "source": "illustrative: drawn to the 90-ft height limit traced from Planning Commission supplemental staff report, File Nos. GP20-008 and C21-001 (Berryessa BART Urban Village Plan), May 5, 2021, Figure 1: BBUV Plan Height Limit Diagram, p. 12 of 20 (https://legistar.granicus.com/sanjose/attachments/afe4bc58-e013-42b2-870b-ccdbfd873751.pdf)",
    "note": "Height limit of the Berryessa BART Urban Village Plan, which the PD zoning (PDC17-051) adopts; drawn as an envelope, not a building design."
   },
   "geometry": {
    "type": "Polygon",
    "coordinates": [
     [
      [
       -121.8768688,
       37.3673351
      ],
      [
       -121.8768259,
       37.3673017
      ],
      [
       -121.8768256,
       37.367287
      ],
      [
       -121.8768069,
       37.3672724
      ],
      [
       -121.8768061,
       37.3672282
      ],
      [
       -121.8767873,
       37.3672137
      ],
      [
       -121.8767865,
       37.3671694
      ],
      [
       -121.8767678,
       37.3671549
      ],
      [
       -121.876767,
       37.3671106
      ],
      [
       -121.8767483,
       37.3670961
      ],
      [
       -121.8767472,
       37.3670371
      ],
      [
       -121.8767285,
       37.3670225
      ],
      [
       -121.8767274,
       37.3669635
      ],
      [
       -121.8767087,
       37.366949
      ],
      [
       -121.8767079,
       37.3669047
      ],
      [
       -121.8766891,
       37.3668902
      ],
      [
       -121.8766889,
       37.3668754
      ],
      [
       -121.8766701,
       37.3668609
      ],
      [
       -121.8766691,
       37.3668019
      ],
      [
       -121.8766503,
       37.3667873
      ],
      [
       -121.8766496,
       37.3667431
      ],
      [
       -121.8766308,
       37.3667286
      ],
      [
       -121.8766299,
       37.3666782
      ],
      [
       -121.8766535,
       37.3666589
      ],
      [
       -121.8766981,
       37.3666583
      ],
      [
       -121.876891,
       37.366808
      ],
      [
       -121.8768913,
       37.3668228
      ],
      [
       -121.8771162,
       37.3669973
      ],
      [
       -121.8771165,
       37.367012
      ],
      [
       -121.8771352,
       37.3670266
      ],
      [
       -121.8771363,
       37.3670856
      ],
      [
       -121.877155,
       37.3671001
      ],
      [
       -121.8771558,
       37.3671444
      ],
      [
       -121.8771745,
       37.3671589
      ],
      [
       -121.8771752,
       37.3671945
      ],
      [
       -121.8771569,
       37.3672095
      ],
      [
       -121.8771577,
       37.3672537
      ],
      [
       -121.877116,
       37.367288
      ],
      [
       -121.877079,
       37.3672884
      ],
      [
       -121.8770608,
       37.3673034
      ],
      [
       -121.8770053,
       37.367304
      ],
      [
       -121.8769871,
       37.367319
      ],
      [
       -121.8769317,
       37.3673196
      ],
      [
       -121.8769135,
       37.3673346
      ],
      [
       -121.8768688,
       37.3673351
      ]
     ]
    ]
   }
  },
  {
   "type": "Feature",
   "properties": {
    "kind": "block",
    "block": "14",
    "label": "Development area 14, up to 160 ft",
    "stage": "entitled",
    "height_ft": 160,
    "podium_ft": null,
    "base_ft": 0,
    "use": null,
    "phase": null,
    "illustrative": true,
    "source": "illustrative: drawn to the 160-ft height limit traced from Planning Commission supplemental staff report, File Nos. GP20-008 and C21-001 (Berryessa BART Urban Village Plan), May 5, 2021, Figure 1: BBUV Plan Height Limit Diagram, p. 12 of 20 (https://legistar.granicus.com/sanjose/attachments/afe4bc58-e013-42b2-870b-ccdbfd873751.pdf)",
    "note": "Height limit of the Berryessa BART Urban Village Plan, which the PD zoning (PDC17-051) adopts; drawn as an envelope, not a building design."
   },
   "geometry": {
    "type": "Polygon",
    "coordinates": [
     [
      [
       -121.8745136,
       37.3669044
      ],
      [
       -121.8744706,
       37.366871
      ],
      [
       -121.8744698,
       37.3668268
      ],
      [
       -121.8744511,
       37.3668122
      ],
      [
       -121.8744495,
       37.3667237
      ],
      [
       -121.8744308,
       37.3667092
      ],
      [
       -121.8744305,
       37.3666944
      ],
      [
       -121.8744118,
       37.3666799
      ],
      [
       -121.8744112,
       37.3666504
      ],
      [
       -121.8743925,
       37.3666359
      ],
      [
       -121.8743915,
       37.3665769
      ],
      [
       -121.8743727,
       37.3665623
      ],
      [
       -121.8743711,
       37.3664738
      ],
      [
       -121.8743524,
       37.3664593
      ],
      [
       -121.8743514,
       37.3664003
      ],
      [
       -121.8743326,
       37.3663857
      ],
      [
       -121.8743324,
       37.366371
      ],
      [
       -121.8743136,
       37.3663564
      ],
      [
       -121.8743131,
       37.3663269
      ],
      [
       -121.8742943,
       37.3663124
      ],
      [
       -121.874293,
       37.3662386
      ],
      [
       -121.8742743,
       37.3662241
      ],
      [
       -121.8742738,
       37.3661946
      ],
      [
       -121.874255,
       37.36618
      ],
      [
       -121.8742541,
       37.3661297
      ],
      [
       -121.8742959,
       37.3660954
      ],
      [
       -121.8743698,
       37.3660945
      ],
      [
       -121.874388,
       37.3660796
      ],
      [
       -121.874425,
       37.3660792
      ],
      [
       -121.8744432,
       37.3660642
      ],
      [
       -121.8745541,
       37.366063
      ],
      [
       -121.8745723,
       37.366048
      ],
      [
       -121.8746093,
       37.3660476
      ],
      [
       -121.8746275,
       37.3660326
      ],
      [
       -121.8746645,
       37.3660322
      ],
      [
       -121.8746827,
       37.3660172
      ],
      [
       -121.8747381,
       37.3660166
      ],
      [
       -121.8747564,
       37.3660017
      ],
      [
       -121.8748118,
       37.366001
      ],
      [
       -121.87483,
       37.3659861
      ],
      [
       -121.8748855,
       37.3659854
      ],
      [
       -121.8749037,
       37.3659705
      ],
      [
       -121.8749591,
       37.3659699
      ],
      [
       -121.8749773,
       37.3659549
      ],
      [
       -121.8750404,
       37.3659542
      ],
      [
       -121.8750834,
       37.3659875
      ],
      [
       -121.8750837,
       37.3660023
      ],
      [
       -121.8751024,
       37.3660168
      ],
      [
       -121.8751032,
       37.3660611
      ],
      [
       -121.8751219,
       37.3660756
      ],
      [
       -121.8751227,
       37.3661199
      ],
      [
       -121.8751415,
       37.3661344
      ],
      [
       -121.8751423,
       37.3661787
      ],
      [
       -121.875161,
       37.3661932
      ],
      [
       -121.8751618,
       37.3662374
      ],
      [
       -121.8751805,
       37.366252
      ],
      [
       -121.8751813,
       37.3662962
      ],
      [
       -121.8752001,
       37.3663108
      ],
      [
       -121.8752009,
       37.366355
      ],
      [
       -121.8752196,
       37.3663696
      ],
      [
       -121.8752204,
       37.3664138
      ],
      [
       -121.8752391,
       37.3664284
      ],
      [
       -121.8752407,
       37.3665169
      ],
      [
       -121.8752594,
       37.3665314
      ],
      [
       -121.87526,
       37.3665609
      ],
      [
       -121.8752787,
       37.3665755
      ],
      [
       -121.875279,
       37.3665902
      ],
      [
       -121.8752977,
       37.3666048
      ],
      [
       -121.8752985,
       37.366649
      ],
      [
       -121.8753172,
       37.3666635
      ],
      [
       -121.8753181,
       37.3667139
      ],
      [
       -121.8752581,
       37.3667632
      ],
      [
       -121.8752397,
       37.3667634
      ],
      [
       -121.8752214,
       37.3667783
      ],
      [
       -121.875166,
       37.366779
      ],
      [
       -121.8751478,
       37.3667939
      ],
      [
       -121.8750923,
       37.3667946
      ],
      [
       -121.8750741,
       37.3668095
      ],
      [
       -121.8750002,
       37.3668104
      ],
      [
       -121.874982,
       37.3668253
      ],
      [
       -121.8749635,
       37.3668255
      ],
      [
       -121.8749453,
       37.3668405
      ],
      [
       -121.8748529,
       37.3668415
      ],
      [
       -121.8748346,
       37.3668565
      ],
      [
       -121.8748162,
       37.3668567
      ],
      [
       -121.8747979,
       37.3668717
      ],
      [
       -121.8747055,
       37.3668727
      ],
      [
       -121.8746873,
       37.3668877
      ],
      [
       -121.8746504,
       37.3668881
      ],
      [
       -121.8746321,
       37.366903
      ],
      [
       -121.8745136,
       37.3669044
      ]
     ]
    ]
   }
  },
  {
   "type": "Feature",
   "properties": {
    "kind": "block",
    "block": "15",
    "label": "Development area 15, up to 90 ft",
    "stage": "entitled",
    "height_ft": 90,
    "podium_ft": null,
    "base_ft": 0,
    "use": null,
    "phase": null,
    "illustrative": true,
    "source": "illustrative: drawn to the 90-ft height limit traced from Planning Commission supplemental staff report, File Nos. GP20-008 and C21-001 (Berryessa BART Urban Village Plan), May 5, 2021, Figure 1: BBUV Plan Height Limit Diagram, p. 12 of 20 (https://legistar.granicus.com/sanjose/attachments/afe4bc58-e013-42b2-870b-ccdbfd873751.pdf)",
    "note": "Height limit of the Berryessa BART Urban Village Plan, which the PD zoning (PDC17-051) adopts; drawn as an envelope, not a building design."
   },
   "geometry": {
    "type": "Polygon",
    "coordinates": [
     [
      [
       -121.8756188,
       37.3666853
      ],
      [
       -121.8755571,
       37.3666374
      ],
      [
       -121.875556,
       37.3665784
      ],
      [
       -121.8755373,
       37.3665639
      ],
      [
       -121.8755368,
       37.3665344
      ],
      [
       -121.875518,
       37.3665199
      ],
      [
       -121.8755167,
       37.3664461
      ],
      [
       -121.875498,
       37.3664316
      ],
      [
       -121.8754977,
       37.3664168
      ],
      [
       -121.875479,
       37.3664023
      ],
      [
       -121.8754782,
       37.366358
      ],
      [
       -121.8754594,
       37.3663435
      ],
      [
       -121.8754584,
       37.3662845
      ],
      [
       -121.8754396,
       37.3662699
      ],
      [
       -121.8754391,
       37.3662404
      ],
      [
       -121.8754204,
       37.3662259
      ],
      [
       -121.8754193,
       37.3661669
      ],
      [
       -121.8754006,
       37.3661523
      ],
      [
       -121.8754002,
       37.3661315
      ],
      [
       -121.8754602,
       37.3660822
      ],
      [
       -121.8754972,
       37.3660818
      ],
      [
       -121.8755154,
       37.3660668
      ],
      [
       -121.8755708,
       37.3660662
      ],
      [
       -121.875589,
       37.3660512
      ],
      [
       -121.875626,
       37.3660508
      ],
      [
       -121.8756442,
       37.3660359
      ],
      [
       -121.8756997,
       37.3660352
      ],
      [
       -121.8757179,
       37.3660203
      ],
      [
       -121.8757733,
       37.3660197
      ],
      [
       -121.8757916,
       37.3660047
      ],
      [
       -121.87581,
       37.3660045
      ],
      [
       -121.8758283,
       37.3659895
      ],
      [
       -121.8758913,
       37.3659888
      ],
      [
       -121.8759101,
       37.3660034
      ],
      [
       -121.8759286,
       37.3660031
      ],
      [
       -121.8759715,
       37.3660365
      ],
      [
       -121.8759718,
       37.3660512
      ],
      [
       -121.876178,
       37.3662112
      ],
      [
       -121.8761782,
       37.3662259
      ],
      [
       -121.8763469,
       37.3663568
      ],
      [
       -121.8763472,
       37.3663716
      ],
      [
       -121.8764409,
       37.3664443
      ],
      [
       -121.8764412,
       37.366459
      ],
      [
       -121.8764638,
       37.3664766
      ],
      [
       -121.8764183,
       37.366514
      ],
      [
       -121.8763813,
       37.3665144
      ],
      [
       -121.8763631,
       37.3665294
      ],
      [
       -121.8763446,
       37.3665296
      ],
      [
       -121.8763264,
       37.3665445
      ],
      [
       -121.8762709,
       37.3665452
      ],
      [
       -121.8762527,
       37.3665601
      ],
      [
       -121.8761973,
       37.3665607
      ],
      [
       -121.876179,
       37.3665757
      ],
      [
       -121.8761236,
       37.3665763
      ],
      [
       -121.8761054,
       37.3665913
      ],
      [
       -121.8760684,
       37.3665917
      ],
      [
       -121.8760502,
       37.3666067
      ],
      [
       -121.8759948,
       37.3666073
      ],
      [
       -121.8759765,
       37.3666223
      ],
      [
       -121.8759211,
       37.3666229
      ],
      [
       -121.8759029,
       37.3666378
      ],
      [
       -121.8758474,
       37.3666385
      ],
      [
       -121.8758292,
       37.3666534
      ],
      [
       -121.8757368,
       37.3666545
      ],
      [
       -121.8757186,
       37.3666694
      ],
      [
       -121.8757001,
       37.3666696
      ],
      [
       -121.8756819,
       37.3666846
      ],
      [
       -121.8756188,
       37.3666853
      ]
     ]
    ]
   }
  },
  {
   "type": "Feature",
   "properties": {
    "kind": "block",
    "block": "16",
    "label": "Development area 16, up to 160 ft",
    "stage": "entitled",
    "height_ft": 160,
    "podium_ft": null,
    "base_ft": 0,
    "use": null,
    "phase": null,
    "illustrative": true,
    "source": "illustrative: drawn to the 160-ft height limit traced from Planning Commission supplemental staff report, File Nos. GP20-008 and C21-001 (Berryessa BART Urban Village Plan), May 5, 2021, Figure 1: BBUV Plan Height Limit Diagram, p. 12 of 20 (https://legistar.granicus.com/sanjose/attachments/afe4bc58-e013-42b2-870b-ccdbfd873751.pdf)",
    "note": "Height limit of the Berryessa BART Urban Village Plan, which the PD zoning (PDC17-051) adopts; drawn as an envelope, not a building design."
   },
   "geometry": {
    "type": "Polygon",
    "coordinates": [
     [
      [
       -121.8764835,
       37.3664542
      ],
      [
       -121.8764647,
       37.3664397
      ],
      [
       -121.8764463,
       37.3664399
      ],
      [
       -121.8763658,
       37.3663775
      ],
      [
       -121.8763655,
       37.3663627
      ],
      [
       -121.8761219,
       37.3661737
      ],
      [
       -121.8761216,
       37.3661589
      ],
      [
       -121.8759717,
       37.3660426
      ],
      [
       -121.8759714,
       37.3660278
      ],
      [
       -121.8759394,
       37.366003
      ],
      [
       -121.8759209,
       37.3660032
      ],
      [
       -121.8758834,
       37.3659741
      ],
      [
       -121.8758356,
       37.3659747
      ],
      [
       -121.8758174,
       37.3659897
      ],
      [
       -121.8757989,
       37.3659899
      ],
      [
       -121.8757807,
       37.3660048
      ],
      [
       -121.8757438,
       37.3660052
      ],
      [
       -121.8757255,
       37.3660202
      ],
      [
       -121.8756701,
       37.3660208
      ],
      [
       -121.8756519,
       37.3660358
      ],
      [
       -121.8756149,
       37.3660362
      ],
      [
       -121.8755967,
       37.3660512
      ],
      [
       -121.8755597,
       37.3660516
      ],
      [
       -121.8755415,
       37.3660665
      ],
      [
       -121.8754861,
       37.3660672
      ],
      [
       -121.8754679,
       37.3660821
      ],
      [
       -121.8754048,
       37.3660828
      ],
      [
       -121.8753618,
       37.3660495
      ],
      [
       -121.875361,
       37.3660052
      ],
      [
       -121.8753423,
       37.3659907
      ],
      [
       -121.8753409,
       37.365917
      ],
      [
       -121.8753222,
       37.3659024
      ],
      [
       -121.8753197,
       37.3657635
      ],
      [
       -121.875338,
       37.3657486
      ],
      [
       -121.8753374,
       37.3657191
      ],
      [
       -121.8753557,
       37.3657041
      ],
      [
       -121.8753549,
       37.3656599
      ],
      [
       -121.8753731,
       37.3656449
      ],
      [
       -121.8753726,
       37.3656154
      ],
      [
       -121.8753908,
       37.3656005
      ],
      [
       -121.8753905,
       37.3655857
      ],
      [
       -121.8754087,
       37.3655707
      ],
      [
       -121.8754082,
       37.3655412
      ],
      [
       -121.8754264,
       37.3655263
      ],
      [
       -121.8754259,
       37.3654968
      ],
      [
       -121.8754441,
       37.3654818
      ],
      [
       -121.8754439,
       37.3654671
      ],
      [
       -121.8754621,
       37.3654521
      ],
      [
       -121.8754618,
       37.3654374
      ],
      [
       -121.8755036,
       37.3654031
      ],
      [
       -121.8755297,
       37.3654028
      ],
      [
       -121.8755485,
       37.3654173
      ],
      [
       -121.875567,
       37.3654171
      ],
      [
       -121.8756849,
       37.3655086
      ],
      [
       -121.8756852,
       37.3655234
      ],
      [
       -121.8757039,
       37.3655379
      ],
      [
       -121.8757042,
       37.3655526
      ],
      [
       -121.8757736,
       37.3656066
      ],
      [
       -121.8757921,
       37.3656063
      ],
      [
       -121.8759101,
       37.3656978
      ],
      [
       -121.8759103,
       37.3657126
      ],
      [
       -121.8760041,
       37.3657853
      ],
      [
       -121.8760043,
       37.3658001
      ],
      [
       -121.8762855,
       37.3660182
      ],
      [
       -121.8762857,
       37.3660329
      ],
      [
       -121.8764169,
       37.3661347
      ],
      [
       -121.8764172,
       37.3661495
      ],
      [
       -121.8766234,
       37.3663094
      ],
      [
       -121.8766245,
       37.3663745
      ],
      [
       -121.8765281,
       37.3664537
      ],
      [
       -121.8764835,
       37.3664542
      ]
     ]
    ]
   }
  },
  {
   "type": "Feature",
   "properties": {
    "kind": "block",
    "block": "17",
    "label": "Development area 17, up to 160 ft",
    "stage": "entitled",
    "height_ft": 160,
    "podium_ft": null,
    "base_ft": 0,
    "use": null,
    "phase": null,
    "illustrative": true,
    "source": "illustrative: drawn to the 160-ft height limit traced from Planning Commission supplemental staff report, File Nos. GP20-008 and C21-001 (Berryessa BART Urban Village Plan), May 5, 2021, Figure 1: BBUV Plan Height Limit Diagram, p. 12 of 20 (https://legistar.granicus.com/sanjose/attachments/afe4bc58-e013-42b2-870b-ccdbfd873751.pdf)",
    "note": "Height limit of the Berryessa BART Urban Village Plan, which the PD zoning (PDC17-051) adopts; drawn as an envelope, not a building design."
   },
   "geometry": {
    "type": "Polygon",
    "coordinates": [
     [
      [
       -121.8742378,
       37.3659485
      ],
      [
       -121.8742191,
       37.365934
      ],
      [
       -121.8742006,
       37.3659342
      ],
      [
       -121.8741764,
       37.3659154
      ],
      [
       -121.8741761,
       37.3659006
      ],
      [
       -121.8741574,
       37.3658861
      ],
      [
       -121.8741569,
       37.3658566
      ],
      [
       -121.8741381,
       37.365842
      ],
      [
       -121.8741373,
       37.3657978
      ],
      [
       -121.8741186,
       37.3657832
      ],
      [
       -121.8741175,
       37.3657242
      ],
      [
       -121.8740988,
       37.3657097
      ],
      [
       -121.874098,
       37.3656654
      ],
      [
       -121.8740793,
       37.3656509
      ],
      [
       -121.874078,
       37.3655772
      ],
      [
       -121.8740592,
       37.3655626
      ],
      [
       -121.8740587,
       37.3655331
      ],
      [
       -121.87404,
       37.3655186
      ],
      [
       -121.8740394,
       37.3654891
      ],
      [
       -121.8740207,
       37.3654745
      ],
      [
       -121.8740199,
       37.3654303
      ],
      [
       -121.8740012,
       37.3654157
      ],
      [
       -121.8740004,
       37.3653715
      ],
      [
       -121.8739816,
       37.3653569
      ],
      [
       -121.8739808,
       37.3653127
      ],
      [
       -121.8739621,
       37.3652981
      ],
      [
       -121.8739602,
       37.3651888
      ],
      [
       -121.8739784,
       37.3651738
      ],
      [
       -121.8739781,
       37.3651591
      ],
      [
       -121.8740017,
       37.3651397
      ],
      [
       -121.8740202,
       37.3651395
      ],
      [
       -121.8740513,
       37.365114
      ],
      [
       -121.874051,
       37.3650992
      ],
      [
       -121.874111,
       37.36505
      ],
      [
       -121.8741295,
       37.3650498
      ],
      [
       -121.8741477,
       37.3650348
      ],
      [
       -121.8741662,
       37.3650346
      ],
      [
       -121.8741844,
       37.3650196
      ],
      [
       -121.8742029,
       37.3650194
      ],
      [
       -121.8742575,
       37.3649745
      ],
      [
       -121.874276,
       37.3649743
      ],
      [
       -121.8743307,
       37.3649295
      ],
      [
       -121.8743491,
       37.3649292
      ],
      [
       -121.8744038,
       37.3648844
      ],
      [
       -121.8744223,
       37.3648842
      ],
      [
       -121.8744534,
       37.3648586
      ],
      [
       -121.8744531,
       37.3648439
      ],
      [
       -121.8744949,
       37.3648096
      ],
      [
       -121.8745134,
       37.3648094
      ],
      [
       -121.8745316,
       37.3647944
      ],
      [
       -121.8745501,
       37.3647942
      ],
      [
       -121.8745683,
       37.3647792
      ],
      [
       -121.8745868,
       37.364779
      ],
      [
       -121.8746088,
       37.364761
      ],
      [
       -121.8746314,
       37.3647785
      ],
      [
       -121.8746499,
       37.3647783
      ],
      [
       -121.8746741,
       37.3647971
      ],
      [
       -121.8746744,
       37.3648119
      ],
      [
       -121.8746931,
       37.3648264
      ],
      [
       -121.8746934,
       37.3648412
      ],
      [
       -121.8747121,
       37.3648557
      ],
      [
       -121.8747126,
       37.3648852
      ],
      [
       -121.8747314,
       37.3648997
      ],
      [
       -121.8747322,
       37.364944
      ],
      [
       -121.8747509,
       37.3649585
      ],
      [
       -121.8747517,
       37.3650028
      ],
      [
       -121.8747704,
       37.3650173
      ],
      [
       -121.8747717,
       37.3650911
      ],
      [
       -121.8747905,
       37.3651056
      ],
      [
       -121.874791,
       37.3651351
      ],
      [
       -121.8748098,
       37.3651497
      ],
      [
       -121.8748111,
       37.3652234
      ],
      [
       -121.8748298,
       37.365238
      ],
      [
       -121.8748303,
       37.3652675
      ],
      [
       -121.8748491,
       37.365282
      ],
      [
       -121.8748493,
       37.3652967
      ],
      [
       -121.8748681,
       37.3653113
      ],
      [
       -121.8748689,
       37.3653555
      ],
      [
       -121.8748876,
       37.3653701
      ],
      [
       -121.8748884,
       37.3654143
      ],
      [
       -121.8749071,
       37.3654289
      ],
      [
       -121.8749079,
       37.3654731
      ],
      [
       -121.8749267,
       37.3654877
      ],
      [
       -121.8749274,
       37.3655319
      ],
      [
       -121.8749462,
       37.3655465
      ],
      [
       -121.8749475,
       37.3656202
      ],
      [
       -121.8749662,
       37.3656348
      ],
      [
       -121.8749665,
       37.3656495
      ],
      [
       -121.8749852,
       37.3656641
      ],
      [
       -121.8749872,
       37.3657734
      ],
      [
       -121.8749454,
       37.3658077
      ],
      [
       -121.8749269,
       37.3658079
      ],
      [
       -121.8749087,
       37.3658229
      ],
      [
       -121.8748533,
       37.3658235
      ],
      [
       -121.8748351,
       37.3658385
      ],
      [
       -121.8747796,
       37.3658391
      ],
      [
       -121.8747614,
       37.3658541
      ],
      [
       -121.8746875,
       37.3658549
      ],
      [
       -121.8746693,
       37.3658699
      ],
      [
       -121.8746138,
       37.3658705
      ],
      [
       -121.8745956,
       37.3658854
      ],
      [
       -121.8745401,
       37.3658861
      ],
      [
       -121.8745219,
       37.365901
      ],
      [
       -121.8744665,
       37.3659017
      ],
      [
       -121.8744483,
       37.3659166
      ],
      [
       -121.8743928,
       37.3659172
      ],
      [
       -121.8743746,
       37.3659322
      ],
      [
       -121.8743192,
       37.3659328
      ],
      [
       -121.8743009,
       37.3659478
      ],
      [
       -121.8742378,
       37.3659485
      ]
     ]
    ]
   }
  },
  {
   "type": "Feature",
   "properties": {
    "kind": "block",
    "block": "18",
    "label": "Development area 18, up to 270 ft",
    "stage": "entitled",
    "height_ft": 270,
    "podium_ft": null,
    "base_ft": 0,
    "use": null,
    "phase": null,
    "illustrative": true,
    "source": "illustrative: drawn to the 270-ft height limit traced from Planning Commission supplemental staff report, File Nos. GP20-008 and C21-001 (Berryessa BART Urban Village Plan), May 5, 2021, Figure 1: BBUV Plan Height Limit Diagram, p. 12 of 20 (https://legistar.granicus.com/sanjose/attachments/afe4bc58-e013-42b2-870b-ccdbfd873751.pdf)",
    "note": "Height limit of the Berryessa BART Urban Village Plan, which the PD zoning (PDC17-051) adopts; drawn as an envelope, not a building design. The plan marks tower locations in these areas; towers would cover only part of them."
   },
   "geometry": {
    "type": "Polygon",
    "coordinates": [
     [
      [
       -121.8739636,
       37.3640336
      ],
      [
       -121.8739818,
       37.3640187
      ],
      [
       -121.8740079,
       37.3640184
      ],
      [
       -121.8740884,
       37.3640808
      ],
      [
       -121.8740886,
       37.3640956
      ],
      [
       -121.8742198,
       37.3641973
      ],
      [
       -121.8742201,
       37.3642121
      ],
      [
       -121.8742576,
       37.3642412
      ],
      [
       -121.8742578,
       37.3642559
      ],
      [
       -121.8742953,
       37.364285
      ],
      [
       -121.8742956,
       37.3642998
      ],
      [
       -121.8743706,
       37.3643579
      ],
      [
       -121.8743708,
       37.3643727
      ],
      [
       -121.8743896,
       37.3643872
      ],
      [
       -121.8743906,
       37.3644462
      ],
      [
       -121.8744094,
       37.3644608
      ],
      [
       -121.8744096,
       37.3644755
      ],
      [
       -121.8744604,
       37.3645149
      ],
      [
       -121.8744788,
       37.3645147
      ],
      [
       -121.8745218,
       37.364548
      ],
      [
       -121.8745222,
       37.3645689
      ],
      [
       -121.874504,
       37.3645838
      ],
      [
       -121.8745043,
       37.3646029
      ],
      [
       -121.8744804,
       37.3646032
      ],
      [
       -121.8743711,
       37.3646929
      ],
      [
       -121.8743526,
       37.3646931
      ],
      [
       -121.8743162,
       37.3647231
      ],
      [
       -121.8742977,
       37.3647233
      ],
      [
       -121.8742248,
       37.3647831
      ],
      [
       -121.8742063,
       37.3647833
      ],
      [
       -121.8741699,
       37.3648132
      ],
      [
       -121.8741514,
       37.3648135
      ],
      [
       -121.8740785,
       37.3648733
      ],
      [
       -121.8740601,
       37.3648735
      ],
      [
       -121.8739872,
       37.3649333
      ],
      [
       -121.8739687,
       37.3649335
      ],
      [
       -121.8739505,
       37.3649485
      ],
      [
       -121.873932,
       37.3649487
      ],
      [
       -121.87391,
       37.3649668
      ],
      [
       -121.8738632,
       37.3649304
      ],
      [
       -121.8738624,
       37.3648862
      ],
      [
       -121.8738436,
       37.3648716
      ],
      [
       -121.8738428,
       37.3648274
      ],
      [
       -121.8738241,
       37.3648128
      ],
      [
       -121.8738238,
       37.3647981
      ],
      [
       -121.8738051,
       37.3647835
      ],
      [
       -121.8738046,
       37.364754
      ],
      [
       -121.8737858,
       37.3647395
      ],
      [
       -121.8737855,
       37.3647186
      ],
      [
       -121.8738037,
       37.3647037
      ],
      [
       -121.8738027,
       37.3646508
      ],
      [
       -121.873784,
       37.3646362
      ],
      [
       -121.8737837,
       37.3646215
      ],
      [
       -121.873765,
       37.3646069
      ],
      [
       -121.8737645,
       37.3645774
      ],
      [
       -121.8737457,
       37.3645629
      ],
      [
       -121.8737449,
       37.3645187
      ],
      [
       -121.8737262,
       37.3645041
      ],
      [
       -121.8737259,
       37.3644894
      ],
      [
       -121.8737072,
       37.3644748
      ],
      [
       -121.8737059,
       37.3644011
      ],
      [
       -121.8736871,
       37.3643865
      ],
      [
       -121.8736861,
       37.3643275
      ],
      [
       -121.8736674,
       37.364313
      ],
      [
       -121.8736668,
       37.3642835
      ],
      [
       -121.8736481,
       37.3642689
      ],
      [
       -121.8736478,
       37.3642518
      ],
      [
       -121.873955,
       37.3640337
      ],
      [
       -121.8739636,
       37.3640336
      ]
     ]
    ]
   }
  }
 ]
}
