{"type":"FeatureCollection","properties":{"project":"parkmerced","illustrative":true,"summary":"Illustrative massing: Parkmerced's 22 development blocks are drawn to the height limits of the city's zoning map, which matches the Maximum Height Plan in the adopted Design Standards and Guidelines, not as building designs: a low-rise fabric of 45 and 65 ft, with mid-rise and tower envelopes of 85 to 145 ft shown over the fabric height, where taller buildings may rise. The 11 existing towers that stay are in the base map and aren't redrawn; streets and open space aren't drawn. No new building has been built.","note":"Blocks are drawn to their height limits, not as building designs; real buildings will be smaller and the taller envelopes won't be filled.","sourceUrl":"https://default.sfplanning.org/publications_reports/parkmerced/Parkmerced_Final_Design_Standards_and_Guidelines_Revised-09-16-14.pdf","sourceLabel":"Design standards and guidelines, 2014 (PDF)","georeference":{"zoning":"GIS layer, used as published (no tracing)","figure_03_03_c":{"scale_m_per_unit":1.90285,"rotation_deg":-1.729,"rms_m":6.4,"controls":[{"label":"115-ft label at figure (192, 222) pt","residual_m":8.63},{"label":"85-ft label at figure (152, 238) pt","residual_m":11.43},{"label":"85-ft label at figure (155, 179) pt","residual_m":1.26},{"label":"85-ft label at figure (309, 192) pt","residual_m":15.14},{"label":"85-ft label at figure (195, 193) pt","residual_m":4.68},{"label":"85-ft label at figure (228, 192) pt","residual_m":4.7},{"label":"85-ft label at figure (227, 397) pt","residual_m":5.11},{"label":"85-ft label at figure (160, 397) pt","residual_m":5.04},{"label":"85-ft label at figure (151, 359) pt","residual_m":3.26},{"label":"85-ft label at figure (155, 279) pt","residual_m":1.69},{"label":"105-ft label at figure (195, 142) pt","residual_m":1.3},{"label":"105-ft label at figure (272, 166) pt","residual_m":3.62},{"label":"105-ft label at figure (391, 150) pt","residual_m":3.87},{"label":"105-ft label at figure (376, 199) pt","residual_m":10.83},{"label":"105-ft label at figure (228, 359) pt","residual_m":5.04},{"label":"105-ft label at figure (302, 324) pt","residual_m":2.86},{"label":"85-ft label at figure (201, 308) pt","residual_m":16.92},{"label":"85-ft label at figure (229, 309) pt","residual_m":5.05},{"label":"85-ft label at figure (272, 339) pt","residual_m":4.9},{"label":"105-ft label at figure (385, 351) pt","residual_m":0.72},{"label":"105-ft label at figure (473, 345) pt","residual_m":1.89},{"label":"85-ft label at figure (362, 304) pt","residual_m":4.87},{"label":"85-ft label at figure (457, 309) pt","residual_m":3.46},{"label":"145-ft label at figure (539, 376) pt","residual_m":4.42},{"label":"145-ft label at figure (620, 432) pt","residual_m":1.44},{"label":"85-ft label at figure (520, 358) pt","residual_m":9.3},{"label":"85-ft label at figure (539, 325) pt","residual_m":3.33},{"label":"85-ft label at figure (563, 224) pt","residual_m":6.51},{"label":"95-ft label at figure (477, 282) pt","residual_m":12.41},{"label":"85-ft label at figure (517, 276) pt","residual_m":5.52},{"label":"85-ft label at figure (514, 222) pt","residual_m":3.02},{"label":"95-ft label at figure (468, 239) pt","residual_m":1.67},{"label":"115-ft label at figure (536, 171) pt","residual_m":4.98},{"label":"145-ft label at figure (432, 205) pt","residual_m":5.88},{"label":"85-ft label at figure (443, 155) pt","residual_m":1.52},{"label":"95-ft label at figure (482, 195) pt","residual_m":10.19},{"label":"145-ft label at figure (643, 328) pt","residual_m":3.78},{"label":"145-ft label at figure (685, 521) pt","residual_m":11.49},{"label":"145-ft label at figure (590, 407) pt","residual_m":4.39},{"label":"105-ft label at figure (349, 238) pt","residual_m":3.32},{"label":"105-ft label at figure (571, 301) pt","residual_m":2.8},{"label":"105-ft label at figure (561, 271) pt","residual_m":1.22},{"label":"115-ft label at figure (195, 275) pt","residual_m":3.38},{"label":"145-ft label at figure (309, 275) pt","residual_m":8.5},{"label":"145-ft label at figure (308, 223) pt","residual_m":11.38},{"label":"85-ft label at figure (161, 99) pt","residual_m":1.16},{"label":"95-ft label at figure (462, 174) pt","residual_m":2.25},{"label":"85-ft label at figure (423, 362) pt","residual_m":1.77},{"label":"85-ft label at figure (510, 383) pt","residual_m":2.14},{"label":"105-ft label at figure (341, 278) pt","residual_m":3.06}],"method":"height labels matched to the zoning districts of the same height; similarity fitted to their centroids","use":"block numbers and a zone-by-zone height check (the label offsets inside the boxes account for most of the RMS)","check":"61 of 61 height labels fall in a zoning district of that height; 32 of 33 drawn fabric zones have the figure's fill for their height","differences":["zoning 45-PM (609 m², at 546508 E 4174331 N) is 65 ft in the figure"],"left_out":"36 zoning pieces (18762 m²) that are streets, medians or rights-of-way in the figure"}},"license":"Block shapes: DataSF zoning map (Public Domain U.S. Government)."},"features":[{"type":"Feature","properties":{"kind":"block","block":"01","label":"Block 01","stage":"entitled","height_ft":45,"podium_ft":null,"base_ft":0,"use":null,"phase":null,"illustrative":true,"source":"illustrative: drawn to the height limit of zoning district \"45-PM\" in DataSF Zoning Map – Height and Bulk Districts (https://data.sf.gov/d/h9wh-cg3m); Standard 03.03.01 and block number from Parkmerced Design Standards and Guidelines (revised 09-16-14), Figure 03.03.C, Maximum Height Plan, p. 103","note":"Neighborhood fabric: low-rise buildings up to this height.","fid":1},"geometry":{"type":"MultiPolygon","coordinates":[[[[-122.4831347,37.7210965],[-122.4831621,37.7205142],[-122.4831027,37.7205152],[-122.4831051,37.7204698],[-122.4833775,37.7204785],[-122.4833782,37.7204885],[-122.4833868,37.7204935],[-122.4835515,37.7205],[-122.4835618,37.7204956],[-122.4835639,37.7204844],[-122.4836258,37.7204864],[-122.4839244,37.7202343],[-122.4839316,37.7198911],[-122.4846239,37.7199129],[-122.4846518,37.7199211],[-122.4846906,37.7199223],[-122.4846969,37.7205107],[-122.4841854,37.7204951],[-122.4838386,37.7207593],[-122.483821,37.7209438],[-122.4838287,37.7209527],[-122.4838202,37.7211186],[-122.4831347,37.7210965]],[[-122.4831944,37.7207051],[-122.4831832,37.7210591],[-122.4835459,37.7210667],[-122.4835535,37.7207045],[-122.4831944,37.7207051]]]]}},{"type":"Feature","properties":{"kind":"block","block":"01","label":"Block 01","stage":"entitled","height_ft":85,"podium_ft":45,"base_ft":0,"use":null,"phase":null,"illustrative":true,"source":"illustrative: drawn to the height limit of zoning district \"85-PM\" in DataSF Zoning Map – Height and Bulk Districts (https://data.sf.gov/d/h9wh-cg3m); Standard 03.03.01 and block number from Parkmerced Design Standards and Guidelines (revised 09-16-14), Figure 03.03.C, Maximum Height Plan, p. 103; envelope over the 45-ft limit of the fabric around it","note":"Mid-rise buildable envelope: a building may rise to 85 ft here over the 45-ft fabric limit; the DSG's Regulating Plan caps the footprint at each height per block (Appendix A).","fid":2},"geometry":{"type":"MultiPolygon","coordinates":[[[[-122.4831944,37.7207051],[-122.4835535,37.7207045],[-122.4835459,37.7210667],[-122.4831832,37.7210591],[-122.4831944,37.7207051]]]]}},{"type":"Feature","properties":{"kind":"block","block":"02","label":"Block 02","stage":"entitled","height_ft":45,"podium_ft":null,"base_ft":0,"use":null,"phase":null,"illustrative":true,"source":"illustrative: drawn to the height limit of zoning district \"45-PM\" in DataSF Zoning Map – Height and Bulk Districts (https://data.sf.gov/d/h9wh-cg3m); Standard 03.03.01 and block number from Parkmerced Design Standards and Guidelines (revised 09-16-14), Figure 03.03.C, Maximum Height Plan, p. 103","note":"Neighborhood fabric: low-rise buildings up to this height.","fid":3},"geometry":{"type":"MultiPolygon","coordinates":[[[[-122.4833347,37.7183263],[-122.4834624,37.7183304],[-122.4834573,37.7184861],[-122.4833121,37.7184795],[-122.4832785,37.7184666],[-122.4832534,37.7184447],[-122.4832391,37.7184051],[-122.4832514,37.7183664],[-122.4832864,37.7183375],[-122.4833347,37.7183263]]]]}},{"type":"Feature","properties":{"kind":"block","block":"02","label":"Block 02","stage":"entitled","height_ft":45,"podium_ft":null,"base_ft":0,"use":null,"phase":null,"illustrative":true,"source":"illustrative: drawn to the height limit of zoning district \"45-PM\" in DataSF Zoning Map – Height and Bulk Districts (https://data.sf.gov/d/h9wh-cg3m); Standard 03.03.01 and block number from Parkmerced Design Standards and Guidelines (revised 09-16-14), Figure 03.03.C, Maximum Height Plan, p. 103","note":"Neighborhood fabric: low-rise buildings up to this height.","fid":4},"geometry":{"type":"MultiPolygon","coordinates":[[[[-122.4839844,37.7183479],[-122.484595,37.7183694],[-122.4846295,37.7183811],[-122.484656,37.7184022],[-122.4846706,37.7184297],[-122.4846707,37.7184608],[-122.4846599,37.7184839],[-122.4846395,37.718504],[-122.4846119,37.7185176],[-122.4845819,37.7185233],[-122.4839774,37.7185036],[-122.4839844,37.7183479]]]]}},{"type":"Feature","properties":{"kind":"block","block":"02","label":"Block 02","stage":"entitled","height_ft":45,"podium_ft":null,"base_ft":0,"use":null,"phase":null,"illustrative":true,"source":"illustrative: drawn to the height limit of zoning district \"45-PM\" in DataSF Zoning Map – Height and Bulk Districts (https://data.sf.gov/d/h9wh-cg3m); Standard 03.03.01 and block number from Parkmerced Design Standards and Guidelines (revised 09-16-14), Figure 03.03.C, Maximum Height Plan, p. 103","note":"Neighborhood fabric: low-rise buildings up to this height.","fid":5},"geometry":{"type":"MultiPolygon","coordinates":[[[[-122.4831455,37.7196909],[-122.4832068,37.7186579],[-122.4832171,37.7186393],[-122.4832384,37.7186282],[-122.4845159,37.7186639],[-122.4845395,37.7186701],[-122.484554,37.7186829],[-122.4845592,37.7186994],[-122.484564,37.7197279],[-122.4845552,37.719751],[-122.4845357,37.7197647],[-122.4845113,37.7197692],[-122.4831887,37.7197274],[-122.4831652,37.7197212],[-122.4831503,37.7197078],[-122.4831455,37.7196909]],[[-122.4832582,37.7193409],[-122.4832456,37.7196455],[-122.4837779,37.7196667],[-122.4837902,37.7193511],[-122.4832582,37.7193409]]]]}},{"type":"Feature","properties":{"kind":"block","block":"02","label":"Block 02","stage":"entitled","height_ft":85,"podium_ft":45,"base_ft":0,"use":null,"phase":null,"illustrative":true,"source":"illustrative: drawn to the height limit of zoning district \"85-PM\" in DataSF Zoning Map – Height and Bulk Districts (https://data.sf.gov/d/h9wh-cg3m); Standard 03.03.01 and block number from Parkmerced Design Standards and Guidelines (revised 09-16-14), Figure 03.03.C, Maximum Height Plan, p. 103; envelope over the 45-ft limit of the fabric around it","note":"Mid-rise buildable envelope: a building may rise to 85 ft here over the 45-ft fabric limit; the DSG's Regulating Plan caps the footprint at each height per block (Appendix A).","fid":6},"geometry":{"type":"MultiPolygon","coordinates":[[[[-122.4832582,37.7193409],[-122.4837902,37.7193511],[-122.4837779,37.7196667],[-122.4832456,37.7196455],[-122.4832582,37.7193409]]]]}},{"type":"Feature","properties":{"kind":"block","block":"02","label":"Block 02","stage":"entitled","height_ft":85,"podium_ft":45,"base_ft":0,"use":null,"phase":null,"illustrative":true,"source":"illustrative: drawn to the height limit of zoning district \"85-PM\" in DataSF Zoning Map – Height and Bulk Districts (https://data.sf.gov/d/h9wh-cg3m); Standard 03.03.01 and block number from Parkmerced Design Standards and Guidelines (revised 09-16-14), Figure 03.03.C, Maximum Height Plan, p. 103; envelope over the 45-ft limit of the fabric around it","note":"Mid-rise buildable envelope: a building may rise to 85 ft here over the 45-ft fabric limit; the DSG's Regulating Plan caps the footprint at each height per block (Appendix A).","fid":7},"geometry":{"type":"MultiPolygon","coordinates":[[[[-122.4834573,37.7184861],[-122.4834624,37.7183304],[-122.4839844,37.7183479],[-122.4839774,37.7185036],[-122.4834573,37.7184861]]]]}},{"type":"Feature","properties":{"kind":"block","block":"03","label":"Block 03","stage":"entitled","height_ft":45,"podium_ft":null,"base_ft":0,"use":null,"phase":null,"illustrative":true,"source":"illustrative: drawn to the height limit of zoning district \"45-PM\" in DataSF Zoning Map – Height and Bulk Districts (https://data.sf.gov/d/h9wh-cg3m); Standard 03.03.01 and block number from Parkmerced Design Standards and Guidelines (revised 09-16-14), Figure 03.03.C, Maximum Height Plan, p. 103","note":"Neighborhood fabric: low-rise buildings up to this height.","fid":8},"geometry":{"type":"MultiPolygon","coordinates":[[[[-122.4832921,37.7176178],[-122.4833246,37.7169195],[-122.4833582,37.7163589],[-122.4833673,37.7163382],[-122.4833838,37.716326],[-122.4834051,37.7163206],[-122.4835557,37.7163253],[-122.4835429,37.7165232],[-122.4840699,37.7165377],[-122.4840788,37.716343],[-122.484381,37.7163532],[-122.4843984,37.716358],[-122.4844105,37.7163695],[-122.4845982,37.7167084],[-122.4846303,37.7167921],[-122.4846662,37.7169375],[-122.4846718,37.7170281],[-122.4846589,37.7181643],[-122.4846498,37.7181873],[-122.4846302,37.7182008],[-122.4846051,37.7182052],[-122.4832961,37.7181666],[-122.483275,37.718162],[-122.4832559,37.7181473],[-122.4832495,37.7181274],[-122.4832921,37.7176178]],[[-122.4833299,37.7176309],[-122.4833209,37.7179383],[-122.4838634,37.7179566],[-122.4838654,37.7176411],[-122.4833299,37.7176309]]]]}},{"type":"Feature","properties":{"kind":"block","block":"03","label":"Block 03","stage":"entitled","height_ft":85,"podium_ft":45,"base_ft":0,"use":null,"phase":null,"illustrative":true,"source":"illustrative: drawn to the height limit of zoning district \"85-PM\" in DataSF Zoning Map – Height and Bulk Districts (https://data.sf.gov/d/h9wh-cg3m); Standard 03.03.01 and block number from Parkmerced Design Standards and Guidelines (revised 09-16-14), Figure 03.03.C, Maximum Height Plan, p. 103; envelope over the 45-ft limit of the fabric around it","note":"Mid-rise buildable envelope: a building may rise to 85 ft here over the 45-ft fabric limit; the DSG's Regulating Plan caps the footprint at each height per block (Appendix A).","fid":9},"geometry":{"type":"MultiPolygon","coordinates":[[[[-122.4840788,37.716343],[-122.4840699,37.7165377],[-122.4835429,37.7165232],[-122.4835557,37.7163253],[-122.4840788,37.716343]]]]}},{"type":"Feature","properties":{"kind":"block","block":"03","label":"Block 03","stage":"entitled","height_ft":85,"podium_ft":45,"base_ft":0,"use":null,"phase":null,"illustrative":true,"source":"illustrative: drawn to the height limit of zoning district \"85-PM\" in DataSF Zoning Map – Height and Bulk Districts (https://data.sf.gov/d/h9wh-cg3m); Standard 03.03.01 and block number from Parkmerced Design Standards and Guidelines (revised 09-16-14), Figure 03.03.C, Maximum Height Plan, p. 103; envelope over the 45-ft limit of the fabric around it","note":"Mid-rise buildable envelope: a building may rise to 85 ft here over the 45-ft fabric limit; the DSG's Regulating Plan caps the footprint at each height per block (Appendix A).","fid":10},"geometry":{"type":"MultiPolygon","coordinates":[[[[-122.4833299,37.7176309],[-122.4838654,37.7176411],[-122.4838634,37.7179566],[-122.4833209,37.7179383],[-122.4833299,37.7176309]]]]}},{"type":"Feature","properties":{"kind":"block","block":"04","label":"Block 04","stage":"entitled","height_ft":45,"podium_ft":null,"base_ft":0,"use":null,"phase":null,"illustrative":true,"source":"illustrative: drawn to the height limit of zoning district \"45-PM\" in DataSF Zoning Map – Height and Bulk Districts (https://data.sf.gov/d/h9wh-cg3m); Standard 03.03.01 and block number from Parkmerced Design Standards and Guidelines (revised 09-16-14), Figure 03.03.C, Maximum Height Plan, p. 103","note":"Neighborhood fabric: low-rise buildings up to this height.","fid":11},"geometry":{"type":"MultiPolygon","coordinates":[[[[-122.4833964,37.715608],[-122.4834108,37.7155802],[-122.4834433,37.7155664],[-122.4836745,37.7155727],[-122.4837408,37.715591],[-122.4837944,37.715634],[-122.4834276,37.7156252],[-122.4834144,37.7159859],[-122.4838314,37.7159993],[-122.483828,37.7156661],[-122.4842436,37.716076],[-122.4842574,37.7161173],[-122.4842365,37.7161513],[-122.4841763,37.7161896],[-122.4841015,37.7162041],[-122.4834173,37.7161804],[-122.4833874,37.7161711],[-122.4833732,37.7161564],[-122.4833685,37.716139],[-122.4833964,37.715608]]]]}},{"type":"Feature","properties":{"kind":"block","block":"04","label":"Block 04","stage":"entitled","height_ft":85,"podium_ft":45,"base_ft":0,"use":null,"phase":null,"illustrative":true,"source":"illustrative: drawn to the height limit of zoning district \"85-PM\" in DataSF Zoning Map – Height and Bulk Districts (https://data.sf.gov/d/h9wh-cg3m); Standard 03.03.01 and block number from Parkmerced Design Standards and Guidelines (revised 09-16-14), Figure 03.03.C, Maximum Height Plan, p. 103; envelope over the 45-ft limit of the fabric around it","note":"Mid-rise buildable envelope: a building may rise to 85 ft here over the 45-ft fabric limit; the DSG's Regulating Plan caps the footprint at each height per block (Appendix A).","fid":12},"geometry":{"type":"MultiPolygon","coordinates":[[[[-122.483828,37.7156661],[-122.4838314,37.7159993],[-122.4834144,37.7159859],[-122.4834276,37.7156252],[-122.4837944,37.715634],[-122.483828,37.7156661]]]]}},{"type":"Feature","properties":{"kind":"block","block":"05","label":"Block 05","stage":"entitled","height_ft":45,"podium_ft":null,"base_ft":0,"use":null,"phase":null,"illustrative":true,"source":"illustrative: drawn to the height limit of zoning district \"45-PM\" in DataSF Zoning Map – Height and Bulk Districts (https://data.sf.gov/d/h9wh-cg3m); Standard 03.03.01 and block number from Parkmerced Design Standards and Guidelines (revised 09-16-14), Figure 03.03.C, Maximum Height Plan, p. 103","note":"Neighborhood fabric: low-rise buildings up to this height.","fid":13},"geometry":{"type":"MultiPolygon","coordinates":[[[[-122.4814477,37.7202917],[-122.4815057,37.7191824],[-122.4815176,37.7191618],[-122.4815419,37.7191511],[-122.4817754,37.7191537],[-122.4817715,37.7193275],[-122.482279,37.7193363],[-122.4822828,37.7191764],[-122.4824908,37.7191823],[-122.4824856,37.719354],[-122.4829867,37.7193586],[-122.4829539,37.7199759],[-122.4823732,37.7199544],[-122.4823612,37.720256],[-122.4829381,37.720274],[-122.4829346,37.7203331],[-122.4829245,37.7203539],[-122.4829011,37.7203702],[-122.4828717,37.7203755],[-122.4814975,37.7203333],[-122.4814701,37.7203261],[-122.4814535,37.7203111],[-122.4814477,37.7202917]]]]}},{"type":"Feature","properties":{"kind":"block","block":"05","label":"Block 05","stage":"entitled","height_ft":85,"podium_ft":45,"base_ft":0,"use":null,"phase":null,"illustrative":true,"source":"illustrative: drawn to the height limit of zoning district \"85-PM\" in DataSF Zoning Map – Height and Bulk Districts (https://data.sf.gov/d/h9wh-cg3m); Standard 03.03.01 and block number from Parkmerced Design Standards and Guidelines (revised 09-16-14), Figure 03.03.C, Maximum Height Plan, p. 103; envelope over the 45-ft limit of the fabric around it","note":"Mid-rise buildable envelope: a building may rise to 85 ft here over the 45-ft fabric limit; the DSG's Regulating Plan caps the footprint at each height per block (Appendix A).","fid":14},"geometry":{"type":"MultiPolygon","coordinates":[[[[-122.4817754,37.7191537],[-122.4822828,37.7191764],[-122.482279,37.7193363],[-122.4817715,37.7193275],[-122.4817754,37.7191537]]]]}},{"type":"Feature","properties":{"kind":"block","block":"05","label":"Block 05","stage":"entitled","height_ft":85,"podium_ft":45,"base_ft":0,"use":null,"phase":null,"illustrative":true,"source":"illustrative: drawn to the height limit of zoning district \"85-PM\" in DataSF Zoning Map – Height and Bulk Districts (https://data.sf.gov/d/h9wh-cg3m); Standard 03.03.01 and block number from Parkmerced Design Standards and Guidelines (revised 09-16-14), Figure 03.03.C, Maximum Height Plan, p. 103; envelope over the 45-ft limit of the fabric around it","note":"Mid-rise buildable envelope: a building may rise to 85 ft here over the 45-ft fabric limit; the DSG's Regulating Plan caps the footprint at each height per block (Appendix A).","fid":15},"geometry":{"type":"MultiPolygon","coordinates":[[[[-122.4824908,37.7191823],[-122.4829511,37.7191963],[-122.4829751,37.7192032],[-122.4829933,37.7192297],[-122.4829867,37.7193586],[-122.4824856,37.719354],[-122.4824908,37.7191823]]]]}},{"type":"Feature","properties":{"kind":"block","block":"05","label":"Block 05","stage":"entitled","height_ft":105,"podium_ft":45,"base_ft":0,"use":null,"phase":null,"illustrative":true,"source":"illustrative: drawn to the height limit of zoning district \"105-PM\" in DataSF Zoning Map – Height and Bulk Districts (https://data.sf.gov/d/h9wh-cg3m); Standard 03.03.01 and block number from Parkmerced Design Standards and Guidelines (revised 09-16-14), Figure 03.03.C, Maximum Height Plan, p. 103; envelope over the 45-ft limit of the fabric around it","note":"Mid-rise buildable envelope: a building may rise to 105 ft here over the 45-ft fabric limit; the DSG's Regulating Plan caps the footprint at each height per block (Appendix A).","fid":16},"geometry":{"type":"MultiPolygon","coordinates":[[[[-122.4829381,37.720274],[-122.4823612,37.720256],[-122.4823732,37.7199544],[-122.4829539,37.7199759],[-122.4829381,37.720274]]]]}},{"type":"Feature","properties":{"kind":"block","block":"06","label":"Block 06","stage":"entitled","height_ft":45,"podium_ft":null,"base_ft":0,"use":null,"phase":null,"illustrative":true,"source":"illustrative: drawn to the height limit of zoning district \"45-PM\" in DataSF Zoning Map – Height and Bulk Districts (https://data.sf.gov/d/h9wh-cg3m); Standard 03.03.01 and block number from Parkmerced Design Standards and Guidelines (revised 09-16-14), Figure 03.03.C, Maximum Height Plan, p. 103","note":"Neighborhood fabric: low-rise buildings up to this height.","fid":17},"geometry":{"type":"MultiPolygon","coordinates":[[[[-122.4798183,37.7179963],[-122.4806616,37.7180216],[-122.4807086,37.7180579],[-122.4807585,37.7180245],[-122.4811139,37.7180352],[-122.4811613,37.7180726],[-122.4812136,37.7180382],[-122.4817534,37.7180594],[-122.4817949,37.718091],[-122.4818391,37.7180619],[-122.4822052,37.7180722],[-122.4822481,37.7181056],[-122.4822956,37.7180747],[-122.4830753,37.7180967],[-122.4830489,37.7183445],[-122.4830399,37.7185183],[-122.4814694,37.718473],[-122.48147,37.7184653],[-122.4798008,37.718422],[-122.4798183,37.7179963]]]]}},{"type":"Feature","properties":{"kind":"block","block":"06","label":"Block 06","stage":"entitled","height_ft":115,"podium_ft":45,"base_ft":0,"use":null,"phase":null,"illustrative":true,"source":"illustrative: drawn to the height limit of zoning district \"115-PM\" in DataSF Zoning Map – Height and Bulk Districts (https://data.sf.gov/d/h9wh-cg3m); Standard 03.03.01 and block number from Parkmerced Design Standards and Guidelines (revised 09-16-14), Figure 03.03.C, Maximum Height Plan, p. 103; envelope over the 45-ft limit of the fabric around it","note":"Mid-rise buildable envelope: a building may rise to 115 ft here over the 45-ft fabric limit; the DSG's Regulating Plan caps the footprint at each height per block (Appendix A).","fid":18},"geometry":{"type":"MultiPolygon","coordinates":[[[[-122.4823308,37.7189983],[-122.4823358,37.7188683],[-122.4823524,37.7188528],[-122.4823371,37.7188359],[-122.4823444,37.7186472],[-122.4823618,37.7186311],[-122.4823457,37.7186132],[-122.4823502,37.7184984],[-122.4830399,37.7185183],[-122.4830072,37.7189799],[-122.4829992,37.718997],[-122.4829818,37.7190088],[-122.4829812,37.71902],[-122.4823308,37.7189983]]]]}},{"type":"Feature","properties":{"kind":"block","block":"06","label":"Block 06","stage":"entitled","height_ft":115,"podium_ft":45,"base_ft":0,"use":null,"phase":null,"illustrative":true,"source":"illustrative: drawn to the height limit of zoning district \"115-PM\" in DataSF Zoning Map – Height and Bulk Districts (https://data.sf.gov/d/h9wh-cg3m); Standard 03.03.01 and block number from Parkmerced Design Standards and Guidelines (revised 09-16-14), Figure 03.03.C, Maximum Height Plan, p. 103; envelope over the 45-ft limit of the fabric around it","note":"Mid-rise buildable envelope: a building may rise to 115 ft here over the 45-ft fabric limit; the DSG's Regulating Plan caps the footprint at each height per block (Appendix A).","fid":19},"geometry":{"type":"MultiPolygon","coordinates":[[[[-122.4823665,37.7180767],[-122.4823687,37.7180218],[-122.4823854,37.7180061],[-122.4823699,37.7179887],[-122.4823769,37.7178084],[-122.4823947,37.7177919],[-122.4823783,37.7177737],[-122.4823839,37.7176283],[-122.4830538,37.7176507],[-122.4830527,37.7176717],[-122.4830793,37.7176776],[-122.4830993,37.7176932],[-122.483107,37.7177176],[-122.4830753,37.7180967],[-122.4823665,37.7180767]]]]}},{"type":"Feature","properties":{"kind":"block","block":"07","label":"Block 07","stage":"entitled","height_ft":45,"podium_ft":null,"base_ft":0,"use":null,"phase":null,"illustrative":true,"source":"illustrative: drawn to the height limit of zoning district \"45-PM\" in DataSF Zoning Map – Height and Bulk Districts (https://data.sf.gov/d/h9wh-cg3m); Standard 03.03.01 and block number from Parkmerced Design Standards and Guidelines (revised 09-16-14), Figure 03.03.C, Maximum Height Plan, p. 103","note":"Neighborhood fabric: low-rise buildings up to this height.","fid":20},"geometry":{"type":"MultiPolygon","coordinates":[[[[-122.4816484,37.7174231],[-122.4816377,37.7173975],[-122.481694,37.7163186],[-122.4817001,37.7162982],[-122.4817163,37.7162805],[-122.4817576,37.7162662],[-122.4819007,37.7162699],[-122.4818869,37.7164876],[-122.4824089,37.7164971],[-122.4824162,37.7162846],[-122.4831298,37.7163055],[-122.4831674,37.7163194],[-122.4831821,37.7163502],[-122.4831352,37.7171979],[-122.4825674,37.7171788],[-122.4825624,37.7174215],[-122.4831243,37.7174319],[-122.483121,37.7174577],[-122.483106,37.7174762],[-122.4830683,37.717488],[-122.4826258,37.7174772],[-122.4819154,37.7174505],[-122.4816801,37.7174371],[-122.4816484,37.7174231]],[[-122.4822766,37.7171029],[-122.4817132,37.7170822],[-122.4817044,37.7173977],[-122.4822607,37.7174131],[-122.4822766,37.7171029]]]]}},{"type":"Feature","properties":{"kind":"block","block":"07","label":"Block 07","stage":"entitled","height_ft":85,"podium_ft":45,"base_ft":0,"use":null,"phase":null,"illustrative":true,"source":"illustrative: drawn to the height limit of zoning district \"85-PM\" in DataSF Zoning Map – Height and Bulk Districts (https://data.sf.gov/d/h9wh-cg3m); Standard 03.03.01 and block number from Parkmerced Design Standards and Guidelines (revised 09-16-14), Figure 03.03.C, Maximum Height Plan, p. 103; envelope over the 45-ft limit of the fabric around it","note":"Mid-rise buildable envelope: a building may rise to 85 ft here over the 45-ft fabric limit; the DSG's Regulating Plan caps the footprint at each height per block (Appendix A).","fid":21},"geometry":{"type":"MultiPolygon","coordinates":[[[[-122.4831243,37.7174319],[-122.4825624,37.7174215],[-122.4825674,37.7171788],[-122.4831352,37.7171979],[-122.4831243,37.7174319]]]]}},{"type":"Feature","properties":{"kind":"block","block":"07","label":"Block 07","stage":"entitled","height_ft":85,"podium_ft":45,"base_ft":0,"use":null,"phase":null,"illustrative":true,"source":"illustrative: drawn to the height limit of zoning district \"85-PM\" in DataSF Zoning Map – Height and Bulk Districts (https://data.sf.gov/d/h9wh-cg3m); Standard 03.03.01 and block number from Parkmerced Design Standards and Guidelines (revised 09-16-14), Figure 03.03.C, Maximum Height Plan, p. 103; envelope over the 45-ft limit of the fabric around it","note":"Mid-rise buildable envelope: a building may rise to 85 ft here over the 45-ft fabric limit; the DSG's Regulating Plan caps the footprint at each height per block (Appendix A).","fid":22},"geometry":{"type":"MultiPolygon","coordinates":[[[[-122.4817132,37.7170822],[-122.4822766,37.7171029],[-122.4822607,37.7174131],[-122.4817044,37.7173977],[-122.4817132,37.7170822]]]]}},{"type":"Feature","properties":{"kind":"block","block":"07","label":"Block 07","stage":"entitled","height_ft":105,"podium_ft":45,"base_ft":0,"use":null,"phase":null,"illustrative":true,"source":"illustrative: drawn to the height limit of zoning district \"105-PM\" in DataSF Zoning Map – Height and Bulk Districts (https://data.sf.gov/d/h9wh-cg3m); Standard 03.03.01 and block number from Parkmerced Design Standards and Guidelines (revised 09-16-14), Figure 03.03.C, Maximum Height Plan, p. 103; envelope over the 45-ft limit of the fabric around it","note":"Mid-rise buildable envelope: a building may rise to 105 ft here over the 45-ft fabric limit; the DSG's Regulating Plan caps the footprint at each height per block (Appendix A).","fid":23},"geometry":{"type":"MultiPolygon","coordinates":[[[[-122.4824162,37.7162846],[-122.4824089,37.7164971],[-122.4818869,37.7164876],[-122.4819007,37.7162699],[-122.4824162,37.7162846]]]]}},{"type":"Feature","properties":{"kind":"block","block":"08","label":"Block 08","stage":"entitled","height_ft":45,"podium_ft":null,"base_ft":0,"use":null,"phase":null,"illustrative":true,"source":"illustrative: drawn to the height limit of zoning district \"45-PM\" in DataSF Zoning Map – Height and Bulk Districts (https://data.sf.gov/d/h9wh-cg3m); Standard 03.03.01 and block number from Parkmerced Design Standards and Guidelines (revised 09-16-14), Figure 03.03.C, Maximum Height Plan, p. 103","note":"Neighborhood fabric: low-rise buildings up to this height.","fid":24},"geometry":{"type":"MultiPolygon","coordinates":[[[[-122.4817289,37.7155517],[-122.4817455,37.7155217],[-122.4817829,37.7155092],[-122.4824457,37.7155334],[-122.4824441,37.7155907],[-122.4821789,37.7155806],[-122.4820909,37.7155845],[-122.4819928,37.7156439],[-122.4819554,37.7156739],[-122.4819401,37.7157001],[-122.4819378,37.7159337],[-122.4824343,37.7159465],[-122.4824288,37.7161448],[-122.4817561,37.7161256],[-122.4817218,37.7161127],[-122.4817077,37.716084],[-122.4817289,37.7155517]]]]}},{"type":"Feature","properties":{"kind":"block","block":"08","label":"Block 08","stage":"entitled","height_ft":65,"podium_ft":null,"base_ft":0,"use":null,"phase":null,"illustrative":true,"source":"illustrative: drawn to the height limit of zoning district \"65-PM\" in DataSF Zoning Map – Height and Bulk Districts (https://data.sf.gov/d/h9wh-cg3m); Standard 03.03.01 and block number from Parkmerced Design Standards and Guidelines (revised 09-16-14), Figure 03.03.C, Maximum Height Plan, p. 103","note":"Neighborhood fabric: low-rise buildings up to this height.","fid":25},"geometry":{"type":"MultiPolygon","coordinates":[[[[-122.4824457,37.7155334],[-122.4831682,37.7155573],[-122.4832056,37.7155715],[-122.4832201,37.715603],[-122.4831928,37.7161247],[-122.4831752,37.7161537],[-122.4831365,37.7161655],[-122.4824288,37.7161448],[-122.4824457,37.7155334]]]]}},{"type":"Feature","properties":{"kind":"block","block":"08","label":"Block 08","stage":"entitled","height_ft":85,"podium_ft":45,"base_ft":0,"use":null,"phase":null,"illustrative":true,"source":"illustrative: drawn to the height limit of zoning district \"85-PM\" in DataSF Zoning Map – Height and Bulk Districts (https://data.sf.gov/d/h9wh-cg3m); Standard 03.03.01 and block number from Parkmerced Design Standards and Guidelines (revised 09-16-14), Figure 03.03.C, Maximum Height Plan, p. 103; envelope over the 45-ft limit of the fabric around it","note":"Mid-rise buildable envelope: a building may rise to 85 ft here over the 45-ft fabric limit; the DSG's Regulating Plan caps the footprint at each height per block (Appendix A).","fid":26},"geometry":{"type":"MultiPolygon","coordinates":[[[[-122.4824441,37.7155907],[-122.4824343,37.7159465],[-122.4819378,37.7159337],[-122.4819401,37.7157001],[-122.4819554,37.7156739],[-122.4819928,37.7156439],[-122.4820909,37.7155845],[-122.4821789,37.7155806],[-122.4824441,37.7155907]]]]}},{"type":"Feature","properties":{"kind":"block","block":"09","label":"Block 09","stage":"entitled","height_ft":65,"podium_ft":null,"base_ft":0,"use":null,"phase":null,"illustrative":true,"source":"illustrative: drawn to the height limit of zoning district \"65-PM\" in DataSF Zoning Map – Height and Bulk Districts (https://data.sf.gov/d/h9wh-cg3m); Standard 03.03.01 and block number from Parkmerced Design Standards and Guidelines (revised 09-16-14), Figure 03.03.C, Maximum Height Plan, p. 103","note":"Neighborhood fabric: low-rise buildings up to this height.","fid":27},"geometry":{"type":"MultiPolygon","coordinates":[[[[-122.4803199,37.719284],[-122.4805092,37.7192898],[-122.4805157,37.7191443],[-122.4805845,37.7191254],[-122.4812868,37.7191431],[-122.4813083,37.7191485],[-122.4813241,37.719162],[-122.4813293,37.7191794],[-122.4813125,37.7195069],[-122.480797,37.719489],[-122.4807881,37.7197974],[-122.4812969,37.7198052],[-122.4812679,37.7203114],[-122.4812399,37.7203531],[-122.4810985,37.7204584],[-122.481066,37.7204628],[-122.4810368,37.7204508],[-122.4800103,37.7195621],[-122.4800036,37.7195337],[-122.4800188,37.7195065],[-122.4803199,37.719284]]]]}},{"type":"Feature","properties":{"kind":"block","block":"09","label":"Block 09","stage":"entitled","height_ft":85,"podium_ft":65,"base_ft":0,"use":null,"phase":null,"illustrative":true,"source":"illustrative: drawn to the height limit of zoning district \"85-PM\" in DataSF Zoning Map – Height and Bulk Districts (https://data.sf.gov/d/h9wh-cg3m); Standard 03.03.01 and block number from Parkmerced Design Standards and Guidelines (revised 09-16-14), Figure 03.03.C, Maximum Height Plan, p. 103; envelope over the 65-ft limit of the fabric around it","note":"Mid-rise buildable envelope: a building may rise to 85 ft here over the 65-ft fabric limit; the DSG's Regulating Plan caps the footprint at each height per block (Appendix A).","fid":28},"geometry":{"type":"MultiPolygon","coordinates":[[[[-122.4800004,37.7190119],[-122.4803325,37.7190223],[-122.4799932,37.7192739],[-122.4799865,37.7192737],[-122.4800004,37.7190119]]]]}},{"type":"Feature","properties":{"kind":"block","block":"09","label":"Block 09","stage":"entitled","height_ft":105,"podium_ft":65,"base_ft":0,"use":null,"phase":null,"illustrative":true,"source":"illustrative: drawn to the height limit of zoning district \"105-PM\" in DataSF Zoning Map – Height and Bulk Districts (https://data.sf.gov/d/h9wh-cg3m); Standard 03.03.01 and block number from Parkmerced Design Standards and Guidelines (revised 09-16-14), Figure 03.03.C, Maximum Height Plan, p. 103; envelope over the 65-ft limit of the fabric around it","note":"Mid-rise buildable envelope: a building may rise to 105 ft here over the 65-ft fabric limit; the DSG's Regulating Plan caps the footprint at each height per block (Appendix A).","fid":29},"geometry":{"type":"MultiPolygon","coordinates":[[[[-122.4813125,37.7195069],[-122.4812969,37.7198052],[-122.4807881,37.7197974],[-122.480797,37.719489],[-122.4813125,37.7195069]]]]}},{"type":"Feature","properties":{"kind":"block","block":"10","label":"Block 10","stage":"entitled","height_ft":145,"podium_ft":45,"base_ft":0,"use":null,"phase":null,"illustrative":true,"source":"illustrative: drawn to the height limit of zoning district \"145-PM\" in DataSF Zoning Map – Height and Bulk Districts (https://data.sf.gov/d/h9wh-cg3m); Standard 03.03.01 and block number from Parkmerced Design Standards and Guidelines (revised 09-16-14), Figure 03.03.C, Maximum Height Plan, p. 103; envelope over the 45-ft limit of the fabric around it","note":"Mid-rise buildable envelope: a building may rise to 145 ft here over the 45-ft fabric limit; the DSG's Regulating Plan caps the footprint at each height per block (Appendix A).","fid":30},"geometry":{"type":"MultiPolygon","coordinates":[[[[-122.4798183,37.7179963],[-122.4798397,37.7174743],[-122.4804581,37.7174944],[-122.4805159,37.7175361],[-122.4805808,37.7175669],[-122.480562,37.7180186],[-122.4798183,37.7179963]]]]}},{"type":"Feature","properties":{"kind":"block","block":"10","label":"Block 10","stage":"entitled","height_ft":145,"podium_ft":65,"base_ft":0,"use":null,"phase":null,"illustrative":true,"source":"illustrative: drawn to the height limit of zoning district \"145-PM\" in DataSF Zoning Map – Height and Bulk Districts (https://data.sf.gov/d/h9wh-cg3m); Standard 03.03.01 and block number from Parkmerced Design Standards and Guidelines (revised 09-16-14), Figure 03.03.C, Maximum Height Plan, p. 103; envelope over the 65-ft limit of the fabric around it","note":"Mid-rise buildable envelope: a building may rise to 145 ft here over the 65-ft fabric limit; the DSG's Regulating Plan caps the footprint at each height per block (Appendix A).","fid":31},"geometry":{"type":"MultiPolygon","coordinates":[[[[-122.4803325,37.7190223],[-122.4797769,37.7190049],[-122.4798008,37.718422],[-122.4805443,37.7184413],[-122.4805397,37.7185514],[-122.480522,37.7185676],[-122.4805383,37.7185859],[-122.4805307,37.7187677],[-122.4805072,37.7187883],[-122.4805289,37.7188108],[-122.4805232,37.7189474],[-122.4804206,37.7189762],[-122.4803325,37.7190223]]]]}},{"type":"Feature","properties":{"kind":"block","block":"11","label":"Block 11","stage":"entitled","height_ft":45,"podium_ft":null,"base_ft":0,"use":null,"phase":null,"illustrative":true,"source":"illustrative: drawn to the height limit of zoning district \"45-PM\" in DataSF Zoning Map – Height and Bulk Districts (https://data.sf.gov/d/h9wh-cg3m); Standard 03.03.01 and block number from Parkmerced Design Standards and Guidelines (revised 09-16-14), Figure 03.03.C, Maximum Height Plan, p. 103","note":"Neighborhood fabric: low-rise buildings up to this height.","fid":32},"geometry":{"type":"MultiPolygon","coordinates":[[[[-122.4802831,37.7168471],[-122.4802741,37.7170392],[-122.4802731,37.717062],[-122.4801931,37.7169915],[-122.4801787,37.7169507],[-122.4801973,37.7169109],[-122.4802831,37.7168471]]]]}},{"type":"Feature","properties":{"kind":"block","block":"11","label":"Block 11","stage":"entitled","height_ft":45,"podium_ft":null,"base_ft":0,"use":null,"phase":null,"illustrative":true,"source":"illustrative: drawn to the height limit of zoning district \"45-PM\" in DataSF Zoning Map – Height and Bulk Districts (https://data.sf.gov/d/h9wh-cg3m); Standard 03.03.01 and block number from Parkmerced Design Standards and Guidelines (revised 09-16-14), Figure 03.03.C, Maximum Height Plan, p. 103","note":"Neighborhood fabric: low-rise buildings up to this height.","fid":33},"geometry":{"type":"MultiPolygon","coordinates":[[[[-122.4803423,37.7171219],[-122.4807299,37.7171239],[-122.4807447,37.7167713],[-122.4803979,37.7167633],[-122.4807561,37.7165022],[-122.4807453,37.7167571],[-122.4814924,37.7167784],[-122.4814611,37.7173992],[-122.4814518,37.7174191],[-122.4814299,37.7174322],[-122.4807394,37.7174122],[-122.4806941,37.7174052],[-122.4806351,37.7173754],[-122.4803423,37.7171219]]]]}},{"type":"Feature","properties":{"kind":"block","block":"11","label":"Block 11","stage":"entitled","height_ft":65,"podium_ft":null,"base_ft":0,"use":null,"phase":null,"illustrative":true,"source":"illustrative: drawn to the height limit of zoning district \"65-PM\" in DataSF Zoning Map – Height and Bulk Districts (https://data.sf.gov/d/h9wh-cg3m); Standard 03.03.01 and block number from Parkmerced Design Standards and Guidelines (revised 09-16-14), Figure 03.03.C, Maximum Height Plan, p. 103","note":"Neighborhood fabric: low-rise buildings up to this height.","fid":34},"geometry":{"type":"MultiPolygon","coordinates":[[[[-122.4807453,37.7167571],[-122.4807561,37.7165022],[-122.4812906,37.7161184],[-122.4813356,37.7161087],[-122.4813798,37.7161151],[-122.4814602,37.7161513],[-122.4815022,37.7161904],[-122.4815161,37.7162184],[-122.4815211,37.7162483],[-122.4815039,37.7165686],[-122.4808672,37.7165431],[-122.4808586,37.7167607],[-122.4807453,37.7167571]]]]}},{"type":"Feature","properties":{"kind":"block","block":"11","label":"Block 11","stage":"entitled","height_ft":85,"podium_ft":65,"base_ft":0,"use":null,"phase":null,"illustrative":true,"source":"illustrative: drawn to the height limit of zoning district \"85-PM\" in DataSF Zoning Map – Height and Bulk Districts (https://data.sf.gov/d/h9wh-cg3m); Standard 03.03.01 and block number from Parkmerced Design Standards and Guidelines (revised 09-16-14), Figure 03.03.C, Maximum Height Plan, p. 103; envelope over the 65-ft limit of the fabric around it","note":"Mid-rise buildable envelope: a building may rise to 85 ft here over the 65-ft fabric limit; the DSG's Regulating Plan caps the footprint at each height per block (Appendix A).","fid":35},"geometry":{"type":"MultiPolygon","coordinates":[[[[-122.4808587,37.7167585],[-122.4808672,37.7165431],[-122.4815039,37.7165686],[-122.4814924,37.7167784],[-122.4808587,37.7167585]]]]}},{"type":"Feature","properties":{"kind":"block","block":"11","label":"Block 11","stage":"entitled","height_ft":105,"podium_ft":45,"base_ft":0,"use":null,"phase":null,"illustrative":true,"source":"illustrative: drawn to the height limit of zoning district \"105-PM\" in DataSF Zoning Map – Height and Bulk Districts (https://data.sf.gov/d/h9wh-cg3m); Standard 03.03.01 and block number from Parkmerced Design Standards and Guidelines (revised 09-16-14), Figure 03.03.C, Maximum Height Plan, p. 103; envelope over the 45-ft limit of the fabric around it","note":"Mid-rise buildable envelope: a building may rise to 105 ft here over the 45-ft fabric limit; the DSG's Regulating Plan caps the footprint at each height per block (Appendix A).","fid":36},"geometry":{"type":"MultiPolygon","coordinates":[[[[-122.4802731,37.717062],[-122.4802831,37.7168471],[-122.4803979,37.7167633],[-122.4807447,37.7167713],[-122.4807299,37.7171239],[-122.4803423,37.7171219],[-122.4802731,37.717062]]]]}},{"type":"Feature","properties":{"kind":"block","block":"12","label":"Block 12","stage":"entitled","height_ft":65,"podium_ft":null,"base_ft":0,"use":null,"phase":null,"illustrative":true,"source":"illustrative: drawn to the height limit of zoning district \"65-PM\" in DataSF Zoning Map – Height and Bulk Districts (https://data.sf.gov/d/h9wh-cg3m); Standard 03.03.01 and block number from Parkmerced Design Standards and Guidelines (revised 09-16-14), Figure 03.03.C, Maximum Height Plan, p. 103","note":"Neighborhood fabric: low-rise buildings up to this height.","fid":37},"geometry":{"type":"MultiPolygon","coordinates":[[[[-122.4788889,37.7182466],[-122.4788916,37.7181645],[-122.4788786,37.718083],[-122.4788503,37.7180041],[-122.4788076,37.7179297],[-122.4794035,37.7174928],[-122.4793919,37.7178705],[-122.4798231,37.7178784],[-122.4798073,37.7182632],[-122.4790475,37.718245],[-122.4790462,37.7184618],[-122.4797985,37.7184787],[-122.4797769,37.7190049],[-122.4800004,37.7190119],[-122.4799865,37.7192737],[-122.4799932,37.7192739],[-122.4798888,37.7193503],[-122.4798516,37.7193582],[-122.479817,37.7193449],[-122.4787997,37.7184661],[-122.4788596,37.718357],[-122.4788889,37.7182466]]]]}},{"type":"Feature","properties":{"kind":"block","block":"12","label":"Block 12","stage":"entitled","height_ft":105,"podium_ft":65,"base_ft":0,"use":null,"phase":null,"illustrative":true,"source":"illustrative: drawn to the height limit of zoning district \"105-PM\" in DataSF Zoning Map – Height and Bulk Districts (https://data.sf.gov/d/h9wh-cg3m); Standard 03.03.01 and block number from Parkmerced Design Standards and Guidelines (revised 09-16-14), Figure 03.03.C, Maximum Height Plan, p. 103; envelope over the 65-ft limit of the fabric around it","note":"Mid-rise buildable envelope: a building may rise to 105 ft here over the 65-ft fabric limit; the DSG's Regulating Plan caps the footprint at each height per block (Appendix A).","fid":38},"geometry":{"type":"MultiPolygon","coordinates":[[[[-122.4798073,37.7182632],[-122.4797985,37.7184787],[-122.4790462,37.7184618],[-122.4790475,37.718245],[-122.4798073,37.7182632]]]]}},{"type":"Feature","properties":{"kind":"block","block":"12","label":"Block 12","stage":"entitled","height_ft":105,"podium_ft":65,"base_ft":0,"use":null,"phase":null,"illustrative":true,"source":"illustrative: drawn to the height limit of zoning district \"105-PM\" in DataSF Zoning Map – Height and Bulk Districts (https://data.sf.gov/d/h9wh-cg3m); Standard 03.03.01 and block number from Parkmerced Design Standards and Guidelines (revised 09-16-14), Figure 03.03.C, Maximum Height Plan, p. 103; envelope over the 65-ft limit of the fabric around it","note":"Mid-rise buildable envelope: a building may rise to 105 ft here over the 65-ft fabric limit; the DSG's Regulating Plan caps the footprint at each height per block (Appendix A).","fid":39},"geometry":{"type":"MultiPolygon","coordinates":[[[[-122.4794462,37.7174615],[-122.4798397,37.7174743],[-122.4798231,37.7178784],[-122.4793919,37.7178705],[-122.4794035,37.7174928],[-122.4794462,37.7174615]]]]}},{"type":"Feature","properties":{"kind":"block","block":"13","label":"Block 13","stage":"entitled","height_ft":65,"podium_ft":null,"base_ft":0,"use":null,"phase":null,"illustrative":true,"source":"illustrative: drawn to the height limit of zoning district \"65-PM\" in DataSF Zoning Map – Height and Bulk Districts (https://data.sf.gov/d/h9wh-cg3m); Standard 03.03.01 and block number from Parkmerced Design Standards and Guidelines (revised 09-16-14), Figure 03.03.C, Maximum Height Plan, p. 103","note":"Neighborhood fabric: low-rise buildings up to this height.","fid":40},"geometry":{"type":"MultiPolygon","coordinates":[[[[-122.479519,37.7166941],[-122.4796493,37.7167934],[-122.4785349,37.7176218],[-122.4784944,37.7175913],[-122.479519,37.7166941]]]]}},{"type":"Feature","properties":{"kind":"block","block":"13","label":"Block 13","stage":"entitled","height_ft":85,"podium_ft":65,"base_ft":0,"use":null,"phase":null,"illustrative":true,"source":"illustrative: drawn to the height limit of zoning district \"85-PM\" in DataSF Zoning Map – Height and Bulk Districts (https://data.sf.gov/d/h9wh-cg3m); Standard 03.03.01 and block number from Parkmerced Design Standards and Guidelines (revised 09-16-14), Figure 03.03.C, Maximum Height Plan, p. 103; envelope over the 65-ft limit of the fabric around it","note":"Mid-rise buildable envelope: a building may rise to 85 ft here over the 65-ft fabric limit; the DSG's Regulating Plan caps the footprint at each height per block (Appendix A).","fid":41},"geometry":{"type":"MultiPolygon","coordinates":[[[[-122.4785349,37.7176218],[-122.4796493,37.7167934],[-122.4797647,37.7168941],[-122.4797748,37.7169079],[-122.4797735,37.7169529],[-122.4792325,37.7173501],[-122.4792386,37.7173633],[-122.478688,37.7177669],[-122.4786149,37.7176909],[-122.4785349,37.7176218]]]]}},{"type":"Feature","properties":{"kind":"block","block":"14","label":"Block 14","stage":"entitled","height_ft":65,"podium_ft":null,"base_ft":0,"use":null,"phase":null,"illustrative":true,"source":"illustrative: drawn to the height limit of zoning district \"65-PM\" in DataSF Zoning Map – Height and Bulk Districts (https://data.sf.gov/d/h9wh-cg3m); Standard 03.03.01 and block number from Parkmerced Design Standards and Guidelines (revised 09-16-14), Figure 03.03.C, Maximum Height Plan, p. 103","note":"Neighborhood fabric: low-rise buildings up to this height.","fid":42},"geometry":{"type":"MultiPolygon","coordinates":[[[[-122.4781787,37.7200242],[-122.4781568,37.7200086],[-122.478149,37.719986],[-122.4782083,37.7187742],[-122.4783328,37.7187567],[-122.4784436,37.7187224],[-122.4785679,37.7188298],[-122.4783933,37.7189521],[-122.4787524,37.7192596],[-122.4789223,37.719136],[-122.4794627,37.7196029],[-122.479474,37.7196197],[-122.4794753,37.7196387],[-122.4794589,37.7196633],[-122.4789972,37.7200009],[-122.4789175,37.7200396],[-122.478868,37.7200497],[-122.4781787,37.7200242]],[[-122.4782123,37.7196808],[-122.4782068,37.7199936],[-122.4787322,37.7200149],[-122.478741,37.7196966],[-122.4782123,37.7196808]]]]}},{"type":"Feature","properties":{"kind":"block","block":"14","label":"Block 14","stage":"entitled","height_ft":65,"podium_ft":null,"base_ft":0,"use":null,"phase":null,"illustrative":true,"source":"illustrative: drawn to the height limit of zoning district \"65-PM\" in DataSF Zoning Map – Height and Bulk Districts (https://data.sf.gov/d/h9wh-cg3m); Standard 03.03.01 and block number from Parkmerced Design Standards and Guidelines (revised 09-16-14), Figure 03.03.C, Maximum Height Plan, p. 103","note":"Neighborhood fabric: low-rise buildings up to this height.","fid":43},"geometry":{"type":"MultiPolygon","coordinates":[[[[-122.4766308,37.7195599],[-122.4766199,37.7195357],[-122.4766342,37.7195126],[-122.4768053,37.7196429],[-122.4772377,37.7192719],[-122.4770975,37.7191741],[-122.4773213,37.7190106],[-122.4775381,37.7191649],[-122.4779766,37.718772],[-122.4779175,37.7199793],[-122.4779114,37.7199965],[-122.4778968,37.72001],[-122.4778646,37.7200182],[-122.477135,37.7199887],[-122.4766308,37.7195599]],[[-122.4773234,37.7194928],[-122.4770163,37.7197612],[-122.4773085,37.719973],[-122.4776049,37.719691],[-122.4773234,37.7194928]]]]}},{"type":"Feature","properties":{"kind":"block","block":"14","label":"Block 14","stage":"entitled","height_ft":85,"podium_ft":65,"base_ft":0,"use":null,"phase":null,"illustrative":true,"source":"illustrative: drawn to the height limit of zoning district \"85-PM\" in DataSF Zoning Map – Height and Bulk Districts (https://data.sf.gov/d/h9wh-cg3m); Standard 03.03.01 and block number from Parkmerced Design Standards and Guidelines (revised 09-16-14), Figure 03.03.C, Maximum Height Plan, p. 103; envelope over the 65-ft limit of the fabric around it","note":"Mid-rise buildable envelope: a building may rise to 85 ft here over the 65-ft fabric limit; the DSG's Regulating Plan caps the footprint at each height per block (Appendix A).","fid":44},"geometry":{"type":"MultiPolygon","coordinates":[[[[-122.4773234,37.7194928],[-122.4776049,37.719691],[-122.4773085,37.719973],[-122.4770163,37.7197612],[-122.4773234,37.7194928]]]]}},{"type":"Feature","properties":{"kind":"block","block":"14","label":"Block 14","stage":"entitled","height_ft":95,"podium_ft":65,"base_ft":0,"use":null,"phase":null,"illustrative":true,"source":"illustrative: drawn to the height limit of zoning district \"95-PM\" in DataSF Zoning Map – Height and Bulk Districts (https://data.sf.gov/d/h9wh-cg3m); Standard 03.03.01 and block number from Parkmerced Design Standards and Guidelines (revised 09-16-14), Figure 03.03.C, Maximum Height Plan, p. 103; envelope over the 65-ft limit of the fabric around it","note":"Mid-rise buildable envelope: a building may rise to 95 ft here over the 65-ft fabric limit; the DSG's Regulating Plan caps the footprint at each height per block (Appendix A).","fid":45},"geometry":{"type":"MultiPolygon","coordinates":[[[[-122.4770975,37.7191741],[-122.4772377,37.7192719],[-122.4768053,37.7196429],[-122.4766342,37.7195126],[-122.4770975,37.7191741]]]]}},{"type":"Feature","properties":{"kind":"block","block":"14","label":"Block 14","stage":"entitled","height_ft":105,"podium_ft":65,"base_ft":0,"use":null,"phase":null,"illustrative":true,"source":"illustrative: drawn to the height limit of zoning district \"105-PM\" in DataSF Zoning Map – Height and Bulk Districts (https://data.sf.gov/d/h9wh-cg3m); Standard 03.03.01 and block number from Parkmerced Design Standards and Guidelines (revised 09-16-14), Figure 03.03.C, Maximum Height Plan, p. 103; envelope over the 65-ft limit of the fabric around it","note":"Mid-rise buildable envelope: a building may rise to 105 ft here over the 65-ft fabric limit; the DSG's Regulating Plan caps the footprint at each height per block (Appendix A).","fid":46},"geometry":{"type":"MultiPolygon","coordinates":[[[[-122.4785679,37.7188298],[-122.4789223,37.719136],[-122.4787524,37.7192596],[-122.4783933,37.7189521],[-122.4785679,37.7188298]]]]}},{"type":"Feature","properties":{"kind":"block","block":"14","label":"Block 14","stage":"entitled","height_ft":105,"podium_ft":65,"base_ft":0,"use":null,"phase":null,"illustrative":true,"source":"illustrative: drawn to the height limit of zoning district \"105-PM\" in DataSF Zoning Map – Height and Bulk Districts (https://data.sf.gov/d/h9wh-cg3m); Standard 03.03.01 and block number from Parkmerced Design Standards and Guidelines (revised 09-16-14), Figure 03.03.C, Maximum Height Plan, p. 103; envelope over the 65-ft limit of the fabric around it","note":"Mid-rise buildable envelope: a building may rise to 105 ft here over the 65-ft fabric limit; the DSG's Regulating Plan caps the footprint at each height per block (Appendix A).","fid":47},"geometry":{"type":"MultiPolygon","coordinates":[[[[-122.4782123,37.7196808],[-122.478741,37.7196966],[-122.4787322,37.7200149],[-122.4782068,37.7199936],[-122.4782123,37.7196808]]]]}},{"type":"Feature","properties":{"kind":"block","block":"14","label":"Block 14","stage":"entitled","height_ft":145,"podium_ft":65,"base_ft":0,"use":null,"phase":null,"illustrative":true,"source":"illustrative: drawn to the height limit of zoning district \"145-PM\" in DataSF Zoning Map – Height and Bulk Districts (https://data.sf.gov/d/h9wh-cg3m); Standard 03.03.01 and block number from Parkmerced Design Standards and Guidelines (revised 09-16-14), Figure 03.03.C, Maximum Height Plan, p. 103; envelope over the 65-ft limit of the fabric around it","note":"Mid-rise buildable envelope: a building may rise to 145 ft here over the 65-ft fabric limit; the DSG's Regulating Plan caps the footprint at each height per block (Appendix A).","fid":48},"geometry":{"type":"MultiPolygon","coordinates":[[[[-122.4777408,37.7187042],[-122.4779766,37.718772],[-122.4775381,37.7191649],[-122.4773213,37.7190106],[-122.4777408,37.7187042]]]]}},{"type":"Feature","properties":{"kind":"block","block":"15","label":"Block 15","stage":"entitled","height_ft":65,"podium_ft":null,"base_ft":0,"use":null,"phase":null,"illustrative":true,"source":"illustrative: drawn to the height limit of zoning district \"65-PM\" in DataSF Zoning Map – Height and Bulk Districts (https://data.sf.gov/d/h9wh-cg3m); Standard 03.03.01 and block number from Parkmerced Design Standards and Guidelines (revised 09-16-14), Figure 03.03.C, Maximum Height Plan, p. 103","note":"Neighborhood fabric: low-rise buildings up to this height.","fid":49},"geometry":{"type":"MultiPolygon","coordinates":[[[[-122.4776367,37.7161341],[-122.4776412,37.716111],[-122.4776607,37.7160937],[-122.4777062,37.7163329],[-122.4781517,37.7162892],[-122.4781173,37.7160414],[-122.4783691,37.7160147],[-122.4784075,37.7160178],[-122.478436,37.7160293],[-122.4786766,37.7161777],[-122.4783897,37.7164779],[-122.4787375,37.7166841],[-122.4780633,37.7173846],[-122.4779557,37.7173531],[-122.4778375,37.7173373],[-122.4776367,37.7161341]]]]}},{"type":"Feature","properties":{"kind":"block","block":"15","label":"Block 15","stage":"entitled","height_ft":65,"podium_ft":null,"base_ft":0,"use":null,"phase":null,"illustrative":true,"source":"illustrative: drawn to the height limit of zoning district \"65-PM\" in DataSF Zoning Map – Height and Bulk Districts (https://data.sf.gov/d/h9wh-cg3m); Standard 03.03.01 and block number from Parkmerced Design Standards and Guidelines (revised 09-16-14), Figure 03.03.C, Maximum Height Plan, p. 103","note":"Neighborhood fabric: low-rise buildings up to this height.","fid":50},"geometry":{"type":"MultiPolygon","coordinates":[[[[-122.4761949,37.7167166],[-122.476174,37.716689],[-122.4761829,37.7166568],[-122.4765915,37.7162416],[-122.4766342,37.7162116],[-122.4767028,37.716192],[-122.4773598,37.7161221],[-122.477385,37.7161261],[-122.4774056,37.7161498],[-122.4776072,37.7173572],[-122.4774914,37.7173887],[-122.477384,37.7174401],[-122.4761949,37.7167166]],[[-122.4769531,37.7168397],[-122.4767807,37.7170164],[-122.4773782,37.7173778],[-122.4775508,37.7172023],[-122.4769531,37.7168397]],[[-122.4766979,37.7162284],[-122.4764766,37.7164763],[-122.4768765,37.7167109],[-122.4770976,37.7164549],[-122.4766979,37.7162284]]]]}},{"type":"Feature","properties":{"kind":"block","block":"15","label":"Block 15","stage":"entitled","height_ft":85,"podium_ft":65,"base_ft":0,"use":null,"phase":null,"illustrative":true,"source":"illustrative: drawn to the height limit of zoning district \"85-PM\" in DataSF Zoning Map – Height and Bulk Districts (https://data.sf.gov/d/h9wh-cg3m); Standard 03.03.01 and block number from Parkmerced Design Standards and Guidelines (revised 09-16-14), Figure 03.03.C, Maximum Height Plan, p. 103; envelope over the 65-ft limit of the fabric around it","note":"Mid-rise buildable envelope: a building may rise to 85 ft here over the 65-ft fabric limit; the DSG's Regulating Plan caps the footprint at each height per block (Appendix A).","fid":51},"geometry":{"type":"MultiPolygon","coordinates":[[[[-122.4769531,37.7168397],[-122.4775508,37.7172023],[-122.4773782,37.7173778],[-122.4767807,37.7170164],[-122.4769531,37.7168397]]]]}},{"type":"Feature","properties":{"kind":"block","block":"15","label":"Block 15","stage":"entitled","height_ft":85,"podium_ft":65,"base_ft":0,"use":null,"phase":null,"illustrative":true,"source":"illustrative: drawn to the height limit of zoning district \"85-PM\" in DataSF Zoning Map – Height and Bulk Districts (https://data.sf.gov/d/h9wh-cg3m); Standard 03.03.01 and block number from Parkmerced Design Standards and Guidelines (revised 09-16-14), Figure 03.03.C, Maximum Height Plan, p. 103; envelope over the 65-ft limit of the fabric around it","note":"Mid-rise buildable envelope: a building may rise to 85 ft here over the 65-ft fabric limit; the DSG's Regulating Plan caps the footprint at each height per block (Appendix A).","fid":52},"geometry":{"type":"MultiPolygon","coordinates":[[[[-122.4776609,37.7160936],[-122.4781173,37.7160414],[-122.4781517,37.7162892],[-122.4777062,37.7163329],[-122.4776609,37.7160936]]]]}},{"type":"Feature","properties":{"kind":"block","block":"15","label":"Block 15","stage":"entitled","height_ft":105,"podium_ft":65,"base_ft":0,"use":null,"phase":null,"illustrative":true,"source":"illustrative: drawn to the height limit of zoning district \"105-PM\" in DataSF Zoning Map – Height and Bulk Districts (https://data.sf.gov/d/h9wh-cg3m); Standard 03.03.01 and block number from Parkmerced Design Standards and Guidelines (revised 09-16-14), Figure 03.03.C, Maximum Height Plan, p. 103; envelope over the 65-ft limit of the fabric around it","note":"Mid-rise buildable envelope: a building may rise to 105 ft here over the 65-ft fabric limit; the DSG's Regulating Plan caps the footprint at each height per block (Appendix A).","fid":53},"geometry":{"type":"MultiPolygon","coordinates":[[[[-122.4786766,37.7161777],[-122.4789692,37.7163583],[-122.4789855,37.7163748],[-122.4789928,37.7163949],[-122.4789807,37.7164313],[-122.4787375,37.7166841],[-122.4783897,37.7164779],[-122.4786766,37.7161777]]]]}},{"type":"Feature","properties":{"kind":"block","block":"15","label":"Block 15","stage":"entitled","height_ft":105,"podium_ft":65,"base_ft":0,"use":null,"phase":null,"illustrative":true,"source":"illustrative: drawn to the height limit of zoning district \"105-PM\" in DataSF Zoning Map – Height and Bulk Districts (https://data.sf.gov/d/h9wh-cg3m); Standard 03.03.01 and block number from Parkmerced Design Standards and Guidelines (revised 09-16-14), Figure 03.03.C, Maximum Height Plan, p. 103; envelope over the 65-ft limit of the fabric around it","note":"Mid-rise buildable envelope: a building may rise to 105 ft here over the 65-ft fabric limit; the DSG's Regulating Plan caps the footprint at each height per block (Appendix A).","fid":54},"geometry":{"type":"MultiPolygon","coordinates":[[[[-122.4766979,37.7162284],[-122.4770976,37.7164549],[-122.4768765,37.7167109],[-122.4764766,37.7164763],[-122.4766979,37.7162284]]]]}},{"type":"Feature","properties":{"kind":"block","block":"16","label":"Block 16","stage":"entitled","height_ft":65,"podium_ft":null,"base_ft":0,"use":null,"phase":null,"illustrative":true,"source":"illustrative: drawn to the height limit of zoning district \"65-PM\" in DataSF Zoning Map – Height and Bulk Districts (https://data.sf.gov/d/h9wh-cg3m); Standard 03.03.01 and block number from Parkmerced Design Standards and Guidelines (revised 09-16-14), Figure 03.03.C, Maximum Height Plan, p. 103","note":"Neighborhood fabric: low-rise buildings up to this height.","fid":55},"geometry":{"type":"MultiPolygon","coordinates":[[[[-122.4753893,37.7175261],[-122.4753913,37.717493],[-122.475409,37.7174626],[-122.4758335,37.7170257],[-122.4758606,37.7170107],[-122.4758938,37.7170107],[-122.4764556,37.7173491],[-122.4764803,37.7175496],[-122.4770575,37.7178901],[-122.4770531,37.7179342],[-122.4755124,37.7180928],[-122.4754938,37.7180832],[-122.475484,37.7180668],[-122.4753893,37.7175261]],[[-122.4760428,37.7174298],[-122.4754716,37.7175024],[-122.4755187,37.7177156],[-122.4760697,37.7176625],[-122.4760428,37.7174298]]]]}},{"type":"Feature","properties":{"kind":"block","block":"16","label":"Block 16","stage":"entitled","height_ft":65,"podium_ft":null,"base_ft":0,"use":null,"phase":null,"illustrative":true,"source":"illustrative: drawn to the height limit of zoning district \"65-PM\" in DataSF Zoning Map – Height and Bulk Districts (https://data.sf.gov/d/h9wh-cg3m); Standard 03.03.01 and block number from Parkmerced Design Standards and Guidelines (revised 09-16-14), Figure 03.03.C, Maximum Height Plan, p. 103","note":"Neighborhood fabric: low-rise buildings up to this height.","fid":56},"geometry":{"type":"MultiPolygon","coordinates":[[[[-122.4770886,37.7181161],[-122.4771332,37.7181977],[-122.4771958,37.7182842],[-122.4770975,37.7183866],[-122.4770425,37.7181209],[-122.4770886,37.7181161]]]]}},{"type":"Feature","properties":{"kind":"block","block":"16","label":"Block 16","stage":"entitled","height_ft":65,"podium_ft":null,"base_ft":0,"use":null,"phase":null,"illustrative":true,"source":"illustrative: drawn to the height limit of zoning district \"65-PM\" in DataSF Zoning Map – Height and Bulk Districts (https://data.sf.gov/d/h9wh-cg3m); Standard 03.03.01 and block number from Parkmerced Design Standards and Guidelines (revised 09-16-14), Figure 03.03.C, Maximum Height Plan, p. 103","note":"Neighborhood fabric: low-rise buildings up to this height.","fid":57},"geometry":{"type":"MultiPolygon","coordinates":[[[[-122.4756417,37.718911],[-122.4756231,37.7188862],[-122.4755258,37.7183129],[-122.4755308,37.7182929],[-122.4755496,37.7182791],[-122.4765976,37.7181676],[-122.4766334,37.7184302],[-122.4770938,37.7183904],[-122.4767313,37.7187678],[-122.4766609,37.7187121],[-122.4765609,37.7187926],[-122.4765465,37.7187839],[-122.4763398,37.7189502],[-122.4763597,37.7191547],[-122.4762531,37.7192592],[-122.476232,37.7192621],[-122.4762118,37.7192562],[-122.4756417,37.718911]],[[-122.4758988,37.7182468],[-122.4756199,37.7182761],[-122.4757097,37.7187958],[-122.4757455,37.7188445],[-122.4758654,37.7189385],[-122.47601,37.7189224],[-122.4758988,37.7182468]]]]}},{"type":"Feature","properties":{"kind":"block","block":"16","label":"Block 16","stage":"entitled","height_ft":85,"podium_ft":65,"base_ft":0,"use":null,"phase":null,"illustrative":true,"source":"illustrative: drawn to the height limit of zoning district \"85-PM\" in DataSF Zoning Map – Height and Bulk Districts (https://data.sf.gov/d/h9wh-cg3m); Standard 03.03.01 and block number from Parkmerced Design Standards and Guidelines (revised 09-16-14), Figure 03.03.C, Maximum Height Plan, p. 103; envelope over the 65-ft limit of the fabric around it","note":"Mid-rise buildable envelope: a building may rise to 85 ft here over the 65-ft fabric limit; the DSG's Regulating Plan caps the footprint at each height per block (Appendix A).","fid":58},"geometry":{"type":"MultiPolygon","coordinates":[[[[-122.4758988,37.7182468],[-122.47601,37.7189224],[-122.4758654,37.7189385],[-122.4757455,37.7188445],[-122.4757097,37.7187958],[-122.4756199,37.7182761],[-122.4758988,37.7182468]]]]}},{"type":"Feature","properties":{"kind":"block","block":"16","label":"Block 16","stage":"entitled","height_ft":85,"podium_ft":65,"base_ft":0,"use":null,"phase":null,"illustrative":true,"source":"illustrative: drawn to the height limit of zoning district \"85-PM\" in DataSF Zoning Map – Height and Bulk Districts (https://data.sf.gov/d/h9wh-cg3m); Standard 03.03.01 and block number from Parkmerced Design Standards and Guidelines (revised 09-16-14), Figure 03.03.C, Maximum Height Plan, p. 103; envelope over the 65-ft limit of the fabric around it","note":"Mid-rise buildable envelope: a building may rise to 85 ft here over the 65-ft fabric limit; the DSG's Regulating Plan caps the footprint at each height per block (Appendix A).","fid":59},"geometry":{"type":"MultiPolygon","coordinates":[[[[-122.4760428,37.7174298],[-122.4760697,37.7176625],[-122.4755187,37.7177156],[-122.4754716,37.7175024],[-122.4760428,37.7174298]]]]}},{"type":"Feature","properties":{"kind":"block","block":"16","label":"Block 16","stage":"entitled","height_ft":95,"podium_ft":65,"base_ft":0,"use":null,"phase":null,"illustrative":true,"source":"illustrative: drawn to the height limit of zoning district \"95-PM\" in DataSF Zoning Map – Height and Bulk Districts (https://data.sf.gov/d/h9wh-cg3m); Standard 03.03.01 and block number from Parkmerced Design Standards and Guidelines (revised 09-16-14), Figure 03.03.C, Maximum Height Plan, p. 103; envelope over the 65-ft limit of the fabric around it","note":"Mid-rise buildable envelope: a building may rise to 95 ft here over the 65-ft fabric limit; the DSG's Regulating Plan caps the footprint at each height per block (Appendix A).","fid":60},"geometry":{"type":"MultiPolygon","coordinates":[[[[-122.4770425,37.7181209],[-122.4770938,37.7183904],[-122.4766334,37.7184302],[-122.4765976,37.7181676],[-122.4770425,37.7181209]]]]}},{"type":"Feature","properties":{"kind":"block","block":"16","label":"Block 16","stage":"entitled","height_ft":95,"podium_ft":65,"base_ft":0,"use":null,"phase":null,"illustrative":true,"source":"illustrative: drawn to the height limit of zoning district \"95-PM\" in DataSF Zoning Map – Height and Bulk Districts (https://data.sf.gov/d/h9wh-cg3m); Standard 03.03.01 and block number from Parkmerced Design Standards and Guidelines (revised 09-16-14), Figure 03.03.C, Maximum Height Plan, p. 103; envelope over the 65-ft limit of the fabric around it","note":"Mid-rise buildable envelope: a building may rise to 95 ft here over the 65-ft fabric limit; the DSG's Regulating Plan caps the footprint at each height per block (Appendix A).","fid":61},"geometry":{"type":"MultiPolygon","coordinates":[[[[-122.4764556,37.7173491],[-122.477099,37.7177406],[-122.4770741,37.7178111],[-122.4770575,37.7178901],[-122.4764803,37.7175496],[-122.4764556,37.7173491]]]]}},{"type":"Feature","properties":{"kind":"block","block":"16","label":"Block 16","stage":"entitled","height_ft":95,"podium_ft":65,"base_ft":0,"use":null,"phase":null,"illustrative":true,"source":"illustrative: drawn to the height limit of zoning district \"95-PM\" in DataSF Zoning Map – Height and Bulk Districts (https://data.sf.gov/d/h9wh-cg3m); Standard 03.03.01 and block number from Parkmerced Design Standards and Guidelines (revised 09-16-14), Figure 03.03.C, Maximum Height Plan, p. 103; envelope over the 65-ft limit of the fabric around it","note":"Mid-rise buildable envelope: a building may rise to 95 ft here over the 65-ft fabric limit; the DSG's Regulating Plan caps the footprint at each height per block (Appendix A).","fid":62},"geometry":{"type":"MultiPolygon","coordinates":[[[[-122.4765465,37.7187839],[-122.4766538,37.7188485],[-122.4763597,37.7191547],[-122.4763398,37.7189502],[-122.4765465,37.7187839]]]]}},{"type":"Feature","properties":{"kind":"block","block":"17","label":"Block 17","stage":"entitled","height_ft":65,"podium_ft":null,"base_ft":0,"use":null,"phase":null,"illustrative":true,"source":"illustrative: drawn to the height limit of zoning district \"65-PM\" in DataSF Zoning Map – Height and Bulk Districts (https://data.sf.gov/d/h9wh-cg3m); Standard 03.03.01 and block number from Parkmerced Design Standards and Guidelines (revised 09-16-14), Figure 03.03.C, Maximum Height Plan, p. 103","note":"Neighborhood fabric: low-rise buildings up to this height.","fid":63},"geometry":{"type":"MultiPolygon","coordinates":[[[[-122.4764719,37.7196497],[-122.4765094,37.7196619],[-122.4768768,37.7199781],[-122.4768823,37.71999],[-122.4768756,37.7200014],[-122.4768607,37.7200058],[-122.4762066,37.7199843],[-122.4761824,37.7199753],[-122.4761736,37.7199599],[-122.4761759,37.7199282],[-122.4763649,37.7197127],[-122.4764415,37.7196579],[-122.4764719,37.7196497]]]]}},{"type":"Feature","properties":{"kind":"block","block":"18","label":"Block 18","stage":"entitled","height_ft":65,"podium_ft":null,"base_ft":0,"use":null,"phase":null,"illustrative":true,"source":"illustrative: drawn to the height limit of zoning district \"65-PM\" in DataSF Zoning Map – Height and Bulk Districts (https://data.sf.gov/d/h9wh-cg3m); Standard 03.03.01 and block number from Parkmerced Design Standards and Guidelines (revised 09-16-14), Figure 03.03.C, Maximum Height Plan, p. 103","note":"Neighborhood fabric: low-rise buildings up to this height.","fid":64},"geometry":{"type":"MultiPolygon","coordinates":[[[[-122.4756759,37.7191164],[-122.4757016,37.7191232],[-122.4760954,37.7193618],[-122.476111,37.7193783],[-122.4761147,37.7193987],[-122.4761054,37.7194179],[-122.4759623,37.7195662],[-122.4759218,37.7195897],[-122.4758131,37.7196023],[-122.4757796,37.7196008],[-122.4757347,37.7195831],[-122.4757061,37.719552],[-122.475635,37.719151],[-122.4756463,37.7191268],[-122.4756759,37.7191164]]]]}},{"type":"Feature","properties":{"kind":"block","block":"18","label":"Block 18","stage":"entitled","height_ft":65,"podium_ft":null,"base_ft":0,"use":null,"phase":null,"illustrative":true,"source":"illustrative: drawn to the height limit of zoning district \"65-PM\" in DataSF Zoning Map – Height and Bulk Districts (https://data.sf.gov/d/h9wh-cg3m); Standard 03.03.01 and block number from Parkmerced Design Standards and Guidelines (revised 09-16-14), Figure 03.03.C, Maximum Height Plan, p. 103","note":"Neighborhood fabric: low-rise buildings up to this height.","fid":65},"geometry":{"type":"MultiPolygon","coordinates":[[[[-122.4752131,37.7196244],[-122.4750118,37.7193973],[-122.4747877,37.7191148],[-122.4753921,37.7190514],[-122.4754176,37.7190549],[-122.4754371,37.7190684],[-122.4755077,37.7194401],[-122.4752677,37.7191844],[-122.4749475,37.71922],[-122.4753486,37.7196301],[-122.4755323,37.7196052],[-122.4755526,37.7197427],[-122.475308,37.719758],[-122.4752131,37.7196244]]]]}},{"type":"Feature","properties":{"kind":"block","block":"18","label":"Block 18","stage":"entitled","height_ft":115,"podium_ft":65,"base_ft":0,"use":null,"phase":null,"illustrative":true,"source":"illustrative: drawn to the height limit of zoning district \"115-PM\" in DataSF Zoning Map – Height and Bulk Districts (https://data.sf.gov/d/h9wh-cg3m); Standard 03.03.01 and block number from Parkmerced Design Standards and Guidelines (revised 09-16-14), Figure 03.03.C, Maximum Height Plan, p. 103; envelope over the 65-ft limit of the fabric around it","note":"Mid-rise buildable envelope: a building may rise to 115 ft here over the 65-ft fabric limit; the DSG's Regulating Plan caps the footprint at each height per block (Appendix A).","fid":66},"geometry":{"type":"MultiPolygon","coordinates":[[[[-122.4755077,37.7194401],[-122.4755323,37.7196052],[-122.4753486,37.7196301],[-122.4749475,37.71922],[-122.4752677,37.7191844],[-122.4755077,37.7194401]]]]}},{"type":"Feature","properties":{"kind":"block","block":"19","label":"Block 19","stage":"entitled","height_ft":65,"podium_ft":null,"base_ft":0,"use":null,"phase":null,"illustrative":true,"source":"illustrative: drawn to the height limit of zoning district \"65-PM\" in DataSF Zoning Map – Height and Bulk Districts (https://data.sf.gov/d/h9wh-cg3m); Standard 03.03.01 and block number from Parkmerced Design Standards and Guidelines (revised 09-16-14), Figure 03.03.C, Maximum Height Plan, p. 103","note":"Neighborhood fabric: low-rise buildings up to this height.","fid":67},"geometry":{"type":"MultiPolygon","coordinates":[[[[-122.4744453,37.7173844],[-122.4742669,37.7162739],[-122.4742808,37.7162277],[-122.4743162,37.7161916],[-122.4744192,37.7161447],[-122.4744779,37.7161354],[-122.4745205,37.7161415],[-122.4745567,37.7161566],[-122.4752459,37.7165753],[-122.4750545,37.7167609],[-122.4754328,37.7169911],[-122.4756136,37.7167989],[-122.4756676,37.7168336],[-122.4756812,37.7168657],[-122.4756682,37.7168946],[-122.475242,37.7173331],[-122.4752245,37.7173449],[-122.4745155,37.7174227],[-122.4744721,37.7174131],[-122.4744453,37.7173844]],[[-122.4747865,37.7169297],[-122.4744042,37.7169636],[-122.4744775,37.7173847],[-122.4748561,37.71734],[-122.4747865,37.7169297]]]]}},{"type":"Feature","properties":{"kind":"block","block":"19","label":"Block 19","stage":"entitled","height_ft":65,"podium_ft":null,"base_ft":0,"use":null,"phase":null,"illustrative":true,"source":"illustrative: drawn to the height limit of zoning district \"65-PM\" in DataSF Zoning Map – Height and Bulk Districts (https://data.sf.gov/d/h9wh-cg3m); Standard 03.03.01 and block number from Parkmerced Design Standards and Guidelines (revised 09-16-14), Figure 03.03.C, Maximum Height Plan, p. 103","note":"Neighborhood fabric: low-rise buildings up to this height.","fid":68},"geometry":{"type":"MultiPolygon","coordinates":[[[[-122.4746823,37.7187753],[-122.4744872,37.7176099],[-122.4744911,37.7175888],[-122.4745067,37.7175719],[-122.4745606,37.7178756],[-122.475205,37.717806],[-122.475387,37.7188725],[-122.4753846,37.7188897],[-122.4753723,37.7189047],[-122.4753461,37.7189149],[-122.4748858,37.7189632],[-122.4748503,37.7189533],[-122.4746823,37.7187753]],[[-122.4748639,37.7181517],[-122.4745849,37.7181783],[-122.4746789,37.7187253],[-122.4749543,37.718696],[-122.4748639,37.7181517]]]]}},{"type":"Feature","properties":{"kind":"block","block":"19","label":"Block 19","stage":"entitled","height_ft":85,"podium_ft":65,"base_ft":0,"use":null,"phase":null,"illustrative":true,"source":"illustrative: drawn to the height limit of zoning district \"85-PM\" in DataSF Zoning Map – Height and Bulk Districts (https://data.sf.gov/d/h9wh-cg3m); Standard 03.03.01 and block number from Parkmerced Design Standards and Guidelines (revised 09-16-14), Figure 03.03.C, Maximum Height Plan, p. 103; envelope over the 65-ft limit of the fabric around it","note":"Mid-rise buildable envelope: a building may rise to 85 ft here over the 65-ft fabric limit; the DSG's Regulating Plan caps the footprint at each height per block (Appendix A).","fid":69},"geometry":{"type":"MultiPolygon","coordinates":[[[[-122.4752459,37.7165753],[-122.4756136,37.7167989],[-122.4754328,37.7169911],[-122.4750545,37.7167609],[-122.4752459,37.7165753]]]]}},{"type":"Feature","properties":{"kind":"block","block":"19","label":"Block 19","stage":"entitled","height_ft":85,"podium_ft":65,"base_ft":0,"use":null,"phase":null,"illustrative":true,"source":"illustrative: drawn to the height limit of zoning district \"85-PM\" in DataSF Zoning Map – Height and Bulk Districts (https://data.sf.gov/d/h9wh-cg3m); Standard 03.03.01 and block number from Parkmerced Design Standards and Guidelines (revised 09-16-14), Figure 03.03.C, Maximum Height Plan, p. 103; envelope over the 65-ft limit of the fabric around it","note":"Mid-rise buildable envelope: a building may rise to 85 ft here over the 65-ft fabric limit; the DSG's Regulating Plan caps the footprint at each height per block (Appendix A).","fid":70},"geometry":{"type":"MultiPolygon","coordinates":[[[[-122.4748639,37.7181517],[-122.4749543,37.718696],[-122.4746789,37.7187253],[-122.4745849,37.7181783],[-122.4748639,37.7181517]]]]}},{"type":"Feature","properties":{"kind":"block","block":"19","label":"Block 19","stage":"entitled","height_ft":105,"podium_ft":65,"base_ft":0,"use":null,"phase":null,"illustrative":true,"source":"illustrative: drawn to the height limit of zoning district \"105-PM\" in DataSF Zoning Map – Height and Bulk Districts (https://data.sf.gov/d/h9wh-cg3m); Standard 03.03.01 and block number from Parkmerced Design Standards and Guidelines (revised 09-16-14), Figure 03.03.C, Maximum Height Plan, p. 103; envelope over the 65-ft limit of the fabric around it","note":"Mid-rise buildable envelope: a building may rise to 105 ft here over the 65-ft fabric limit; the DSG's Regulating Plan caps the footprint at each height per block (Appendix A).","fid":71},"geometry":{"type":"MultiPolygon","coordinates":[[[[-122.4747865,37.7169297],[-122.4748561,37.71734],[-122.4744775,37.7173847],[-122.4744042,37.7169636],[-122.4747865,37.7169297]]]]}},{"type":"Feature","properties":{"kind":"block","block":"19","label":"Block 19","stage":"entitled","height_ft":105,"podium_ft":65,"base_ft":0,"use":null,"phase":null,"illustrative":true,"source":"illustrative: drawn to the height limit of zoning district \"105-PM\" in DataSF Zoning Map – Height and Bulk Districts (https://data.sf.gov/d/h9wh-cg3m); Standard 03.03.01 and block number from Parkmerced Design Standards and Guidelines (revised 09-16-14), Figure 03.03.C, Maximum Height Plan, p. 103; envelope over the 65-ft limit of the fabric around it","note":"Mid-rise buildable envelope: a building may rise to 105 ft here over the 65-ft fabric limit; the DSG's Regulating Plan caps the footprint at each height per block (Appendix A).","fid":72},"geometry":{"type":"MultiPolygon","coordinates":[[[[-122.474507,37.7175717],[-122.4745349,37.717562],[-122.4751026,37.717502],[-122.4751279,37.7175047],[-122.4751466,37.7175159],[-122.4751565,37.7175328],[-122.475205,37.717806],[-122.4745606,37.7178756],[-122.474507,37.7175717]]]]}},{"type":"Feature","properties":{"kind":"block","block":"20","label":"Block 20","stage":"entitled","height_ft":45,"podium_ft":null,"base_ft":0,"use":null,"phase":null,"illustrative":true,"source":"illustrative: drawn to the height limit of zoning district \"45-PM\" in DataSF Zoning Map – Height and Bulk Districts (https://data.sf.gov/d/h9wh-cg3m); Standard 03.03.01 and block number from Parkmerced Design Standards and Guidelines (revised 09-16-14), Figure 03.03.C, Maximum Height Plan, p. 103","note":"Neighborhood fabric: low-rise buildings up to this height.","fid":73},"geometry":{"type":"MultiPolygon","coordinates":[[[[-122.4725338,37.7149012],[-122.4725688,37.7149084],[-122.4722256,37.7152594],[-122.4721507,37.7150594],[-122.4721779,37.715053],[-122.472184,37.7150247],[-122.4721994,37.7150003],[-122.4722242,37.7149794],[-122.4722557,37.7149652],[-122.4725338,37.7149012]]]]}},{"type":"Feature","properties":{"kind":"block","block":"20","label":"Block 20","stage":"entitled","height_ft":65,"podium_ft":null,"base_ft":0,"use":null,"phase":null,"illustrative":true,"source":"illustrative: drawn to the height limit of zoning district \"65-PM\" in DataSF Zoning Map – Height and Bulk Districts (https://data.sf.gov/d/h9wh-cg3m); Standard 03.03.01 and block number from Parkmerced Design Standards and Guidelines (revised 09-16-14), Figure 03.03.C, Maximum Height Plan, p. 103","note":"Neighborhood fabric: low-rise buildings up to this height.","fid":74},"geometry":{"type":"MultiPolygon","coordinates":[[[[-122.4729039,37.7170696],[-122.4722676,37.7153713],[-122.4727522,37.7156606],[-122.4728105,37.7156002],[-122.4729084,37.7155873],[-122.4728991,37.7155086],[-122.4729744,37.7154306],[-122.4730735,37.7154174],[-122.4730639,37.715338],[-122.4731556,37.7152432],[-122.4733572,37.7153656],[-122.4729555,37.7157835],[-122.4735322,37.716131],[-122.4735876,37.716073],[-122.4736871,37.7160606],[-122.4736776,37.7159789],[-122.4737497,37.7159035],[-122.4738504,37.7158902],[-122.4738404,37.7158086],[-122.4739311,37.7157138],[-122.4741811,37.7158655],[-122.4741985,37.7158884],[-122.4741945,37.7159149],[-122.4740731,37.7160433],[-122.4740416,37.7160946],[-122.4740287,37.7161524],[-122.4740365,37.716221],[-122.4734074,37.7162833],[-122.4735019,37.7168479],[-122.4736869,37.7168295],[-122.4737126,37.7168417],[-122.473733,37.716825],[-122.4739578,37.7168026],[-122.4739795,37.7168124],[-122.4739968,37.7167988],[-122.4741317,37.7167854],[-122.4741572,37.7169368],[-122.4729039,37.7170696]],[[-122.4732946,37.7163952],[-122.472723,37.7164541],[-122.4729082,37.7169255],[-122.47338,37.716882],[-122.4732946,37.7163952]]]]}},{"type":"Feature","properties":{"kind":"block","block":"20","label":"Block 20","stage":"entitled","height_ft":145,"podium_ft":65,"base_ft":0,"use":null,"phase":null,"illustrative":true,"source":"illustrative: drawn to the height limit of zoning district \"145-PM\" in DataSF Zoning Map – Height and Bulk Districts (https://data.sf.gov/d/h9wh-cg3m); Standard 03.03.01 and block number from Parkmerced Design Standards and Guidelines (revised 09-16-14), Figure 03.03.C, Maximum Height Plan, p. 103; envelope over the 65-ft limit of the fabric around it","note":"Mid-rise buildable envelope: a building may rise to 145 ft here over the 65-ft fabric limit; the DSG's Regulating Plan caps the footprint at each height per block (Appendix A).","fid":75},"geometry":{"type":"MultiPolygon","coordinates":[[[[-122.4732946,37.7163952],[-122.47338,37.716882],[-122.4729082,37.7169255],[-122.472723,37.7164541],[-122.4732946,37.7163952]]]]}},{"type":"Feature","properties":{"kind":"block","block":"21","label":"Block 21","stage":"entitled","height_ft":65,"podium_ft":null,"base_ft":0,"use":null,"phase":null,"illustrative":true,"source":"illustrative: drawn to the height limit of zoning district \"65-PM\" in DataSF Zoning Map – Height and Bulk Districts (https://data.sf.gov/d/h9wh-cg3m); Standard 03.03.01 and block number from Parkmerced Design Standards and Guidelines (revised 09-16-14), Figure 03.03.C, Maximum Height Plan, p. 103","note":"Neighborhood fabric: low-rise buildings up to this height.","fid":76},"geometry":{"type":"MultiPolygon","coordinates":[[[[-122.4746719,37.7158405],[-122.4746406,37.7157898],[-122.4745938,37.7157499],[-122.4745298,37.715721],[-122.4744551,37.715709],[-122.4736091,37.7151906],[-122.4732484,37.7149767],[-122.4732253,37.7149523],[-122.47322,37.7149232],[-122.4731392,37.7148742],[-122.4731209,37.7149096],[-122.4731062,37.7149112],[-122.4730783,37.7148881],[-122.4731086,37.7148556],[-122.4729059,37.7147325],[-122.4728772,37.7147016],[-122.4728694,37.7146625],[-122.4728855,37.714625],[-122.4732306,37.7142657],[-122.4732805,37.7145919],[-122.4735512,37.714564],[-122.4735798,37.714578],[-122.4736029,37.7145586],[-122.4738173,37.7145365],[-122.473847,37.7145512],[-122.4738708,37.714531],[-122.4739418,37.7145236],[-122.4739329,37.714467],[-122.4739612,37.7144334],[-122.4739235,37.7144071],[-122.4738765,37.7141065],[-122.4739015,37.7140762],[-122.473868,37.7140525],[-122.4738527,37.7139546],[-122.4732925,37.7140117],[-122.4732181,37.7135626],[-122.473322,37.7133653],[-122.4733574,37.7133394],[-122.4733841,37.7133352],[-122.4734107,37.7133396],[-122.4738041,37.7134882],[-122.4739281,37.71355],[-122.4740395,37.7136254],[-122.4741134,37.7136899],[-122.4743696,37.7139472],[-122.474285,37.7140372],[-122.4743992,37.7141517],[-122.4743279,37.7142565],[-122.4743648,37.7143077],[-122.474014,37.7148085],[-122.4736811,37.7146173],[-122.4733449,37.7149626],[-122.4736821,37.7151682],[-122.4739305,37.7149276],[-122.4742444,37.7151207],[-122.4740079,37.715363],[-122.4744665,37.7156414],[-122.4746916,37.7153958],[-122.475034,37.7156065],[-122.4753399,37.7156267],[-122.4750189,37.7159641],[-122.4753483,37.7161608],[-122.475685,37.7158194],[-122.4753791,37.7156293],[-122.4757936,37.7156568],[-122.4757778,37.715875],[-122.476295,37.7159102],[-122.4763095,37.715691],[-122.4763383,37.715693],[-122.4763421,37.7157259],[-122.4765025,37.7157594],[-122.4764868,37.7159924],[-122.4765245,37.7160327],[-122.4764693,37.7160671],[-122.4762245,37.7163157],[-122.4757551,37.7160166],[-122.4755335,37.7162607],[-122.475985,37.716559],[-122.475955,37.7165826],[-122.4759174,37.716588],[-122.4758879,37.7165783],[-122.4746719,37.7158405]]]]}},{"type":"Feature","properties":{"kind":"block","block":"21","label":"Block 21","stage":"entitled","height_ft":85,"podium_ft":65,"base_ft":0,"use":null,"phase":null,"illustrative":true,"source":"illustrative: drawn to the height limit of zoning district \"85-PM\" in DataSF Zoning Map – Height and Bulk Districts (https://data.sf.gov/d/h9wh-cg3m); Standard 03.03.01 and block number from Parkmerced Design Standards and Guidelines (revised 09-16-14), Figure 03.03.C, Maximum Height Plan, p. 103; envelope over the 65-ft limit of the fabric around it","note":"Mid-rise buildable envelope: a building may rise to 85 ft here over the 65-ft fabric limit; the DSG's Regulating Plan caps the footprint at each height per block (Appendix A).","fid":77},"geometry":{"type":"MultiPolygon","coordinates":[[[[-122.4757936,37.7156568],[-122.4763095,37.715691],[-122.476295,37.7159102],[-122.4757778,37.715875],[-122.4757936,37.7156568]]]]}},{"type":"Feature","properties":{"kind":"block","block":"21","label":"Block 21","stage":"entitled","height_ft":85,"podium_ft":65,"base_ft":0,"use":null,"phase":null,"illustrative":true,"source":"illustrative: drawn to the height limit of zoning district \"85-PM\" in DataSF Zoning Map – Height and Bulk Districts (https://data.sf.gov/d/h9wh-cg3m); Standard 03.03.01 and block number from Parkmerced Design Standards and Guidelines (revised 09-16-14), Figure 03.03.C, Maximum Height Plan, p. 103; envelope over the 65-ft limit of the fabric around it","note":"Mid-rise buildable envelope: a building may rise to 85 ft here over the 65-ft fabric limit; the DSG's Regulating Plan caps the footprint at each height per block (Appendix A).","fid":78},"geometry":{"type":"MultiPolygon","coordinates":[[[[-122.475985,37.716559],[-122.4755335,37.7162607],[-122.4757551,37.7160166],[-122.4762245,37.7163157],[-122.475985,37.716559]]]]}},{"type":"Feature","properties":{"kind":"block","block":"21","label":"Block 21","stage":"entitled","height_ft":145,"podium_ft":65,"base_ft":0,"use":null,"phase":null,"illustrative":true,"source":"illustrative: drawn to the height limit of zoning district \"145-PM\" in DataSF Zoning Map – Height and Bulk Districts (https://data.sf.gov/d/h9wh-cg3m); Standard 03.03.01 and block number from Parkmerced Design Standards and Guidelines (revised 09-16-14), Figure 03.03.C, Maximum Height Plan, p. 103; envelope over the 65-ft limit of the fabric around it","note":"Mid-rise buildable envelope: a building may rise to 145 ft here over the 65-ft fabric limit; the DSG's Regulating Plan caps the footprint at each height per block (Appendix A).","fid":79},"geometry":{"type":"MultiPolygon","coordinates":[[[[-122.4753791,37.7156293],[-122.475685,37.7158194],[-122.4753483,37.7161608],[-122.4750189,37.7159641],[-122.4753399,37.7156267],[-122.4753791,37.7156293]]]]}},{"type":"Feature","properties":{"kind":"block","block":"21","label":"Block 21","stage":"entitled","height_ft":145,"podium_ft":65,"base_ft":0,"use":null,"phase":null,"illustrative":true,"source":"illustrative: drawn to the height limit of zoning district \"145-PM\" in DataSF Zoning Map – Height and Bulk Districts (https://data.sf.gov/d/h9wh-cg3m); Standard 03.03.01 and block number from Parkmerced Design Standards and Guidelines (revised 09-16-14), Figure 03.03.C, Maximum Height Plan, p. 103; envelope over the 65-ft limit of the fabric around it","note":"Mid-rise buildable envelope: a building may rise to 145 ft here over the 65-ft fabric limit; the DSG's Regulating Plan caps the footprint at each height per block (Appendix A).","fid":80},"geometry":{"type":"MultiPolygon","coordinates":[[[[-122.4742444,37.7151207],[-122.4746916,37.7153958],[-122.4744665,37.7156414],[-122.4740079,37.715363],[-122.4742444,37.7151207]]]]}},{"type":"Feature","properties":{"kind":"block","block":"21","label":"Block 21","stage":"entitled","height_ft":145,"podium_ft":65,"base_ft":0,"use":null,"phase":null,"illustrative":true,"source":"illustrative: drawn to the height limit of zoning district \"145-PM\" in DataSF Zoning Map – Height and Bulk Districts (https://data.sf.gov/d/h9wh-cg3m); Standard 03.03.01 and block number from Parkmerced Design Standards and Guidelines (revised 09-16-14), Figure 03.03.C, Maximum Height Plan, p. 103; envelope over the 65-ft limit of the fabric around it","note":"Mid-rise buildable envelope: a building may rise to 145 ft here over the 65-ft fabric limit; the DSG's Regulating Plan caps the footprint at each height per block (Appendix A).","fid":81},"geometry":{"type":"MultiPolygon","coordinates":[[[[-122.4739305,37.7149276],[-122.4736821,37.7151682],[-122.4733449,37.7149626],[-122.4736811,37.7146173],[-122.474014,37.7148085],[-122.4739305,37.7149276]]]]}},{"type":"Feature","properties":{"kind":"block","block":"22","label":"Block 22","stage":"entitled","height_ft":65,"podium_ft":null,"base_ft":0,"use":null,"phase":null,"illustrative":true,"source":"illustrative: drawn to the height limit of zoning district \"65-PM\" in DataSF Zoning Map – Height and Bulk Districts (https://data.sf.gov/d/h9wh-cg3m); Standard 03.03.01 and block number from Parkmerced Design Standards and Guidelines (revised 09-16-14), Figure 03.03.C, Maximum Height Plan, p. 103","note":"Neighborhood fabric: low-rise buildings up to this height.","fid":82},"geometry":{"type":"MultiPolygon","coordinates":[[[[-122.4726384,37.7147958],[-122.4726298,37.7147983],[-122.4724971,37.714713],[-122.472091,37.714809],[-122.4720571,37.7148096],[-122.4717915,37.7141007],[-122.4717739,37.7140817],[-122.4717639,37.7140536],[-122.4720818,37.7139494],[-122.4720305,37.7136672],[-122.4729355,37.7135824],[-122.4729428,37.7135496],[-122.4729951,37.7135223],[-122.472996,37.7135714],[-122.4730834,37.7140919],[-122.4730762,37.7141108],[-122.4729907,37.7141997],[-122.4729283,37.7141618],[-122.4729169,37.7141165],[-122.4728596,37.7141202],[-122.4725679,37.713943],[-122.4725566,37.7138964],[-122.4724973,37.7139001],[-122.4723523,37.7138121],[-122.4720137,37.7141705],[-122.472653,37.714551],[-122.4725055,37.7147044],[-122.4728499,37.7149165],[-122.4728493,37.7149245],[-122.4726384,37.7147958]]]]}},{"type":"Feature","properties":{"kind":"block","block":"22","label":"Block 22","stage":"entitled","height_ft":145,"podium_ft":65,"base_ft":0,"use":null,"phase":null,"illustrative":true,"source":"illustrative: drawn to the height limit of zoning district \"145-PM\" in DataSF Zoning Map – Height and Bulk Districts (https://data.sf.gov/d/h9wh-cg3m); Standard 03.03.01 and block number from Parkmerced Design Standards and Guidelines (revised 09-16-14), Figure 03.03.C, Maximum Height Plan, p. 103; envelope over the 65-ft limit of the fabric around it","note":"Mid-rise buildable envelope: a building may rise to 145 ft here over the 65-ft fabric limit; the DSG's Regulating Plan caps the footprint at each height per block (Appendix A).","fid":83},"geometry":{"type":"MultiPolygon","coordinates":[[[[-122.4729951,37.7135223],[-122.4729428,37.7135496],[-122.4729355,37.7135824],[-122.4720305,37.7136672],[-122.4720818,37.7139494],[-122.4717639,37.7140536],[-122.4716688,37.713605],[-122.4716712,37.7135349],[-122.4716933,37.7134696],[-122.4717271,37.7134179],[-122.471773,37.7133725],[-122.4722782,37.7129873],[-122.472309,37.7129698],[-122.4723702,37.7129559],[-122.472433,37.7129638],[-122.4730994,37.7132176],[-122.4731171,37.7132433],[-122.473116,37.7132716],[-122.4730124,37.7134627],[-122.4729951,37.7135223]]]]}}]}
