{
 "type": "FeatureCollection",
 "properties": {
  "project": "parkline",
  "illustrative": true,
  "summary": "Illustrative massing: the 14 new buildings of the approved 2025 master plan (three apartment buildings, two townhome groups, five office/R&D buildings, an amenity building and three parking garages) are drawn as their footprints on the plan's Conceptual Building Height Plan (Sheet G3.03, June 24, 2025), at its approximate parapet heights of 35 to 91 ft. The sheet calls these heights an illustrative example within the design standards' limits. Buildings P, S and T, which SRI keeps, stay in the base map; the affordable housing parcel and the public park have no building drawn. Nothing new has been built, and the 2026 Phase 2 proposal isn't drawn.",
  "note": "Buildings are drawn from the approved 2025 plan's conceptual height plan; final designs come with each building's architectural control permit.",
  "sourceUrl": "https://www.menlopark.gov/files/sharedassets/public/v/1/community-development/documents/projects/under-review/parkline/map20250703/project-variant-master-plan-set_0703.pdf",
  "sourceLabel": "Master plan project plans, 2025 (PDF)",
  "georeference": {
   "sheet_g3_03": {
    "scale_m_per_unit": 0.2027,
    "rotation_deg": 58.151,
    "rms_m": 1.39,
    "controls": [
     {
      "label": "Ravenswood Avenue / Laurel Street",
      "residual_m": 0.49
     },
     {
      "label": "Ravenswood Avenue / Pine Street",
      "residual_m": 1.24
     },
     {
      "label": "Ravenswood Avenue / Marcussen Drive",
      "residual_m": 2.29
     },
     {
      "label": "Ravenswood Avenue / Middlefield Road",
      "residual_m": 1.82
     },
     {
      "label": "Middlefield Road / Ringwood Avenue",
      "residual_m": 1.28
     },
     {
      "label": "Middlefield Road / Seminary Drive",
      "residual_m": 0.93
     },
     {
      "label": "Laurel Street / Burgess Drive",
      "residual_m": 0.79
     }
    ],
    "method": "street-centreline intersections matched to OpenStreetMap, least-squares similarity",
    "sheet_scale_m_per_unit": 0.2032
   },
   "check_against_parcels": {
    "footprints_m2": 73083,
    "off_site_m2": 0,
    "off_site_share": 0.0
   }
  },
  "documents": {
   "project_plans": {
    "title": "Parkline Master Plan Project Plans, project variant (June 24, 2025)",
    "url": "https://www.menlopark.gov/files/sharedassets/public/v/1/community-development/documents/projects/under-review/parkline/map20250703/project-variant-master-plan-set_0703.pdf",
    "sha256": "787ff582d1345e4c38354c200efbc23f827c698a3125995e58aaa744a55de513",
    "pages": "Sheet G3.03, PDF p. 73"
   },
   "cdp_and_design_standards": {
    "title": "City Council staff report 25-143-CC (Sept 30, 2025), CDP section 2.3.4 (p. J-1.587) and Design Standards (CDP Exhibit D, pp. J-1.627, J-1.651)",
    "url": "https://www.menlopark.gov/files/sharedassets/public/v/2/agendas-and-minutes/city-council/2025-meetings/20250930/j1-20250930-cc-parkline.pdf"
   }
  },
  "license": "Building footprints: traced from a public City of Menlo Park document. Georeference: OpenStreetMap contributors (ODbL 1.0), via Overture Maps."
 },
 "features": [
  {
   "type": "Feature",
   "properties": {
    "kind": "building",
    "label": "Residential 1",
    "stage": "entitled",
    "height_ft": 72.0,
    "podium_ft": null,
    "base_ft": 0,
    "use": "residential",
    "phase": null,
    "illustrative": true,
    "source": "illustrative: footprint and approximate parapet height (72 ft, 4-6 stories) traced from Parkline Master Plan Project Plans, project variant (June 24, 2025), Sheet G3.03 \"Conceptual Building Height Plan\" (PDF p. 73); CDP 2.3.4",
    "note": "G3.03 calls its heights an illustrative example. The design standards cap multifamily buildings at 75 ft, before allowed parapets and rooftop structures. Steps between 4 and 6 stories by wing; drawn whole at the building's height."
   },
   "geometry": {
    "type": "MultiPolygon",
    "coordinates": [
     [
      [
       [
        -122.1786531,
        37.4558017
       ],
       [
        -122.1786432,
        37.4557902
       ],
       [
        -122.1787156,
        37.4556992
       ],
       [
        -122.1785142,
        37.4555975
       ],
       [
        -122.1784051,
        37.4557349
       ],
       [
        -122.1783877,
        37.4557261
       ],
       [
        -122.1783897,
        37.4557098
       ],
       [
        -122.1781593,
        37.4555935
       ],
       [
        -122.1780935,
        37.4555603
       ],
       [
        -122.1780779,
        37.4555697
       ],
       [
        -122.1780605,
        37.4555609
       ],
       [
        -122.1780689,
        37.4555435
       ],
       [
        -122.1780764,
        37.4555408
       ],
       [
        -122.1780861,
        37.4555457
       ],
       [
        -122.1780954,
        37.4555374
       ],
       [
        -122.1781947,
        37.4554124
       ],
       [
        -122.1781924,
        37.4553982
       ],
       [
        -122.1782684,
        37.4553026
       ],
       [
        -122.1780593,
        37.455197
       ],
       [
        -122.1779808,
        37.4552958
       ],
       [
        -122.1779655,
        37.4552945
       ],
       [
        -122.1777424,
        37.4555754
       ],
       [
        -122.1777573,
        37.4555873
       ],
       [
        -122.1778334,
        37.4556214
       ],
       [
        -122.1778383,
        37.455639
       ],
       [
        -122.1775465,
        37.4560064
       ],
       [
        -122.1775718,
        37.4560257
       ],
       [
        -122.1771787,
        37.456517
       ],
       [
        -122.1771635,
        37.4565396
       ],
       [
        -122.1771753,
        37.4565521
       ],
       [
        -122.1771012,
        37.4566487
       ],
       [
        -122.1776891,
        37.4569434
       ],
       [
        -122.1777577,
        37.456857
       ],
       [
        -122.177775,
        37.4568592
       ],
       [
        -122.1781061,
        37.4564425
       ],
       [
        -122.1780679,
        37.4564188
       ],
       [
        -122.1780677,
        37.4564123
       ],
       [
        -122.1780764,
        37.456408
       ],
       [
        -122.1780905,
        37.4564108
       ],
       [
        -122.1784326,
        37.4559802
       ],
       [
        -122.1784305,
        37.4559726
       ],
       [
        -122.1784391,
        37.4559618
       ],
       [
        -122.1784732,
        37.4559769
       ],
       [
        -122.1785014,
        37.4559825
       ],
       [
        -122.1785504,
        37.4559207
       ],
       [
        -122.1785599,
        37.455919
       ],
       [
        -122.1786531,
        37.4558017
       ]
      ],
      [
       [
        -122.1777992,
        37.4564497
       ],
       [
        -122.177784,
        37.4564723
       ],
       [
        -122.1777643,
        37.4564732
       ],
       [
        -122.1777296,
        37.456527
       ],
       [
        -122.1776634,
        37.4566104
       ],
       [
        -122.1776515,
        37.4566152
       ],
       [
        -122.1776331,
        37.4566383
       ],
       [
        -122.1776417,
        37.4566513
       ],
       [
        -122.1776258,
        37.4566714
       ],
       [
        -122.1775974,
        37.4566593
       ],
       [
        -122.1776002,
        37.4566455
       ],
       [
        -122.1775654,
        37.4566279
       ],
       [
        -122.1775578,
        37.4566306
       ],
       [
        -122.1774707,
        37.4565866
       ],
       [
        -122.17746,
        37.4565898
       ],
       [
        -122.1774367,
        37.4565781
       ],
       [
        -122.17745,
        37.4565545
       ],
       [
        -122.177466,
        37.4565583
       ],
       [
        -122.1774717,
        37.4565547
       ],
       [
        -122.1774864,
        37.4565361
       ],
       [
        -122.1774879,
        37.4565239
       ],
       [
        -122.1775615,
        37.4564313
       ],
       [
        -122.1776004,
        37.4563926
       ],
       [
        -122.1776014,
        37.4563845
       ],
       [
        -122.1775923,
        37.4563755
       ],
       [
        -122.177607,
        37.456357
       ],
       [
        -122.1776366,
        37.4563676
       ],
       [
        -122.1776355,
        37.4563757
       ],
       [
        -122.1777226,
        37.4564197
       ],
       [
        -122.1777248,
        37.4564273
       ],
       [
        -122.1777616,
        37.4564458
       ],
       [
        -122.177774,
        37.456437
       ],
       [
        -122.1777992,
        37.4564497
       ]
      ]
     ]
    ]
   }
  },
  {
   "type": "Feature",
   "properties": {
    "kind": "building",
    "label": "Residential 2",
    "stage": "entitled",
    "height_ft": 62.0,
    "podium_ft": null,
    "base_ft": 0,
    "use": "residential",
    "phase": null,
    "illustrative": true,
    "source": "illustrative: footprint and approximate parapet height (62 ft, 3-5 stories) traced from Parkline Master Plan Project Plans, project variant (June 24, 2025), Sheet G3.03 \"Conceptual Building Height Plan\" (PDF p. 73); CDP 2.3.4",
    "note": "G3.03 calls its heights an illustrative example. The design standards cap multifamily buildings at 75 ft, before allowed parapets and rooftop structures. Steps between 3 and 5 stories by wing; drawn whole at the building's height."
   },
   "geometry": {
    "type": "MultiPolygon",
    "coordinates": [
     [
      [
       [
        -122.1779762,
        37.4550079
       ],
       [
        -122.177976,
        37.4550014
       ],
       [
        -122.1778657,
        37.4549456
       ],
       [
        -122.1778653,
        37.4549325
       ],
       [
        -122.1775807,
        37.4547888
       ],
       [
        -122.1775822,
        37.4547766
       ],
       [
        -122.1774951,
        37.4547326
       ],
       [
        -122.1774849,
        37.4547318
       ],
       [
        -122.1774358,
        37.4547935
       ],
       [
        -122.177416,
        37.4547878
       ],
       [
        -122.1774087,
        37.4547798
       ],
       [
        -122.1774122,
        37.4547686
       ],
       [
        -122.1771354,
        37.4546288
       ],
       [
        -122.1771259,
        37.4546305
       ],
       [
        -122.1771085,
        37.4546217
       ],
       [
        -122.177107,
        37.4546167
       ],
       [
        -122.1771473,
        37.4545591
       ],
       [
        -122.1766691,
        37.4543177
       ],
       [
        -122.1766579,
        37.454325
       ],
       [
        -122.1766255,
        37.4543043
       ],
       [
        -122.1765436,
        37.4542673
       ],
       [
        -122.176413,
        37.4544284
       ],
       [
        -122.176526,
        37.4544876
       ],
       [
        -122.1765244,
        37.4544998
       ],
       [
        -122.1769039,
        37.4546914
       ],
       [
        -122.1768285,
        37.4547896
       ],
       [
        -122.1768319,
        37.4547956
       ],
       [
        -122.1768214,
        37.4548055
       ],
       [
        -122.1763301,
        37.4545531
       ],
       [
        -122.1760567,
        37.4548973
       ],
       [
        -122.1760263,
        37.4549252
       ],
       [
        -122.1759675,
        37.4549993
       ],
       [
        -122.175987,
        37.4550157
       ],
       [
        -122.1759066,
        37.4551135
       ],
       [
        -122.1760944,
        37.4552083
       ],
       [
        -122.1761184,
        37.4551815
       ],
       [
        -122.1761499,
        37.4551931
       ],
       [
        -122.176151,
        37.4552088
       ],
       [
        -122.1763756,
        37.4553222
       ],
       [
        -122.1763895,
        37.4553183
       ],
       [
        -122.1764146,
        37.4553311
       ],
       [
        -122.1763933,
        37.4553614
       ],
       [
        -122.1769864,
        37.455663
       ],
       [
        -122.1769928,
        37.4556619
       ],
       [
        -122.1771308,
        37.4554915
       ],
       [
        -122.1771755,
        37.4554319
       ],
       [
        -122.1771695,
        37.4554224
       ],
       [
        -122.1771854,
        37.4554023
       ],
       [
        -122.1772137,
        37.4554145
       ],
       [
        -122.1772173,
        37.4554271
       ],
       [
        -122.1773025,
        37.4554701
       ],
       [
        -122.1773218,
        37.4554799
       ],
       [
        -122.1773338,
        37.4554751
       ],
       [
        -122.1774545,
        37.4555382
       ],
       [
        -122.177492,
        37.4554944
       ],
       [
        -122.1775015,
        37.4554927
       ],
       [
        -122.1775935,
        37.455377
       ],
       [
        -122.1774708,
        37.4553129
       ],
       [
        -122.177468,
        37.4553028
       ],
       [
        -122.1773537,
        37.4552451
       ],
       [
        -122.1773374,
        37.455252
       ],
       [
        -122.1773154,
        37.4552387
       ],
       [
        -122.1773264,
        37.4552248
       ],
       [
        -122.1773456,
        37.455228
       ],
       [
        -122.1774094,
        37.4551478
       ],
       [
        -122.1775099,
        37.4550212
       ],
       [
        -122.1774969,
        37.4550103
       ],
       [
        -122.1775067,
        37.454998
       ],
       [
        -122.1775142,
        37.4549953
       ],
       [
        -122.1775336,
        37.4550051
       ],
       [
        -122.177527,
        37.4550168
       ],
       [
        -122.1775315,
        37.4550213
       ],
       [
        -122.1777135,
        37.4551132
       ],
       [
        -122.1777323,
        37.4551032
       ],
       [
        -122.1778492,
        37.4551644
       ],
       [
        -122.1779762,
        37.4550079
       ]
      ],
      [
       [
        -122.1766967,
        37.4549761
       ],
       [
        -122.1766802,
        37.4550002
       ],
       [
        -122.1766656,
        37.4550015
       ],
       [
        -122.1766485,
        37.4550231
       ],
       [
        -122.1765565,
        37.4551388
       ],
       [
        -122.1765613,
        37.4551499
       ],
       [
        -122.1765422,
        37.4551705
       ],
       [
        -122.1765189,
        37.4551588
       ],
       [
        -122.1765161,
        37.4551487
       ],
       [
        -122.1764767,
        37.4551267
       ],
       [
        -122.1762927,
        37.4550338
       ],
       [
        -122.176275,
        37.4550356
       ],
       [
        -122.1762503,
        37.4550189
       ],
       [
        -122.176267,
        37.4550013
       ],
       [
        -122.1762823,
        37.4550025
       ],
       [
        -122.1763044,
        37.4549748
       ],
       [
        -122.176303,
        37.4549697
       ],
       [
        -122.1763883,
        37.4548657
       ],
       [
        -122.1763865,
        37.4548475
       ],
       [
        -122.1764031,
        37.45483
       ],
       [
        -122.1764276,
        37.4548402
       ],
       [
        -122.1764331,
        37.4548538
       ],
       [
        -122.1766247,
        37.4549505
       ],
       [
        -122.1766647,
        37.4549686
       ],
       [
        -122.1766754,
        37.4549653
       ],
       [
        -122.1766967,
        37.4549761
       ]
      ]
     ]
    ]
   }
  },
  {
   "type": "Feature",
   "properties": {
    "kind": "building",
    "label": "Residential 3",
    "stage": "entitled",
    "height_ft": 75.0,
    "podium_ft": null,
    "base_ft": 0,
    "use": "residential",
    "phase": null,
    "illustrative": true,
    "source": "illustrative: footprint and approximate parapet height (75 ft, 6 stories) traced from Parkline Master Plan Project Plans, project variant (June 24, 2025), Sheet G3.03 \"Conceptual Building Height Plan\" (PDF p. 73); CDP 2.3.4",
    "note": "G3.03 calls its heights an illustrative example. The design standards cap multifamily buildings at 75 ft, before allowed parapets and rooftop structures."
   },
   "geometry": {
    "type": "MultiPolygon",
    "coordinates": [
     [
      [
       [
        -122.1758015,
        37.4594181
       ],
       [
        -122.1758381,
        37.4593652
       ],
       [
        -122.1753502,
        37.4591189
       ],
       [
        -122.1753083,
        37.4591647
       ],
       [
        -122.1748662,
        37.4597244
       ],
       [
        -122.17536,
        37.4599737
       ],
       [
        -122.1758015,
        37.4594181
       ]
      ]
     ]
    ]
   }
  },
  {
   "type": "Feature",
   "properties": {
    "kind": "building",
    "label": "Town Homes 1",
    "stage": "entitled",
    "height_ft": 35.0,
    "podium_ft": null,
    "base_ft": 0,
    "use": "residential",
    "phase": null,
    "illustrative": true,
    "source": "illustrative: footprint and approximate parapet height (35 ft, 2 stories) traced from Parkline Master Plan Project Plans, project variant (June 24, 2025), Sheet G3.03 \"Conceptual Building Height Plan\" (PDF p. 73); CDP 2.3.4",
    "note": "G3.03 calls its heights an illustrative example. The design standards cap townhomes at 40 ft if attached or 35 ft if detached, before allowed parapets and rooftop structures."
   },
   "geometry": {
    "type": "MultiPolygon",
    "coordinates": [
     [
      [
       [
        -122.1763019,
        37.4543053
       ],
       [
        -122.1762148,
        37.4542613
       ],
       [
        -122.1762016,
        37.4542676
       ],
       [
        -122.1761733,
        37.4542554
       ],
       [
        -122.1760955,
        37.4543568
       ],
       [
        -122.1761575,
        37.454388
       ],
       [
        -122.1761508,
        37.4543998
       ],
       [
        -122.1761992,
        37.4544243
       ],
       [
        -122.1762066,
        37.454415
       ],
       [
        -122.1762148,
        37.4544148
       ],
       [
        -122.1763019,
        37.4543053
       ]
      ]
     ],
     [
      [
       [
        -122.176113,
        37.4545429
       ],
       [
        -122.1761183,
        37.4545261
       ],
       [
        -122.1760699,
        37.4545017
       ],
       [
        -122.1760625,
        37.4545109
       ],
       [
        -122.1760523,
        37.4545101
       ],
       [
        -122.1759993,
        37.4544812
       ],
       [
        -122.175993,
        37.4544823
       ],
       [
        -122.1759133,
        37.4545827
       ],
       [
        -122.1759392,
        37.4545979
       ],
       [
        -122.1759396,
        37.4546111
       ],
       [
        -122.176026,
        37.4546525
       ],
       [
        -122.176113,
        37.4545429
       ]
      ]
     ],
     [
      [
       [
        -122.1763901,
        37.4540406
       ],
       [
        -122.1762539,
        37.4539696
       ],
       [
        -122.1762432,
        37.4539728
       ],
       [
        -122.1762335,
        37.453968
       ],
       [
        -122.1762021,
        37.454004
       ],
       [
        -122.1762152,
        37.4540149
       ],
       [
        -122.1761759,
        37.4540643
       ],
       [
        -122.1763005,
        37.4541294
       ],
       [
        -122.1763196,
        37.4541088
       ],
       [
        -122.1763349,
        37.45411
       ],
       [
        -122.1763901,
        37.4540406
       ]
      ]
     ],
     [
      [
       [
        -122.1763067,
        37.4541455
       ],
       [
        -122.1761705,
        37.4540746
       ],
       [
        -122.176163,
        37.4540772
       ],
       [
        -122.1761482,
        37.4540719
       ],
       [
        -122.1761175,
        37.4541105
       ],
       [
        -122.1761306,
        37.4541214
       ],
       [
        -122.1760925,
        37.4541693
       ],
       [
        -122.1762184,
        37.4542328
       ],
       [
        -122.1762363,
        37.4542137
       ],
       [
        -122.1762516,
        37.454215
       ],
       [
        -122.1763067,
        37.4541455
       ]
      ]
     ],
     [
      [
       [
        -122.1761636,
        37.4542506
       ],
       [
        -122.1761377,
        37.4542353
       ],
       [
        -122.1761393,
        37.4542231
       ],
       [
        -122.1760553,
        37.4541786
       ],
       [
        -122.1759651,
        37.4542887
       ],
       [
        -122.1759704,
        37.4542957
       ],
       [
        -122.175963,
        37.454305
       ],
       [
        -122.1760075,
        37.4543275
       ],
       [
        -122.1760181,
        37.4543176
       ],
       [
        -122.1760851,
        37.4543493
       ],
       [
        -122.1761636,
        37.4542506
       ]
      ]
     ],
     [
      [
       [
        -122.1760713,
        37.4539228
       ],
       [
        -122.1760583,
        37.4539119
       ],
       [
        -122.1760574,
        37.4539028
       ],
       [
        -122.1759219,
        37.4538344
       ],
       [
        -122.1758647,
        37.4539029
       ],
       [
        -122.1758715,
        37.4539149
       ],
       [
        -122.1758555,
        37.453935
       ],
       [
        -122.1759821,
        37.454001
       ],
       [
        -122.1760245,
        37.4539511
       ],
       [
        -122.1760424,
        37.4539558
       ],
       [
        -122.1760493,
        37.4539506
       ],
       [
        -122.1760713,
        37.4539228
       ]
      ]
     ],
     [
      [
       [
        -122.1759536,
        37.454071
       ],
       [
        -122.1759367,
        37.4540581
       ],
       [
        -122.1759754,
        37.4540128
       ],
       [
        -122.175974,
        37.4540078
       ],
       [
        -122.1758501,
        37.4539452
       ],
       [
        -122.175831,
        37.4539658
       ],
       [
        -122.1758145,
        37.4539661
       ],
       [
        -122.1757605,
        37.454034
       ],
       [
        -122.1758999,
        37.4541044
       ],
       [
        -122.1759254,
        37.4541065
       ],
       [
        -122.1759536,
        37.454071
       ]
      ]
     ],
     [
      [
       [
        -122.1758683,
        37.454175
       ],
       [
        -122.175854,
        37.4541656
       ],
       [
        -122.1758925,
        37.4541137
       ],
       [
        -122.1757718,
        37.4540506
       ],
       [
        -122.1757635,
        37.4540507
       ],
       [
        -122.1757476,
        37.4540708
       ],
       [
        -122.1757323,
        37.4540695
       ],
       [
        -122.1756771,
        37.454139
       ],
       [
        -122.1758165,
        37.4542094
       ],
       [
        -122.1758432,
        37.4542099
       ],
       [
        -122.1758683,
        37.454175
       ]
      ]
     ],
     [
      [
       [
        -122.1757873,
        37.4542768
       ],
       [
        -122.1757724,
        37.454265
       ],
       [
        -122.1758116,
        37.4542156
       ],
       [
        -122.1756838,
        37.454151
       ],
       [
        -122.1756667,
        37.4541726
       ],
       [
        -122.1756514,
        37.4541714
       ],
       [
        -122.1755962,
        37.4542409
       ],
       [
        -122.1757324,
        37.4543118
       ],
       [
        -122.1757431,
        37.4543086
       ],
       [
        -122.1757611,
        37.4543133
       ],
       [
        -122.1757873,
        37.4542768
       ]
      ]
     ],
     [
      [
       [
        -122.1757027,
        37.4543833
       ],
       [
        -122.1756911,
        37.4543775
       ],
       [
        -122.175689,
        37.4543699
       ],
       [
        -122.1757282,
        37.4543205
       ],
       [
        -122.1756024,
        37.454257
       ],
       [
        -122.1755857,
        37.4542745
       ],
       [
        -122.175568,
        37.4542764
       ],
       [
        -122.1755128,
        37.4543458
       ],
       [
        -122.1756471,
        37.4544158
       ],
       [
        -122.1756597,
        37.4544135
       ],
       [
        -122.1756777,
        37.4544183
       ],
       [
        -122.1757027,
        37.4543833
       ]
      ]
     ],
     [
      [
       [
        -122.175999,
        37.4546865
       ],
       [
        -122.1759099,
        37.4546415
       ],
       [
        -122.1758999,
        37.4546473
       ],
       [
        -122.1758704,
        37.4546367
       ],
       [
        -122.1757919,
        37.4547355
       ],
       [
        -122.1757933,
        37.4547405
       ],
       [
        -122.1758507,
        37.4547673
       ],
       [
        -122.175854,
        37.4547733
       ],
       [
        -122.1758467,
        37.4547826
       ],
       [
        -122.1758951,
        37.454807
       ],
       [
        -122.1759024,
        37.4547978
       ],
       [
        -122.1759107,
        37.4547976
       ],
       [
        -122.175999,
        37.4546865
       ]
      ]
     ],
     [
      [
       [
        -122.1758068,
        37.4549182
       ],
       [
        -122.1758141,
        37.4549089
       ],
       [
        -122.1757657,
        37.4548845
       ],
       [
        -122.175754,
        37.4548958
       ],
       [
        -122.175694,
        37.4548655
       ],
       [
        -122.1756877,
        37.4548666
       ],
       [
        -122.1756099,
        37.4549679
       ],
       [
        -122.1756338,
        37.4549822
       ],
       [
        -122.1756316,
        37.4549919
       ],
       [
        -122.1757206,
        37.4550368
       ],
       [
        -122.1758089,
        37.4549257
       ],
       [
        -122.1758068,
        37.4549182
       ]
      ]
     ],
     [
      [
       [
        -122.1759833,
        37.4544774
       ],
       [
        -122.1759238,
        37.4544431
       ],
       [
        -122.1759285,
        37.4544303
       ],
       [
        -122.1758821,
        37.4544069
       ],
       [
        -122.1758747,
        37.4544161
       ],
       [
        -122.1758621,
        37.4544184
       ],
       [
        -122.1757769,
        37.4545289
       ],
       [
        -122.1758583,
        37.45457
       ],
       [
        -122.1758734,
        37.4545646
       ],
       [
        -122.1759048,
        37.4545762
       ],
       [
        -122.1759833,
        37.4544774
       ]
      ]
     ],
     [
      [
       [
        -122.1758607,
        37.4546318
       ],
       [
        -122.1758341,
        37.454614
       ],
       [
        -122.1758364,
        37.4546044
       ],
       [
        -122.1757524,
        37.4545598
       ],
       [
        -122.1756622,
        37.45467
       ],
       [
        -122.1756662,
        37.4546785
       ],
       [
        -122.1756596,
        37.4546903
       ],
       [
        -122.1757041,
        37.4547128
       ],
       [
        -122.1757171,
        37.4546999
       ],
       [
        -122.175781,
        37.4547321
       ],
       [
        -122.1758607,
        37.4546318
       ]
      ]
     ],
     [
      [
       [
        -122.1756792,
        37.4548602
       ],
       [
        -122.1756165,
        37.4548264
       ],
       [
        -122.1756244,
        37.4548131
       ],
       [
        -122.175578,
        37.4547896
       ],
       [
        -122.1755694,
        37.4548004
       ],
       [
        -122.1755579,
        37.4548011
       ],
       [
        -122.1754716,
        37.4549133
       ],
       [
        -122.175558,
        37.4549547
       ],
       [
        -122.1755699,
        37.4549499
       ],
       [
        -122.1755995,
        37.4549605
       ],
       [
        -122.1756792,
        37.4548602
       ]
      ]
     ],
     [
      [
       [
        -122.1756225,
        37.4544877
       ],
       [
        -122.1756056,
        37.4544749
       ],
       [
        -122.1756443,
        37.4544295
       ],
       [
        -122.1756441,
        37.4544229
       ],
       [
        -122.1755222,
        37.4543614
       ],
       [
        -122.1755011,
        37.454381
       ],
       [
        -122.1754858,
        37.4543798
       ],
       [
        -122.1754294,
        37.4544508
       ],
       [
        -122.1755688,
        37.4545212
       ],
       [
        -122.1755764,
        37.4545185
       ],
       [
        -122.1755943,
        37.4545232
       ],
       [
        -122.1756225,
        37.4544877
       ]
      ]
     ],
     [
      [
       [
        -122.1755391,
        37.4545927
       ],
       [
        -122.1755222,
        37.4545798
       ],
       [
        -122.1755609,
        37.4545345
       ],
       [
        -122.1755588,
        37.4545269
       ],
       [
        -122.1754388,
        37.4544663
       ],
       [
        -122.1754337,
        37.4544659
       ],
       [
        -122.1754177,
        37.454486
       ],
       [
        -122.1754012,
        37.4544863
       ],
       [
        -122.175346,
        37.4545557
       ],
       [
        -122.1754854,
        37.4546261
       ],
       [
        -122.175493,
        37.4546234
       ],
       [
        -122.1755109,
        37.4546282
       ],
       [
        -122.1755391,
        37.4545927
       ]
      ]
     ],
     [
      [
       [
        -122.1754557,
        37.4546976
       ],
       [
        -122.1754395,
        37.4546873
       ],
       [
        -122.1754437,
        37.4546786
       ],
       [
        -122.1754793,
        37.4546338
       ],
       [
        -122.1753534,
        37.4545703
       ],
       [
        -122.1753343,
        37.4545909
       ],
       [
        -122.175319,
        37.4545897
       ],
       [
        -122.1752639,
        37.4546591
       ],
       [
        -122.1754001,
        37.4547301
       ],
       [
        -122.1754108,
        37.4547268
       ],
       [
        -122.1754287,
        37.4547316
       ],
       [
        -122.1754557,
        37.4546976
       ]
      ]
     ],
     [
      [
       [
        -122.1753658,
        37.4547971
       ],
       [
        -122.1753581,
        37.4547932
       ],
       [
        -122.1753579,
        37.4547866
       ],
       [
        -122.1753959,
        37.4547388
       ],
       [
        -122.1752701,
        37.4546752
       ],
       [
        -122.175251,
        37.4546959
       ],
       [
        -122.1752344,
        37.4546962
       ],
       [
        -122.1751805,
        37.4547641
       ],
       [
        -122.1753148,
        37.4548341
       ],
       [
        -122.1753274,
        37.4548318
       ],
       [
        -122.1753454,
        37.4548365
       ],
       [
        -122.1753687,
        37.4548072
       ],
       [
        -122.1753658,
        37.4547971
       ]
      ]
     ]
    ]
   }
  },
  {
   "type": "Feature",
   "properties": {
    "kind": "building",
    "label": "Town Homes 2",
    "stage": "entitled",
    "height_ft": 45.0,
    "podium_ft": null,
    "base_ft": 0,
    "use": "residential",
    "phase": null,
    "illustrative": true,
    "source": "illustrative: footprint and approximate parapet height (45 ft, 3 stories) traced from Parkline Master Plan Project Plans, project variant (June 24, 2025), Sheet G3.03 \"Conceptual Building Height Plan\" (PDF p. 73); CDP 2.3.4",
    "note": "G3.03 calls its heights an illustrative example. The design standards cap townhomes at 40 ft if attached or 35 ft if detached, before allowed parapets and rooftop structures."
   },
   "geometry": {
    "type": "MultiPolygon",
    "coordinates": [
     [
      [
       [
        -122.1751623,
        37.4590651
       ],
       [
        -122.1751473,
        37.4590532
       ],
       [
        -122.1751576,
        37.4590368
       ],
       [
        -122.175024,
        37.4589693
       ],
       [
        -122.1747923,
        37.459261
       ],
       [
        -122.1749452,
        37.4593383
       ],
       [
        -122.1751623,
        37.4590651
       ]
      ]
     ],
     [
      [
       [
        -122.1748532,
        37.459454
       ],
       [
        -122.1748395,
        37.4594406
       ],
       [
        -122.1748486,
        37.4594257
       ],
       [
        -122.174715,
        37.4593583
       ],
       [
        -122.1745207,
        37.4596062
       ],
       [
        -122.1746717,
        37.4596824
       ],
       [
        -122.1748532,
        37.459454
       ]
      ]
     ],
     [
      [
       [
        -122.1749427,
        37.4589283
       ],
       [
        -122.1747123,
        37.4588119
       ],
       [
        -122.1746962,
        37.4588254
       ],
       [
        -122.1746788,
        37.4588166
       ],
       [
        -122.1745966,
        37.45892
       ],
       [
        -122.1745999,
        37.458926
       ],
       [
        -122.1748432,
        37.4590467
       ],
       [
        -122.1748507,
        37.459044
       ],
       [
        -122.1749427,
        37.4589283
       ]
      ]
     ],
     [
      [
       [
        -122.1748034,
        37.4591002
       ],
       [
        -122.174802,
        37.4590951
       ],
       [
        -122.1747013,
        37.4590443
       ],
       [
        -122.1747024,
        37.4590361
       ],
       [
        -122.1746695,
        37.4590195
       ],
       [
        -122.1746626,
        37.4590247
       ],
       [
        -122.1745581,
        37.4589719
       ],
       [
        -122.1744703,
        37.459079
       ],
       [
        -122.1744877,
        37.4590878
       ],
       [
        -122.1744825,
        37.4591046
       ],
       [
        -122.1744871,
        37.4591091
       ],
       [
        -122.1747109,
        37.45922
       ],
       [
        -122.1748034,
        37.4591002
       ]
      ]
     ],
     [
      [
       [
        -122.1746705,
        37.4592709
       ],
       [
        -122.174442,
        37.4591555
       ],
       [
        -122.1744252,
        37.4591665
       ],
       [
        -122.1744065,
        37.4591592
       ],
       [
        -122.1743231,
        37.4592642
       ],
       [
        -122.1745729,
        37.4593903
       ],
       [
        -122.1746705,
        37.4592709
       ]
      ]
     ],
     [
      [
       [
        -122.1745324,
        37.4594412
       ],
       [
        -122.1744278,
        37.4593885
       ],
       [
        -122.1744308,
        37.4593813
       ],
       [
        -122.1744173,
        37.4593745
       ],
       [
        -122.174396,
        37.4593637
       ],
       [
        -122.1743891,
        37.4593689
       ],
       [
        -122.1742846,
        37.4593161
       ],
       [
        -122.174198,
        37.4594216
       ],
       [
        -122.1742161,
        37.4594329
       ],
       [
        -122.1742083,
        37.4594463
       ],
       [
        -122.1742174,
        37.4594552
       ],
       [
        -122.1744355,
        37.4595632
       ],
       [
        -122.1745324,
        37.4594412
       ]
      ]
     ]
    ]
   }
  },
  {
   "type": "Feature",
   "properties": {
    "kind": "building",
    "label": "Office 1",
    "stage": "entitled",
    "height_ft": 75.0,
    "podium_ft": null,
    "base_ft": 0,
    "use": "office/R&D",
    "phase": null,
    "illustrative": true,
    "source": "illustrative: footprint and approximate parapet height (75 ft, 4 stories) traced from Parkline Master Plan Project Plans, project variant (June 24, 2025), Sheet G3.03 \"Conceptual Building Height Plan\" (PDF p. 73); CDP 2.3.4",
    "note": "G3.03 calls its heights an illustrative example. The design standards cap office/R&D buildings at 95 ft, before allowed parapets and rooftop structures."
   },
   "geometry": {
    "type": "MultiPolygon",
    "coordinates": [
     [
      [
       [
        -122.1762881,
        37.4578667
       ],
       [
        -122.1762879,
        37.4578601
       ],
       [
        -122.1762756,
        37.4578517
       ],
       [
        -122.176283,
        37.4578424
       ],
       [
        -122.1762784,
        37.457838
       ],
       [
        -122.1762838,
        37.4578277
       ],
       [
        -122.1766002,
        37.4574295
       ],
       [
        -122.1764608,
        37.4573591
       ],
       [
        -122.1764459,
        37.4573711
       ],
       [
        -122.1763588,
        37.4573271
       ],
       [
        -122.176361,
        37.4573174
       ],
       [
        -122.1763545,
        37.457312
       ],
       [
        -122.176219,
        37.4572435
       ],
       [
        -122.1757032,
        37.4578892
       ],
       [
        -122.1756944,
        37.4578935
       ],
       [
        -122.1756557,
        37.4578739
       ],
       [
        -122.1755164,
        37.4580458
       ],
       [
        -122.1755142,
        37.4580555
       ],
       [
        -122.1756981,
        37.4581483
       ],
       [
        -122.1757069,
        37.4581441
       ],
       [
        -122.1757979,
        37.4581901
       ],
       [
        -122.1758093,
        37.4581893
       ],
       [
        -122.1759526,
        37.4582617
       ],
       [
        -122.1762236,
        37.4579206
       ],
       [
        -122.176244,
        37.4579222
       ],
       [
        -122.1762881,
        37.4578667
       ]
      ]
     ]
    ]
   }
  },
  {
   "type": "Feature",
   "properties": {
    "kind": "building",
    "label": "Office 2",
    "stage": "entitled",
    "height_ft": 91.0,
    "podium_ft": null,
    "base_ft": 0,
    "use": "office/R&D",
    "phase": null,
    "illustrative": true,
    "source": "illustrative: footprint and approximate parapet height (91 ft, 5 stories) traced from Parkline Master Plan Project Plans, project variant (June 24, 2025), Sheet G3.03 \"Conceptual Building Height Plan\" (PDF p. 73); CDP 2.3.4",
    "note": "G3.03 calls its heights an illustrative example. The design standards cap office/R&D buildings at 95 ft, before allowed parapets and rooftop structures."
   },
   "geometry": {
    "type": "MultiPolygon",
    "coordinates": [
     [
      [
       [
        -122.1753783,
        37.457803
       ],
       [
        -122.1753723,
        37.4577935
       ],
       [
        -122.1753148,
        37.4577601
       ],
       [
        -122.1751901,
        37.4576712
       ],
       [
        -122.1751591,
        37.4576556
       ],
       [
        -122.1750953,
        37.4576061
       ],
       [
        -122.175052,
        37.4575821
       ],
       [
        -122.175046,
        37.4575725
       ],
       [
        -122.1748529,
        37.4574469
       ],
       [
        -122.1748099,
        37.4574122
       ],
       [
        -122.1745162,
        37.4572185
       ],
       [
        -122.1744817,
        37.4571902
       ],
       [
        -122.1744371,
        37.4571678
       ],
       [
        -122.1743754,
        37.4572318
       ],
       [
        -122.1743598,
        37.4572412
       ],
       [
        -122.174336,
        37.4572746
       ],
       [
        -122.1743425,
        37.45728
       ],
       [
        -122.1742796,
        37.4573456
       ],
       [
        -122.174241,
        37.4573326
       ],
       [
        -122.1741853,
        37.4573823
       ],
       [
        -122.1741373,
        37.4574359
       ],
       [
        -122.1743785,
        37.4575966
       ],
       [
        -122.174378,
        37.4576007
       ],
       [
        -122.1744396,
        37.4576426
       ],
       [
        -122.174481,
        37.4576657
       ],
       [
        -122.1744908,
        37.4576772
       ],
       [
        -122.174518,
        37.4576908
       ],
       [
        -122.1745629,
        37.4577265
       ],
       [
        -122.1746023,
        37.4577486
       ],
       [
        -122.1746083,
        37.4577581
       ],
       [
        -122.1745843,
        37.4577849
       ],
       [
        -122.1745978,
        37.4577917
       ],
       [
        -122.1745968,
        37.4577999
       ],
       [
        -122.1746505,
        37.4578313
       ],
       [
        -122.1746715,
        37.4578527
       ],
       [
        -122.1747648,
        37.4579128
       ],
       [
        -122.1747643,
        37.4579169
       ],
       [
        -122.1748134,
        37.4579438
       ],
       [
        -122.1748457,
        37.4579169
       ],
       [
        -122.1748936,
        37.4579454
       ],
       [
        -122.174893,
        37.4579494
       ],
       [
        -122.1749423,
        37.457983
       ],
       [
        -122.1749733,
        37.4579986
       ],
       [
        -122.175041,
        37.4580501
       ],
       [
        -122.1750997,
        37.4580819
       ],
       [
        -122.1751129,
        37.4580756
       ],
       [
        -122.1751289,
        37.4580555
       ],
       [
        -122.175189,
        37.4580037
       ],
       [
        -122.175209,
        37.4579684
       ],
       [
        -122.1752388,
        37.4579445
       ],
       [
        -122.1752694,
        37.4579059
       ],
       [
        -122.1753259,
        37.4578588
       ],
       [
        -122.1753783,
        37.457803
       ]
      ]
     ]
    ]
   }
  },
  {
   "type": "Feature",
   "properties": {
    "kind": "building",
    "label": "Office 3",
    "stage": "entitled",
    "height_ft": 91.0,
    "podium_ft": null,
    "base_ft": 0,
    "use": "office/R&D",
    "phase": null,
    "illustrative": true,
    "source": "illustrative: footprint and approximate parapet height (91 ft, 5 stories) traced from Parkline Master Plan Project Plans, project variant (June 24, 2025), Sheet G3.03 \"Conceptual Building Height Plan\" (PDF p. 73); CDP 2.3.4",
    "note": "G3.03 calls its heights an illustrative example. The design standards cap office/R&D buildings at 95 ft, before allowed parapets and rooftop structures."
   },
   "geometry": {
    "type": "MultiPolygon",
    "coordinates": [
     [
      [
       [
        -122.1739429,
        37.4573356
       ],
       [
        -122.1739855,
        37.4572684
       ],
       [
        -122.1740198,
        37.4572252
       ],
       [
        -122.1740097,
        37.4572071
       ],
       [
        -122.1740152,
        37.4571969
       ],
       [
        -122.1740917,
        37.4570971
       ],
       [
        -122.1741421,
        37.4570166
       ],
       [
        -122.1740441,
        37.4569693
       ],
       [
        -122.1740094,
        37.4569583
       ],
       [
        -122.1739288,
        37.4569197
       ],
       [
        -122.1738961,
        37.4569097
       ],
       [
        -122.1738419,
        37.4568823
       ],
       [
        -122.173406,
        37.4566968
       ],
       [
        -122.1733898,
        37.4566865
       ],
       [
        -122.1734105,
        37.4566537
       ],
       [
        -122.1730994,
        37.456516
       ],
       [
        -122.1730841,
        37.4565148
       ],
       [
        -122.1729876,
        37.4566499
       ],
       [
        -122.1729852,
        37.4566768
       ],
       [
        -122.1729461,
        37.4567328
       ],
       [
        -122.1729332,
        37.4567457
       ],
       [
        -122.1729096,
        37.4567446
       ],
       [
        -122.1728551,
        37.4568166
       ],
       [
        -122.1728352,
        37.4568519
       ],
       [
        -122.1728458,
        37.4568659
       ],
       [
        -122.1729695,
        37.4569219
       ],
       [
        -122.1729579,
        37.4569399
       ],
       [
        -122.1729812,
        37.4569516
       ],
       [
        -122.172999,
        37.4569325
       ],
       [
        -122.1732315,
        37.4570326
       ],
       [
        -122.1732103,
        37.4570695
       ],
       [
        -122.1732568,
        37.4570929
       ],
       [
        -122.173283,
        37.4570975
       ],
       [
        -122.173366,
        37.457133
       ],
       [
        -122.173376,
        37.4571272
       ],
       [
        -122.1733857,
        37.4571321
       ],
       [
        -122.1733987,
        37.4571192
       ],
       [
        -122.1734048,
        37.4571115
       ],
       [
        -122.1733893,
        37.4571036
       ],
       [
        -122.1733918,
        37.4571006
       ],
       [
        -122.1739347,
        37.4573358
       ],
       [
        -122.1739429,
        37.4573356
       ]
      ]
     ]
    ]
   }
  },
  {
   "type": "Feature",
   "properties": {
    "kind": "building",
    "label": "Office 4",
    "stage": "entitled",
    "height_ft": 91.0,
    "podium_ft": null,
    "base_ft": 0,
    "use": "office/R&D",
    "phase": null,
    "illustrative": true,
    "source": "illustrative: footprint and approximate parapet height (91 ft, 5 stories) traced from Parkline Master Plan Project Plans, project variant (June 24, 2025), Sheet G3.03 \"Conceptual Building Height Plan\" (PDF p. 73); CDP 2.3.4",
    "note": "G3.03 calls its heights an illustrative example. The design standards cap office/R&D buildings at 95 ft, before allowed parapets and rooftop structures."
   },
   "geometry": {
    "type": "MultiPolygon",
    "coordinates": [
     [
      [
       [
        -122.1738556,
        37.4563291
       ],
       [
        -122.1738566,
        37.456321
       ],
       [
        -122.1738218,
        37.4563034
       ],
       [
        -122.1738203,
        37.4562983
       ],
       [
        -122.1743379,
        37.455647
       ],
       [
        -122.1741024,
        37.4555303
       ],
       [
        -122.1741071,
        37.4555175
       ],
       [
        -122.1739638,
        37.4554452
       ],
       [
        -122.1736413,
        37.4558511
       ],
       [
        -122.1736337,
        37.4558538
       ],
       [
        -122.173597,
        37.4558352
       ],
       [
        -122.1735269,
        37.4559166
       ],
       [
        -122.1734312,
        37.4560369
       ],
       [
        -122.1734675,
        37.4560596
       ],
       [
        -122.1732921,
        37.4562803
       ],
       [
        -122.1734373,
        37.4563536
       ],
       [
        -122.17345,
        37.4563514
       ],
       [
        -122.1735131,
        37.4563811
       ],
       [
        -122.1735371,
        37.4563954
       ],
       [
        -122.1735282,
        37.4564168
       ],
       [
        -122.1737094,
        37.4565062
       ],
       [
        -122.1737158,
        37.4565051
       ],
       [
        -122.1738556,
        37.4563291
       ]
      ]
     ]
    ]
   }
  },
  {
   "type": "Feature",
   "properties": {
    "kind": "building",
    "label": "Office 5",
    "stage": "entitled",
    "height_ft": 75.0,
    "podium_ft": null,
    "base_ft": 0,
    "use": "office/R&D",
    "phase": null,
    "illustrative": true,
    "source": "illustrative: footprint and approximate parapet height (75 ft, 4 stories) traced from Parkline Master Plan Project Plans, project variant (June 24, 2025), Sheet G3.03 \"Conceptual Building Height Plan\" (PDF p. 73); CDP 2.3.4",
    "note": "G3.03 calls its heights an illustrative example. The design standards cap office/R&D buildings at 95 ft, before allowed parapets and rooftop structures."
   },
   "geometry": {
    "type": "MultiPolygon",
    "coordinates": [
     [
      [
       [
        -122.1759907,
        37.4570699
       ],
       [
        -122.1760159,
        37.4570177
       ],
       [
        -122.1760385,
        37.4569859
       ],
       [
        -122.1760376,
        37.4569767
       ],
       [
        -122.1760163,
        37.456966
       ],
       [
        -122.1760201,
        37.4569441
       ],
       [
        -122.1760548,
        37.4568903
       ],
       [
        -122.1760688,
        37.456893
       ],
       [
        -122.1760892,
        37.4568709
       ],
       [
        -122.1760865,
        37.4568674
       ],
       [
        -122.1761404,
        37.4567756
       ],
       [
        -122.1760605,
        37.4567396
       ],
       [
        -122.1756069,
        37.4565798
       ],
       [
        -122.1755309,
        37.4565457
       ],
       [
        -122.1754899,
        37.4565359
       ],
       [
        -122.1754466,
        37.4565118
       ],
       [
        -122.175324,
        37.4564715
       ],
       [
        -122.1752378,
        37.4564367
       ],
       [
        -122.1752244,
        37.4564364
       ],
       [
        -122.1751845,
        37.4564184
       ],
       [
        -122.1751801,
        37.4564205
       ],
       [
        -122.1750546,
        37.4563701
       ],
       [
        -122.1750253,
        37.4563661
       ],
       [
        -122.1749698,
        37.4564462
       ],
       [
        -122.1749537,
        37.4564835
       ],
       [
        -122.1749334,
        37.4565057
       ],
       [
        -122.1749033,
        37.456564
       ],
       [
        -122.1748926,
        37.4565673
       ],
       [
        -122.1748638,
        37.4566068
       ],
       [
        -122.1748665,
        37.4566103
       ],
       [
        -122.1748136,
        37.4566939
       ],
       [
        -122.1748023,
        37.4567185
       ],
       [
        -122.1748039,
        37.4567301
       ],
       [
        -122.1750359,
        37.456817
       ],
       [
        -122.1750603,
        37.4567796
       ],
       [
        -122.1750724,
        37.4567814
       ],
       [
        -122.1751162,
        37.4568013
       ],
       [
        -122.1752517,
        37.4568459
       ],
       [
        -122.1754709,
        37.4569285
       ],
       [
        -122.175501,
        37.4569351
       ],
       [
        -122.1755557,
        37.4569584
       ],
       [
        -122.17558,
        37.456962
       ],
       [
        -122.1756604,
        37.4569939
       ],
       [
        -122.1756847,
        37.4569975
       ],
       [
        -122.1757677,
        37.457033
       ],
       [
        -122.175783,
        37.4570342
       ],
       [
        -122.1758269,
        37.4570542
       ],
       [
        -122.1759083,
        37.457078
       ],
       [
        -122.1759412,
        37.4570946
       ],
       [
        -122.1759662,
        37.4571007
       ],
       [
        -122.1759907,
        37.4570699
       ]
      ]
     ]
    ]
   }
  },
  {
   "type": "Feature",
   "properties": {
    "kind": "building",
    "label": "Office amenity building",
    "stage": "entitled",
    "height_ft": 41.0,
    "podium_ft": null,
    "base_ft": 0,
    "use": "office amenity",
    "phase": null,
    "illustrative": true,
    "source": "illustrative: footprint and approximate parapet height (41 ft, 2 stories) traced from Parkline Master Plan Project Plans, project variant (June 24, 2025), Sheet G3.03 \"Conceptual Building Height Plan\" (PDF p. 73); CDP 2.3.4",
    "note": "G3.03 calls its heights an illustrative example. The design standards cap the amenity building at 55 ft, before allowed parapets and rooftop structures."
   },
   "geometry": {
    "type": "MultiPolygon",
    "coordinates": [
     [
      [
       [
        -122.1751276,
        37.4555613
       ],
       [
        -122.1751771,
        37.4554955
       ],
       [
        -122.1751641,
        37.4554846
       ],
       [
        -122.1753591,
        37.4552392
       ],
       [
        -122.1750512,
        37.4550838
       ],
       [
        -122.1750449,
        37.4550849
       ],
       [
        -122.1747068,
        37.4555241
       ],
       [
        -122.1747417,
        37.4555417
       ],
       [
        -122.1747291,
        37.4555678
       ],
       [
        -122.1749885,
        37.4556988
       ],
       [
        -122.1750047,
        37.4556853
       ],
       [
        -122.1750905,
        37.4555772
       ],
       [
        -122.1750896,
        37.4555681
       ],
       [
        -122.1751031,
        37.4555512
       ],
       [
        -122.1751276,
        37.4555613
       ]
      ]
     ]
    ]
   }
  },
  {
   "type": "Feature",
   "properties": {
    "kind": "building",
    "label": "Parking garage 1",
    "stage": "entitled",
    "height_ft": 65.5,
    "podium_ft": null,
    "base_ft": 0,
    "use": "parking",
    "phase": null,
    "illustrative": true,
    "source": "illustrative: footprint and approximate parapet height (65.5 ft, 5 stories) traced from Parkline Master Plan Project Plans, project variant (June 24, 2025), Sheet G3.03 \"Conceptual Building Height Plan\" (PDF p. 73); CDP 2.3.4",
    "note": "G3.03 calls its heights an illustrative example. The design standards cap parking structures at 70 ft, before allowed parapets and rooftop structures."
   },
   "geometry": {
    "type": "MultiPolygon",
    "coordinates": [
     [
      [
       [
        -122.1747135,
        37.4583973
       ],
       [
        -122.1747089,
        37.4583928
       ],
       [
        -122.1747298,
        37.4583666
       ],
       [
        -122.1747007,
        37.4583519
       ],
       [
        -122.1746876,
        37.4583583
       ],
       [
        -122.1746918,
        37.4583496
       ],
       [
        -122.1746715,
        37.4583307
       ],
       [
        -122.1746483,
        37.4583189
       ],
       [
        -122.1746388,
        37.4583206
       ],
       [
        -122.1744103,
        37.4582053
       ],
       [
        -122.173785,
        37.4578895
       ],
       [
        -122.1737538,
        37.4578673
       ],
       [
        -122.1737112,
        37.4578458
       ],
       [
        -122.1737056,
        37.4578494
       ],
       [
        -122.1736978,
        37.4578455
       ],
       [
        -122.1736996,
        37.4578399
       ],
       [
        -122.1736744,
        37.4578272
       ],
       [
        -122.1736485,
        37.457853
       ],
       [
        -122.1736872,
        37.4578726
       ],
       [
        -122.1736854,
        37.4578782
       ],
       [
        -122.1736487,
        37.4578596
       ],
       [
        -122.1736387,
        37.4578654
       ],
       [
        -122.1734314,
        37.4581262
       ],
       [
        -122.1734309,
        37.4581303
       ],
       [
        -122.1741632,
        37.4584957
       ],
       [
        -122.1744938,
        37.458667
       ],
       [
        -122.1746685,
        37.4584438
       ],
       [
        -122.174689,
        37.4584282
       ],
       [
        -122.1747135,
        37.4583973
       ]
      ]
     ]
    ]
   }
  },
  {
   "type": "Feature",
   "properties": {
    "kind": "building",
    "label": "Parking garage 2",
    "stage": "entitled",
    "height_ft": 65.5,
    "podium_ft": null,
    "base_ft": 0,
    "use": "parking",
    "phase": null,
    "illustrative": true,
    "source": "illustrative: footprint and approximate parapet height (65.5 ft, 5 stories) traced from Parkline Master Plan Project Plans, project variant (June 24, 2025), Sheet G3.03 \"Conceptual Building Height Plan\" (PDF p. 73); CDP 2.3.4",
    "note": "G3.03 calls its heights an illustrative example. The design standards cap parking structures at 70 ft, before allowed parapets and rooftop structures."
   },
   "geometry": {
    "type": "MultiPolygon",
    "coordinates": [
     [
      [
       [
        -122.1728752,
        37.4578497
       ],
       [
        -122.1729339,
        37.457769
       ],
       [
        -122.1732044,
        37.457432
       ],
       [
        -122.1731998,
        37.4574275
       ],
       [
        -122.1732194,
        37.4574028
       ],
       [
        -122.1731923,
        37.4573891
       ],
       [
        -122.1731941,
        37.4573835
       ],
       [
        -122.1731805,
        37.4573767
       ],
       [
        -122.1731399,
        37.4573561
       ],
       [
        -122.1731355,
        37.4573582
       ],
       [
        -122.1731341,
        37.4573532
       ],
       [
        -122.1731108,
        37.4573415
       ],
       [
        -122.1731064,
        37.4573436
       ],
       [
        -122.1731012,
        37.4573366
       ],
       [
        -122.1730682,
        37.45732
       ],
       [
        -122.1730639,
        37.4573221
       ],
       [
        -122.1730624,
        37.457317
       ],
       [
        -122.1730256,
        37.4572985
       ],
       [
        -122.1730104,
        37.4572972
       ],
       [
        -122.1730121,
        37.4572916
       ],
       [
        -122.1729869,
        37.4572789
       ],
       [
        -122.1729825,
        37.457281
       ],
       [
        -122.1728863,
        37.4572281
       ],
       [
        -122.1728819,
        37.4572302
       ],
       [
        -122.1728071,
        37.4571946
       ],
       [
        -122.1723906,
        37.4569778
       ],
       [
        -122.172385,
        37.4569814
       ],
       [
        -122.172354,
        37.4569658
       ],
       [
        -122.1723356,
        37.4569889
       ],
       [
        -122.1723448,
        37.4569979
       ],
       [
        -122.1723249,
        37.4569922
       ],
       [
        -122.1722755,
        37.4570646
       ],
       [
        -122.1722685,
        37.4570632
       ],
       [
        -122.1722513,
        37.4570848
       ],
       [
        -122.1722559,
        37.4570893
       ],
       [
        -122.1722437,
        37.4571047
       ],
       [
        -122.1720646,
        37.45733
       ],
       [
        -122.172057,
        37.4573327
       ],
       [
        -122.1719962,
        37.4574058
       ],
       [
        -122.1720756,
        37.4574459
       ],
       [
        -122.1720858,
        37.4574467
       ],
       [
        -122.1728138,
        37.4578143
       ],
       [
        -122.1728133,
        37.4578184
       ],
       [
        -122.1728752,
        37.4578497
       ]
      ]
     ]
    ]
   }
  },
  {
   "type": "Feature",
   "properties": {
    "kind": "building",
    "label": "Parking garage 3",
    "stage": "entitled",
    "height_ft": 44.5,
    "podium_ft": null,
    "base_ft": 0,
    "use": "parking",
    "phase": null,
    "illustrative": true,
    "source": "illustrative: footprint and approximate parapet height (44.5 ft, 3 stories) traced from Parkline Master Plan Project Plans, project variant (June 24, 2025), Sheet G3.03 \"Conceptual Building Height Plan\" (PDF p. 73); CDP 2.3.4",
    "note": "G3.03 calls its heights an illustrative example. The design standards cap parking structures at 70 ft, before allowed parapets and rooftop structures. CDP 2.3.4.2 caps this garage at 3 stories and 50 ft."
   },
   "geometry": {
    "type": "MultiPolygon",
    "coordinates": [
     [
      [
       [
        -122.1750882,
        37.4550441
       ],
       [
        -122.1749849,
        37.4549897
       ],
       [
        -122.1749793,
        37.4549934
       ],
       [
        -122.174981,
        37.4549878
       ],
       [
        -122.1749443,
        37.4549692
       ],
       [
        -122.1749231,
        37.454965
       ],
       [
        -122.1749249,
        37.4549594
       ],
       [
        -122.1743634,
        37.4546759
       ],
       [
        -122.1743578,
        37.4546796
       ],
       [
        -122.1743404,
        37.4546708
       ],
       [
        -122.1743421,
        37.4546652
       ],
       [
        -122.1742434,
        37.4546153
       ],
       [
        -122.1742322,
        37.4546226
       ],
       [
        -122.1740961,
        37.4547939
       ],
       [
        -122.1740817,
        37.4548018
       ],
       [
        -122.1739317,
        37.4550007
       ],
       [
        -122.1739191,
        37.455003
       ],
       [
        -122.1738737,
        37.4550601
       ],
       [
        -122.1738823,
        37.4550731
       ],
       [
        -122.1738529,
        37.4551102
       ],
       [
        -122.1738703,
        37.455119
       ],
       [
        -122.1739066,
        37.4550767
       ],
       [
        -122.173917,
        37.4550841
       ],
       [
        -122.1739072,
        37.4550965
       ],
       [
        -122.1739125,
        37.4551035
       ],
       [
        -122.1739357,
        37.4551152
       ],
       [
        -122.1739529,
        37.4550936
       ],
       [
        -122.1739659,
        37.4551045
       ],
       [
        -122.1739853,
        37.4551143
       ],
       [
        -122.1739897,
        37.4551122
       ],
       [
        -122.1746111,
        37.455426
       ],
       [
        -122.1746224,
        37.4554425
       ],
       [
        -122.1747289,
        37.4554963
       ],
       [
        -122.1750882,
        37.4550441
       ]
      ]
     ]
    ]
   }
  }
 ]
}
