{
 "type": "FeatureCollection",
 "properties": {
  "project": "potrero-power-station",
  "illustrative": false,
  "summary": "Only official, current facts are drawn: the 300-ft boiler stack. Block massing waits for the Design for Development approved in 2020; the 2018 Draft EIR blocks are superseded and not drawn.",
  "license": "Stack footprint: OpenStreetMap contributors (ODbL 1.0)."
 },
 "features": [
  {
   "type": "Feature",
   "properties": {
    "kind": "landmark",
    "label": "Stack",
    "name": "Unit 3 Boiler Stack",
    "stage": "complete",
    "height_ft": 300,
    "base_ft": 0,
    "illustrative": false,
    "source": "height: Potrero Power Station Mixed-Use Development Project Draft EIR, Volume 1 (Case No. 2017-011878ENV, Oct 2018), pp. 2-7 and 4.D-8 ('the reinforced concrete Boiler Stack ... at 300 feet in height'); footprint: OpenStreetMap w678950945 via Overture 2026-09-23.1",
    "note": "OpenStreetMap footprint mapped at 91.44 m (300 ft), matching the Draft EIR's 300-ft Boiler Stack (pp. 2-7, 4.D-8) and its position south of the Unit 3 Power Block (Fig. 2-7).",
    "osm": "w678950945"
   },
   "geometry": {
    "type": "Polygon",
    "coordinates": [
     [
      [
       -122.381913,
       37.755992
      ],
      [
       -122.3819019,
       37.7559814
      ],
      [
       -122.3818841,
       37.7559726
      ],
      [
       -122.3818637,
       37.7559691
      ],
      [
       -122.3818375,
       37.755973
      ],
      [
       -122.38182,
       37.7559822
      ],
      [
       -122.3818111,
       37.7559905
      ],
      [
       -122.3818027,
       37.7560057
      ],
      [
       -122.3818015,
       37.7560223
      ],
      [
       -122.3818074,
       37.7560381
      ],
      [
       -122.3818193,
       37.756051
      ],
      [
       -122.3818367,
       37.7560603
      ],
      [
       -122.381857,
       37.7560644
      ],
      [
       -122.3818764,
       37.756063
      ],
      [
       -122.3819013,
       37.7560526
      ],
      [
       -122.3819144,
       37.7560397
      ],
      [
       -122.3819211,
       37.756024
      ],
      [
       -122.3819206,
       37.7560074
      ],
      [
       -122.381913,
       37.755992
      ]
     ]
    ]
   }
  }
 ]
}
