{"type":"FeatureCollection","properties":{"project":"potrero-hope-sf","illustrative":true,"summary":"Illustrative massing. The two buildings built so far are drawn from their permits: Block X (1101 Connecticut St, 72 homes, Phase 1), drawn at its block's 50-ft limit, and Block B (157 homes, Phase 2), drawn as its block at the 65-ft cap the standards allow on part of it. The other 22 zones are drawn to the height limits of the adopted Design Standards and Guidelines (30 to 65 ft), not as building designs. The old public housing stays in the base map; streets and parks aren't drawn.","note":"Unbuilt blocks are drawn to their height limits, not as building designs.","sourceUrl":"https://default.sfplanning.org/devagreements/HOPE-SF/Potrero/HOPE-SF_Potrero_Design_Controls_Guidelines.pdf","sourceLabel":"Design standards and guidelines, 2016 (PDF)","georeference":{"figure_5_1":{"scale_m_per_unit":0.53838,"rotation_deg":3.467,"rms_m":2.72,"controls":[{"label":"Figure 5.1's dashed project boundary to the Special Use District boundary: trimmed RMS over the closest 80% of 3068 points","residual_m":2.72}],"method":"trimmed ICP","points":3068,"inlier_share":0.8,"median_m":2.53,"p90_m":10.41,"units":"metres per 200-dpi pixel","start":["north-west corner","south-west corner"]}},"sources":{"heights":"Potrero HOPE SF Design Standards and Guidelines (November 2016), Figure 5.1, Zoning Height Diagram, p. 67 (PDF page 70); DSG 5.1.1","permits":"DataSF Building Permits (i98e-djp9): 202006108345, 201603172392","blocks":{"mohcd":"MOHCD Loan Committee, Potrero HOPE SF Phase III predevelopment loan evaluation (Apr 4, 2025), https://media.api.sf.gov/documents/Approved-Potrero_HOPE_SF_Phase_III_Predevelopment_Loan_Evaluation_LC_4-04-2025.pdf (\"Out of the 157 units at Block B\", p. 7; \"at 1101 Connecticut, a 72-unit\", p. 22)","phase2":"SF Planning, Potrero HOPE SF Phase 2 approval (Oct 13, 2017), https://sfplanning.s3.amazonaws.com/default/files/devagreements/HOPE-SF/Potrero/HOPE-SF_Potrero_Phase2_Approval_20171013.pdf (\"Potrero HOPE SF Vertical Development Summary Table\", p. 13; \"Temporary Certificate of Occupancy Received for Block X\", p. 21)"}},"license":"Zones traced from the DSG (SF Planning); boundary and permits from DataSF (Public Domain); footprints OpenStreetMap contributors (ODbL 1.0), via Overture Maps."},"features":[{"type":"Feature","properties":{"block":"B","label":"Block B, 1801 25th St","stage":"complete","base_ft":0,"height_ft":65,"podium_ft":50,"use":"Affordable housing, 157 homes","phase":"Phase 2","illustrative":true,"kind":"block","source":"illustrative: the block's zone in Potrero HOPE SF Design Standards and Guidelines (November 2016), Figure 5.1, Zoning Height Diagram, p. 67, standing in for the building's footprint, which OpenStreetMap doesn't map yet; 7 stories in DBI permit 202006108345; drawn to the DSG's Block B cap (Control 5.1.1 No. 6: \"In no case is any portion of any building greater than 65-feet\") over its 50-ft limit, since parts above 50 ft are limited to 30% of the block","note":"DBI permit 202006108345, complete 2025-12-04. Block: MOHCD's Phase III loan evaluation (Apr 2025): \"Out of the 157 units at Block B\". The Phase 2 approval's table (Oct 2017) listed 40 ft for Block B. Drawn as its block: the building's own footprint isn't mapped yet.","fid":1},"geometry":{"type":"MultiPolygon","coordinates":[[[[-122.3974207,37.7521949],[-122.3973593,37.7512937],[-122.3966758,37.751323],[-122.3967373,37.7522243],[-122.3974207,37.7521949]]]]}},{"type":"Feature","properties":{"block":"X","label":"Block X, 1101 Connecticut St","stage":"complete","base_ft":0,"height_ft":50,"podium_ft":null,"use":"Affordable housing, 72 homes","phase":"Phase 1","illustrative":true,"kind":"building","source":"illustrative: footprint from OpenStreetMap via Overture 2026-09-23.1 (OSM w1246126991@2); 5 stories in DBI permit 201603172392; drawn to Block X's 50-ft limit in Figure 5.1","note":"DBI permit 201603172392, complete 2019-10-28. Block: MOHCD's Phase III loan evaluation: \"completed Phase I construction and lease-up at 1101 Connecticut, a 72-unit\" building; the Phase 2 approval lists Phase 1 as Block X, 72 units. Block X is outside the Special Use District and the development agreement's Project Area.","fid":2},"geometry":{"type":"MultiPolygon","coordinates":[[[[-122.3957145,37.7522704],[-122.3962023,37.7522457],[-122.396201,37.7522318],[-122.3962365,37.7522297],[-122.3962373,37.7522385],[-122.3963604,37.7522314],[-122.3963311,37.7520827],[-122.3963413,37.7520821],[-122.3963207,37.7518584],[-122.3960962,37.7518713],[-122.3961003,37.7519156],[-122.3961073,37.7519152],[-122.3961207,37.7519904],[-122.3961063,37.7519912],[-122.3961131,37.7520653],[-122.3961426,37.7520636],[-122.3961446,37.7520858],[-122.3961043,37.7520881],[-122.3961034,37.7520783],[-122.3958708,37.7520917],[-122.3958721,37.7521059],[-122.3958319,37.7521082],[-122.3958291,37.7520778],[-122.3958737,37.7520752],[-122.3958691,37.7520253],[-122.3958868,37.7520243],[-122.3958799,37.7518781],[-122.3957991,37.7518827],[-122.3958,37.7518925],[-122.3957695,37.7518942],[-122.3957686,37.7518845],[-122.3956526,37.7518912],[-122.395661,37.7519819],[-122.3956819,37.7519807],[-122.3956848,37.7520119],[-122.395668,37.7520129],[-122.3956747,37.7520858],[-122.3956915,37.7520848],[-122.3956944,37.7521162],[-122.3956777,37.7521171],[-122.3956845,37.7521909],[-122.395707,37.7521896],[-122.3957145,37.7522704]]]]}},{"type":"Feature","properties":{"block":"R","kind":"block","label":"Block R","stage":"entitled","height_ft":40,"podium_ft":null,"base_ft":0,"use":null,"phase":null,"illustrative":true,"source":"illustrative: drawn to the 40-ft height limit printed in Potrero HOPE SF Design Standards and Guidelines (November 2016), Figure 5.1, Zoning Height Diagram, p. 67","note":"Height limit: 40 ft. Drawn as an envelope, not a building design.","fid":3},"geometry":{"type":"MultiPolygon","coordinates":[[[[-122.3956392,37.7571888],[-122.3955106,37.7572573],[-122.3948382,37.7564616],[-122.3949667,37.7563931],[-122.3956392,37.7571888]]]]}},{"type":"Feature","properties":{"block":"Q and O","kind":"block","label":"Block Q and O","stage":"entitled","height_ft":55,"podium_ft":null,"base_ft":0,"use":null,"phase":null,"illustrative":true,"source":"illustrative: drawn to the 55-ft height limit printed in Potrero HOPE SF Design Standards and Guidelines (November 2016), Figure 5.1, Zoning Height Diagram, p. 67","note":"Height limit: 55 ft. Drawn as an envelope, not a building design.","fid":4},"geometry":{"type":"MultiPolygon","coordinates":[[[[-122.3951403,37.7562728],[-122.3950984,37.7556574],[-122.3956842,37.7556322],[-122.3956979,37.7559232],[-122.3957171,37.7560244],[-122.3957907,37.7569251],[-122.3956686,37.7569304],[-122.3951403,37.7562728]]]]}},{"type":"Feature","properties":{"kind":"block","label":"Unlettered block beside Block O","stage":"entitled","height_ft":40,"podium_ft":null,"base_ft":0,"use":null,"phase":null,"illustrative":true,"source":"illustrative: drawn to the 40-ft height limit printed in Potrero HOPE SF Design Standards and Guidelines (November 2016), Figure 5.1, Zoning Height Diagram, p. 67","note":"Height limit: 40 ft. Drawn as an envelope, not a building design. Figure 5.1 prints no letter here; Section 5.2.12 groups the east-side walk-up blocks as P and R.","fid":5},"geometry":{"type":"MultiPolygon","coordinates":[[[[-122.3945919,37.7556792],[-122.3948177,37.7556695],[-122.394854,37.7562024],[-122.3946282,37.7562121],[-122.3945919,37.7556792]]]]}},{"type":"Feature","properties":{"block":"N","kind":"block","label":"Block N","stage":"entitled","height_ft":55,"podium_ft":null,"base_ft":0,"use":null,"phase":null,"illustrative":true,"source":"illustrative: drawn to the 55-ft height limit printed in Potrero HOPE SF Design Standards and Guidelines (November 2016), Figure 5.1, Zoning Height Diagram, p. 67","note":"Height limit: 55 ft. Drawn as an envelope, not a building design.","fid":6},"geometry":{"type":"MultiPolygon","coordinates":[[[[-122.3950515,37.7549698],[-122.3956621,37.754948],[-122.395692,37.7554764],[-122.3950814,37.7554982],[-122.3950515,37.7549698]]]]}},{"type":"Feature","properties":{"block":"P","kind":"block","label":"Block P","stage":"entitled","height_ft":40,"podium_ft":null,"base_ft":0,"use":null,"phase":null,"illustrative":true,"source":"illustrative: drawn to the 40-ft height limit printed in Potrero HOPE SF Design Standards and Guidelines (November 2016), Figure 5.1, Zoning Height Diagram, p. 67","note":"Height limit: 40 ft. Drawn as an envelope, not a building design.","fid":7},"geometry":{"type":"MultiPolygon","coordinates":[[[[-122.3945453,37.754996],[-122.394765,37.7549865],[-122.3948013,37.7555195],[-122.3945816,37.755529],[-122.3945453,37.754996]]]]}},{"type":"Feature","properties":{"block":"J","kind":"block","label":"Block J","stage":"entitled","height_ft":30,"podium_ft":null,"base_ft":0,"use":null,"phase":null,"illustrative":true,"source":"illustrative: drawn to the 30-ft height limit printed in Potrero HOPE SF Design Standards and Guidelines (November 2016), Figure 5.1, Zoning Height Diagram, p. 67","note":"Height limit: 30 ft. Drawn as an envelope, not a building design. Section 5.2 also caps parts of this block at an elevation above sea level, to keep views from Potrero Recreation Center; that cap isn't drawn.","fid":8},"geometry":{"type":"MultiPolygon","coordinates":[[[[-122.3978789,37.7545175],[-122.3985136,37.7544902],[-122.3985258,37.7546695],[-122.3978912,37.7546967],[-122.3978789,37.7545175]]]]}},{"type":"Feature","properties":{"block":"J","kind":"block","label":"Block J","stage":"entitled","height_ft":40,"podium_ft":null,"base_ft":0,"use":null,"phase":null,"illustrative":true,"source":"illustrative: drawn to the 40-ft height limit printed in Potrero HOPE SF Design Standards and Guidelines (November 2016), Figure 5.1, Zoning Height Diagram, p. 67","note":"Height limit: 40 ft. Drawn as an envelope, not a building design. Section 5.2 also caps parts of this block at an elevation above sea level, to keep views from Potrero Recreation Center; that cap isn't drawn.","fid":9},"geometry":{"type":"MultiPolygon","coordinates":[[[[-122.3978657,37.7543236],[-122.3985004,37.7542964],[-122.398513,37.7544805],[-122.3978783,37.7545078],[-122.3978657,37.7543236]]]]}},{"type":"Feature","properties":{"block":"J","kind":"block","label":"Block J","stage":"entitled","height_ft":65,"podium_ft":null,"base_ft":0,"use":null,"phase":null,"illustrative":true,"source":"illustrative: drawn to the 65-ft height limit printed in Potrero HOPE SF Design Standards and Guidelines (November 2016), Figure 5.1, Zoning Height Diagram, p. 67","note":"Height limit: 65 ft. Drawn as an envelope, not a building design. Section 5.2 also caps parts of this block at an elevation above sea level, to keep views from Potrero Recreation Center; that cap isn't drawn.","fid":10},"geometry":{"type":"MultiPolygon","coordinates":[[[[-122.397859,37.7543142],[-122.3978299,37.7538878],[-122.3984707,37.7538603],[-122.3984997,37.7542867],[-122.397859,37.7543142]]]]}},{"type":"Feature","properties":{"block":"K","kind":"block","label":"Block K","stage":"entitled","height_ft":40,"podium_ft":null,"base_ft":0,"use":null,"phase":null,"illustrative":true,"source":"illustrative: drawn to the 40-ft height limit printed in Potrero HOPE SF Design Standards and Guidelines (November 2016), Figure 5.1, Zoning Height Diagram, p. 67","note":"Height limit: 40 ft. Drawn as an envelope, not a building design. Section 5.2 also caps parts of this block at an elevation above sea level, to keep views from Potrero Recreation Center; that cap isn't drawn.","fid":11},"geometry":{"type":"MultiPolygon","coordinates":[[[[-122.3969436,37.7547132],[-122.3969198,37.7543643],[-122.3975667,37.7543365],[-122.3975905,37.7546854],[-122.3969436,37.7547132]]]]}},{"type":"Feature","properties":{"block":"K","kind":"block","label":"Block K","stage":"entitled","height_ft":65,"podium_ft":null,"base_ft":0,"use":null,"phase":null,"illustrative":true,"source":"illustrative: drawn to the 65-ft height limit printed in Potrero HOPE SF Design Standards and Guidelines (November 2016), Figure 5.1, Zoning Height Diagram, p. 67","note":"Height limit: 65 ft. Drawn as an envelope, not a building design. Section 5.2 also caps parts of this block at an elevation above sea level, to keep views from Potrero Recreation Center; that cap isn't drawn.","fid":12},"geometry":{"type":"MultiPolygon","coordinates":[[[[-122.3969192,37.7543546],[-122.3968901,37.7539282],[-122.3975248,37.7539009],[-122.3975538,37.7543273],[-122.3969192,37.7543546]]]]}},{"type":"Feature","properties":{"block":"L","kind":"block","label":"Block L","stage":"entitled","height_ft":40,"podium_ft":null,"base_ft":0,"use":null,"phase":null,"illustrative":true,"source":"illustrative: drawn to the 40-ft height limit printed in Potrero HOPE SF Design Standards and Guidelines (November 2016), Figure 5.1, Zoning Height Diagram, p. 67","note":"Height limit: 40 ft. Drawn as an envelope, not a building design. Section 5.2 also caps parts of this block at an elevation above sea level, to keep views from Potrero Recreation Center; that cap isn't drawn.","fid":13},"geometry":{"type":"MultiPolygon","coordinates":[[[[-122.3966374,37.7547267],[-122.3964064,37.754734],[-122.396389,37.7543861],[-122.3966199,37.7543788],[-122.3966374,37.7547267]]]]}},{"type":"Feature","properties":{"block":"L","kind":"block","label":"Block L","stage":"entitled","height_ft":50,"podium_ft":null,"base_ft":0,"use":null,"phase":null,"illustrative":true,"source":"illustrative: drawn to the 50-ft height limit printed in Potrero HOPE SF Design Standards and Guidelines (November 2016), Figure 5.1, Zoning Height Diagram, p. 67","note":"Height limit: 50 ft. Drawn as an envelope, not a building design. Section 5.2 also caps parts of this block at an elevation above sea level, to keep views from Potrero Recreation Center; that cap isn't drawn.","fid":14},"geometry":{"type":"MultiPolygon","coordinates":[[[[-122.3964005,37.7547397],[-122.3959912,37.7547524],[-122.3959741,37.7544046],[-122.3963834,37.7543919],[-122.3964005,37.7547397]]]]}},{"type":"Feature","properties":{"block":"L","kind":"block","label":"Block L","stage":"entitled","height_ft":65,"podium_ft":null,"base_ft":0,"use":null,"phase":null,"illustrative":true,"source":"illustrative: drawn to the 65-ft height limit printed in Potrero HOPE SF Design Standards and Guidelines (November 2016), Figure 5.1, Zoning Height Diagram, p. 67","note":"Height limit: 65 ft. Drawn as an envelope, not a building design. Section 5.2 also caps parts of this block at an elevation above sea level, to keep views from Potrero Recreation Center; that cap isn't drawn.","fid":15},"geometry":{"type":"MultiPolygon","coordinates":[[[[-122.3959906,37.7547395],[-122.3959442,37.7539689],[-122.3965792,37.7539464],[-122.3966018,37.7543682],[-122.3963822,37.7543777],[-122.396378,37.754407],[-122.3959878,37.7544286],[-122.3960093,37.7547436],[-122.396134,37.7547465],[-122.3960282,37.7547525],[-122.3959906,37.7547395]]]]}},{"type":"Feature","properties":{"block":"M","kind":"block","label":"Block M","stage":"entitled","height_ft":55,"podium_ft":null,"base_ft":0,"use":null,"phase":null,"illustrative":true,"source":"illustrative: drawn to the 55-ft height limit printed in Potrero HOPE SF Design Standards and Guidelines (November 2016), Figure 5.1, Zoning Height Diagram, p. 67","note":"Height limit: 55 ft. Drawn as an envelope, not a building design.","fid":16},"geometry":{"type":"MultiPolygon","coordinates":[[[[-122.3949859,37.7540068],[-122.3956452,37.7539817],[-122.3956924,37.7547652],[-122.3950331,37.7547903],[-122.3949859,37.7540068]]]]}},{"type":"Feature","properties":{"block":"G","kind":"block","label":"Block G","stage":"entitled","height_ft":50,"podium_ft":null,"base_ft":0,"use":null,"phase":null,"illustrative":true,"source":"illustrative: drawn to the 50-ft height limit printed in Potrero HOPE SF Design Standards and Guidelines (November 2016), Figure 5.1, Zoning Height Diagram, p. 67","note":"Height limit: 50 ft. Drawn as an envelope, not a building design.","fid":17},"geometry":{"type":"MultiPolygon","coordinates":[[[[-122.3967596,37.7533604],[-122.3974919,37.7533289],[-122.3975147,37.7536633],[-122.3967824,37.7536947],[-122.3967596,37.7533604]]]]}},{"type":"Feature","properties":{"block":"H","kind":"block","label":"Block H","stage":"entitled","height_ft":55,"podium_ft":null,"base_ft":0,"use":null,"phase":null,"illustrative":true,"source":"illustrative: drawn to the 55-ft height limit printed in Potrero HOPE SF Design Standards and Guidelines (November 2016), Figure 5.1, Zoning Height Diagram, p. 67","note":"Height limit: 55 ft. Drawn as an envelope, not a building design.","fid":18},"geometry":{"type":"MultiPolygon","coordinates":[[[[-122.3949472,37.7534383],[-122.3956001,37.7534102],[-122.3956233,37.7537494],[-122.3949703,37.7537774],[-122.3949472,37.7534383]]]]}},{"type":"Feature","properties":{"block":"F","kind":"block","label":"Block F","stage":"entitled","height_ft":50,"podium_ft":null,"base_ft":0,"use":null,"phase":null,"illustrative":true,"source":"illustrative: drawn to the 50-ft height limit printed in Potrero HOPE SF Design Standards and Guidelines (November 2016), Figure 5.1, Zoning Height Diagram, p. 67","note":"Height limit: 50 ft. Drawn as an envelope, not a building design.","fid":19},"geometry":{"type":"MultiPolygon","coordinates":[[[[-122.3977984,37.753515],[-122.3977729,37.7531419],[-122.3980552,37.7531298],[-122.3980895,37.7534941],[-122.3981151,37.7534929],[-122.3981157,37.7535014],[-122.3977984,37.753515]]]]}},{"type":"Feature","properties":{"block":"F","kind":"block","label":"Block F","stage":"entitled","height_ft":40,"podium_ft":null,"base_ft":0,"use":null,"phase":null,"illustrative":true,"source":"illustrative: drawn to the 40-ft height limit printed in Potrero HOPE SF Design Standards and Guidelines (November 2016), Figure 5.1, Zoning Height Diagram, p. 67","note":"Height limit: 40 ft. Drawn as an envelope, not a building design.","fid":20},"geometry":{"type":"MultiPolygon","coordinates":[[[[-122.3977191,37.7523521],[-122.3979808,37.7523409],[-122.3980579,37.7531588],[-122.3977749,37.753171],[-122.3977191,37.7523521]]]]}},{"type":"Feature","properties":{"block":"C","kind":"block","label":"Block C","stage":"entitled","height_ft":50,"podium_ft":null,"base_ft":0,"use":null,"phase":null,"illustrative":true,"source":"illustrative: drawn to the 50-ft height limit printed in Potrero HOPE SF Design Standards and Guidelines (November 2016), Figure 5.1, Zoning Height Diagram, p. 67","note":"Height limit: 50 ft. Drawn as an envelope, not a building design. Section 5.2 also caps parts of this block at an elevation above sea level, to keep views from Potrero Recreation Center; that cap isn't drawn.","fid":21},"geometry":{"type":"MultiPolygon","coordinates":[[[[-122.3974384,37.7523642],[-122.3974922,37.753154],[-122.3968515,37.7531815],[-122.3967976,37.7523917],[-122.3974384,37.7523642]]]]}},{"type":"Feature","properties":{"block":"D","kind":"block","label":"Block D","stage":"entitled","height_ft":50,"podium_ft":null,"base_ft":0,"use":null,"phase":null,"illustrative":true,"source":"illustrative: drawn to the 50-ft height limit printed in Potrero HOPE SF Design Standards and Guidelines (November 2016), Figure 5.1, Zoning Height Diagram, p. 67","note":"Height limit: 50 ft. Drawn as an envelope, not a building design. Section 5.2 also caps parts of this block at an elevation above sea level, to keep views from Potrero Recreation Center; that cap isn't drawn.","fid":22},"geometry":{"type":"MultiPolygon","coordinates":[[[[-122.395809,37.7524342],[-122.3964498,37.7524067],[-122.3965036,37.7531965],[-122.3958629,37.753224],[-122.395809,37.7524342]]]]}},{"type":"Feature","properties":{"block":"E","kind":"block","label":"Block E","stage":"entitled","height_ft":55,"podium_ft":null,"base_ft":0,"use":null,"phase":null,"illustrative":true,"source":"illustrative: drawn to the 55-ft height limit printed in Potrero HOPE SF Design Standards and Guidelines (November 2016), Figure 5.1, Zoning Height Diagram, p. 67","note":"Height limit: 55 ft. Drawn as an envelope, not a building design.","fid":23},"geometry":{"type":"MultiPolygon","coordinates":[[[[-122.3955837,37.7532585],[-122.3949427,37.753283],[-122.3948937,37.7524735],[-122.3955347,37.7524491],[-122.3955837,37.7532585]]]]}},{"type":"Feature","properties":{"block":"A","kind":"block","label":"Block A","stage":"entitled","height_ft":40,"podium_ft":null,"base_ft":0,"use":null,"phase":null,"illustrative":true,"source":"illustrative: drawn to the 40-ft height limit printed in Potrero HOPE SF Design Standards and Guidelines (November 2016), Figure 5.1, Zoning Height Diagram, p. 67","note":"Height limit: 40 ft. Drawn as an envelope, not a building design.","fid":24},"geometry":{"type":"MultiPolygon","coordinates":[[[[-122.3976576,37.7512704],[-122.3983048,37.7512482],[-122.3983541,37.7521506],[-122.3977069,37.7521729],[-122.3976576,37.7512704]]]]}}]}
