{
 "type": "FeatureCollection",
 "properties": {
  "project": "related-santa-clara",
  "illustrative": true,
  "summary": "Illustrative massing: each zone is drawn to its maximum height under the 2025 Master Community Plan Scheme C Supplement, not as a building design. The light-industrial Parcels 1 and 2 rise to 90 ft over a 60-ft base (up to half the buildings may exceed 60 ft); the City Center blocks of Parcels 4 and 5 rise to the project's 190-ft (17-story) cap, though the plan expects 10-12-story towers on low podiums. The city park (Parcel 3) and the retention pond are not massing; nothing has been built.",
  "note": "Parcels and blocks are drawn to their height limits in the 2025 master plan, not as building designs; real buildings will be lower over most of each block.",
  "sourceUrl": "https://santaclara.legistar1.com/santaclara/attachments/9db31837-65bc-485b-a1ef-ce58bade9f50.pdf",
  "sourceLabel": "Master Community Plan Scheme C, 2025 (PDF)",
  "georeference": {
   "exhibit_4c_1": {
    "scale_m_per_unit": 0.88877,
    "rotation_deg": 29.182,
    "rms_m": 2.96,
    "controls": [
     {
      "label": "Lafayette Street / Tasman Drive",
      "residual_m": 2.02
     },
     {
      "label": "Lick Mill Boulevard / Tasman Drive",
      "residual_m": 4.29
     },
     {
      "label": "Calle del Sol / Tasman Drive",
      "residual_m": 2.81
     },
     {
      "label": "Calle de Luna / Lafayette Street",
      "residual_m": 1.7
     },
     {
      "label": "Calle del Mundo / Lafayette Street",
      "residual_m": 1.29
     },
     {
      "label": "Great America Way / Lafayette Street",
      "residual_m": 3.67
     },
     {
      "label": "Great America Parkway / Great America Way",
      "residual_m": 4.37
     },
     {
      "label": "Great America Parkway / Old Mountain View-Alviso Road",
      "residual_m": 1.67
     }
    ]
   }
  },
  "license": "Parcel and block shapes: traced from a public City of Santa Clara document. Georeference: OpenStreetMap contributors (ODbL 1.0), via Overture Maps."
 },
 "features": [
  {
   "type": "Feature",
   "properties": {
    "kind": "block",
    "block": "Parcels 1 and 2",
    "label": "Parcels 1 and 2",
    "stage": "entitled",
    "height_ft": 90,
    "podium_ft": 60,
    "base_ft": 0,
    "use": "Light industrial (Scheme C)",
    "phase": null,
    "illustrative": true,
    "source": "illustrative: parcels outlined from Master Community Plan Scheme C Supplement (Santa Clara Resolution 25-9467, July 8, 2025), Exhibit 4C-1 (Scheme C), Parcel & Block Key Plan, p. 54, without the retention pond (the exhibit's note: not part of the development area); drawn to 90 ft over a 60-ft base from the Parcel 1 and 2 building heights, pp. 55 and 57 (\"roughly one to two high ceiling levels, or 60'. Up to 50% of buildings may reach a height of up to 90'\")",
    "note": "Light industrial campuses. Up to half of the buildings may rise above 60 ft, to 90 ft. The city's retention pond is left out."
   },
   "geometry": {
    "type": "MultiPolygon",
    "coordinates": [
     [
      [
       [
        -121.9708807,
        37.4181142
       ],
       [
        -121.9707484,
        37.4181716
       ],
       [
        -121.9707348,
        37.4181684
       ],
       [
        -121.9706642,
        37.418199
       ],
       [
        -121.9706506,
        37.4181958
       ],
       [
        -121.9705888,
        37.4182226
       ],
       [
        -121.9705752,
        37.4182194
       ],
       [
        -121.9705223,
        37.4182424
       ],
       [
        -121.9705087,
        37.4182392
       ],
       [
        -121.9704557,
        37.4182622
       ],
       [
        -121.9704421,
        37.418259
       ],
       [
        -121.9703892,
        37.4182819
       ],
       [
        -121.9703756,
        37.4182787
       ],
       [
        -121.9703315,
        37.4182979
       ],
       [
        -121.9703178,
        37.4182947
       ],
       [
        -121.9702737,
        37.4183138
       ],
       [
        -121.9702601,
        37.4183106
       ],
       [
        -121.970216,
        37.4183298
       ],
       [
        -121.9702024,
        37.4183265
       ],
       [
        -121.9701671,
        37.4183419
       ],
       [
        -121.9701535,
        37.4183387
       ],
       [
        -121.9701182,
        37.418354
       ],
       [
        -121.9701046,
        37.4183508
       ],
       [
        -121.9700693,
        37.4183661
       ],
       [
        -121.9700557,
        37.4183629
       ],
       [
        -121.9700204,
        37.4183782
       ],
       [
        -121.9700068,
        37.418375
       ],
       [
        -121.9699715,
        37.4183903
       ],
       [
        -121.9699578,
        37.4183871
       ],
       [
        -121.9699314,
        37.4183986
       ],
       [
        -121.9699178,
        37.4183954
       ],
       [
        -121.9698689,
        37.4184075
       ],
       [
        -121.9698328,
        37.4184049
       ],
       [
        -121.9697839,
        37.418417
       ],
       [
        -121.9697478,
        37.4184144
       ],
       [
        -121.9697302,
        37.4184221
       ],
       [
        -121.9696853,
        37.4184233
       ],
       [
        -121.9696676,
        37.418431
       ],
       [
        -121.9696316,
        37.4184284
       ],
       [
        -121.9695827,
        37.4184405
       ],
       [
        -121.9695466,
        37.4184379
       ],
       [
        -121.9694977,
        37.41845
       ],
       [
        -121.9694616,
        37.4184474
       ],
       [
        -121.969444,
        37.4184551
       ],
       [
        -121.9693767,
        37.418457
       ],
       [
        -121.969359,
        37.4184646
       ],
       [
        -121.9693454,
        37.4184614
       ],
       [
        -121.9692965,
        37.4184735
       ],
       [
        -121.9692604,
        37.4184709
       ],
       [
        -121.9692115,
        37.4184831
       ],
       [
        -121.9691754,
        37.4184805
       ],
       [
        -121.9691265,
        37.4184926
       ],
       [
        -121.9690905,
        37.41849
       ],
       [
        -121.9690728,
        37.4184977
       ],
       [
        -121.9690592,
        37.4184944
       ],
       [
        -121.9690103,
        37.4185066
       ],
       [
        -121.9689742,
        37.418504
       ],
       [
        -121.9689253,
        37.4185161
       ],
       [
        -121.9688893,
        37.4185135
       ],
       [
        -121.9688403,
        37.4185256
       ],
       [
        -121.9688043,
        37.418523
       ],
       [
        -121.9687554,
        37.4185351
       ],
       [
        -121.9687193,
        37.4185325
       ],
       [
        -121.9686704,
        37.4185447
       ],
       [
        -121.9686568,
        37.4185414
       ],
       [
        -121.9686391,
        37.4185491
       ],
       [
        -121.9685942,
        37.4185503
       ],
       [
        -121.9685414,
        37.418473
       ],
       [
        -121.9685455,
        37.4184621
       ],
       [
        -121.9685311,
        37.418441
       ],
       [
        -121.9685351,
        37.4184301
       ],
       [
        -121.9685255,
        37.418416
       ],
       [
        -121.9685295,
        37.4184052
       ],
       [
        -121.9685047,
        37.4183521
       ],
       [
        -121.9685032,
        37.4183163
       ],
       [
        -121.9684888,
        37.4182952
       ],
       [
        -121.9684872,
        37.4182594
       ],
       [
        -121.9684728,
        37.4182383
       ],
       [
        -121.9684712,
        37.4182025
       ],
       [
        -121.9684464,
        37.4181494
       ],
       [
        -121.9684505,
        37.4181385
       ],
       [
        -121.9684313,
        37.4181104
       ],
       [
        -121.9684353,
        37.4180995
       ],
       [
        -121.9684113,
        37.4180643
       ],
       [
        -121.9684153,
        37.4180535
       ],
       [
        -121.9683961,
        37.4180253
       ],
       [
        -121.9684001,
        37.4180145
       ],
       [
        -121.9683657,
        37.4179473
       ],
       [
        -121.9683698,
        37.4179364
       ],
       [
        -121.9683354,
        37.4178693
       ],
       [
        -121.9683394,
        37.4178584
       ],
       [
        -121.968301,
        37.4178021
       ],
       [
        -121.968305,
        37.4177913
       ],
       [
        -121.9682666,
        37.417735
       ],
       [
        -121.9682706,
        37.4177241
       ],
       [
        -121.9682322,
        37.4176678
       ],
       [
        -121.9682362,
        37.417657
       ],
       [
        -121.9681978,
        37.4176007
       ],
       [
        -121.9682019,
        37.4175898
       ],
       [
        -121.9681107,
        37.4174561
       ],
       [
        -121.9681147,
        37.4174453
       ],
       [
        -121.9680427,
        37.4173397
       ],
       [
        -121.968029,
        37.4173365
       ],
       [
        -121.9679426,
        37.4172099
       ],
       [
        -121.967929,
        37.4172067
       ],
       [
        -121.9678426,
        37.41708
       ],
       [
        -121.967829,
        37.4170768
       ],
       [
        -121.9677906,
        37.4170205
       ],
       [
        -121.967777,
        37.4170173
       ],
       [
        -121.9677386,
        37.416961
       ],
       [
        -121.9677249,
        37.4169578
       ],
       [
        -121.9676913,
        37.4169086
       ],
       [
        -121.9676777,
        37.4169054
       ],
       [
        -121.9676393,
        37.4168491
       ],
       [
        -121.9676257,
        37.4168459
       ],
       [
        -121.9675873,
        37.4167896
       ],
       [
        -121.9675737,
        37.4167864
       ],
       [
        -121.9675401,
        37.4167371
       ],
       [
        -121.9675264,
        37.4167339
       ],
       [
        -121.967488,
        37.4166776
       ],
       [
        -121.9674744,
        37.4166744
       ],
       [
        -121.967436,
        37.4166181
       ],
       [
        -121.9674224,
        37.4166149
       ],
       [
        -121.9673888,
        37.4165657
       ],
       [
        -121.9673752,
        37.4165625
       ],
       [
        -121.9673368,
        37.4165062
       ],
       [
        -121.9673231,
        37.416503
       ],
       [
        -121.9672895,
        37.4164537
       ],
       [
        -121.9672759,
        37.4164505
       ],
       [
        -121.9672375,
        37.4163942
       ],
       [
        -121.9672239,
        37.416391
       ],
       [
        -121.9671855,
        37.4163347
       ],
       [
        -121.9671719,
        37.4163315
       ],
       [
        -121.9671383,
        37.4162823
       ],
       [
        -121.9671246,
        37.4162791
       ],
       [
        -121.9670862,
        37.4162228
       ],
       [
        -121.9670726,
        37.4162196
       ],
       [
        -121.9670342,
        37.4161633
       ],
       [
        -121.9670206,
        37.4161601
       ],
       [
        -121.966987,
        37.4161108
       ],
       [
        -121.9669734,
        37.4161076
       ],
       [
        -121.966935,
        37.4160513
       ],
       [
        -121.9669213,
        37.4160481
       ],
       [
        -121.9668829,
        37.4159918
       ],
       [
        -121.9668693,
        37.4159886
       ],
       [
        -121.9668357,
        37.4159394
       ],
       [
        -121.9668221,
        37.4159362
       ],
       [
        -121.9667741,
        37.4158658
       ],
       [
        -121.9667605,
        37.4158626
       ],
       [
        -121.9667365,
        37.4158274
       ],
       [
        -121.9667228,
        37.4158242
       ],
       [
        -121.9666892,
        37.4157749
       ],
       [
        -121.9666756,
        37.4157717
       ],
       [
        -121.966642,
        37.4157225
       ],
       [
        -121.9666284,
        37.4157193
       ],
       [
        -121.9665948,
        37.41567
       ],
       [
        -121.9665812,
        37.4156668
       ],
       [
        -121.9665476,
        37.4156176
       ],
       [
        -121.9665339,
        37.4156144
       ],
       [
        -121.9665003,
        37.4155651
       ],
       [
        -121.9664867,
        37.4155619
       ],
       [
        -121.9664579,
        37.4155197
       ],
       [
        -121.9664443,
        37.4155165
       ],
       [
        -121.9664107,
        37.4154672
       ],
       [
        -121.9663971,
        37.415464
       ],
       [
        -121.9663635,
        37.4154148
       ],
       [
        -121.9663499,
        37.4154116
       ],
       [
        -121.9663163,
        37.4153623
       ],
       [
        -121.9663026,
        37.4153591
       ],
       [
        -121.966269,
        37.4153098
       ],
       [
        -121.9662554,
        37.4153066
       ],
       [
        -121.9662218,
        37.4152574
       ],
       [
        -121.9662082,
        37.4152542
       ],
       [
        -121.9661746,
        37.4152049
       ],
       [
        -121.966161,
        37.4152017
       ],
       [
        -121.9661274,
        37.4151525
       ],
       [
        -121.9661137,
        37.4151493
       ],
       [
        -121.9660801,
        37.4151
       ],
       [
        -121.9660665,
        37.4150968
       ],
       [
        -121.9660329,
        37.4150475
       ],
       [
        -121.9660193,
        37.4150443
       ],
       [
        -121.9659857,
        37.4149951
       ],
       [
        -121.9659721,
        37.4149919
       ],
       [
        -121.9659385,
        37.4149426
       ],
       [
        -121.9659248,
        37.4149394
       ],
       [
        -121.9658912,
        37.4148902
       ],
       [
        -121.9658776,
        37.414887
       ],
       [
        -121.965844,
        37.4148377
       ],
       [
        -121.9658304,
        37.4148345
       ],
       [
        -121.965768,
        37.414743
       ],
       [
        -121.9657544,
        37.4147398
       ],
       [
        -121.9657208,
        37.4146906
       ],
       [
        -121.9657072,
        37.4146874
       ],
       [
        -121.9656736,
        37.4146381
       ],
       [
        -121.9656599,
        37.4146349
       ],
       [
        -121.9656215,
        37.4145786
       ],
       [
        -121.9656079,
        37.4145754
       ],
       [
        -121.9655263,
        37.4144558
       ],
       [
        -121.9655039,
        37.4144564
       ],
       [
        -121.9654799,
        37.4144212
       ],
       [
        -121.9654662,
        37.414418
       ],
       [
        -121.9654278,
        37.4143617
       ],
       [
        -121.9654142,
        37.4143585
       ],
       [
        -121.9653806,
        37.4143093
       ],
       [
        -121.965367,
        37.4143061
       ],
       [
        -121.9653334,
        37.4142568
       ],
       [
        -121.9653198,
        37.4142536
       ],
       [
        -121.9652862,
        37.4142044
       ],
       [
        -121.9652726,
        37.4142012
       ],
       [
        -121.965239,
        37.4141519
       ],
       [
        -121.9652253,
        37.4141487
       ],
       [
        -121.9651869,
        37.4140924
       ],
       [
        -121.9651733,
        37.4140892
       ],
       [
        -121.9651397,
        37.4140399
       ],
       [
        -121.9651261,
        37.4140367
       ],
       [
        -121.9650925,
        37.4139875
       ],
       [
        -121.9650789,
        37.4139843
       ],
       [
        -121.9650453,
        37.413935
       ],
       [
        -121.9650317,
        37.4139318
       ],
       [
        -121.9649933,
        37.4138755
       ],
       [
        -121.9649796,
        37.4138723
       ],
       [
        -121.964946,
        37.4138231
       ],
       [
        -121.9649324,
        37.4138199
       ],
       [
        -121.9648988,
        37.4137706
       ],
       [
        -121.9648852,
        37.4137674
       ],
       [
        -121.9648516,
        37.4137181
       ],
       [
        -121.964838,
        37.4137149
       ],
       [
        -121.9648044,
        37.4136657
       ],
       [
        -121.9647907,
        37.4136625
       ],
       [
        -121.9647523,
        37.4136062
       ],
       [
        -121.9647387,
        37.413603
       ],
       [
        -121.9647051,
        37.4135537
       ],
       [
        -121.9646915,
        37.4135505
       ],
       [
        -121.9646579,
        37.4135013
       ],
       [
        -121.9646443,
        37.4134981
       ],
       [
        -121.9646107,
        37.4134488
       ],
       [
        -121.9645971,
        37.4134456
       ],
       [
        -121.9645587,
        37.4133893
       ],
       [
        -121.964545,
        37.4133861
       ],
       [
        -121.9645114,
        37.4133369
       ],
       [
        -121.9644978,
        37.4133336
       ],
       [
        -121.9644642,
        37.4132844
       ],
       [
        -121.9644506,
        37.4132812
       ],
       [
        -121.964417,
        37.4132319
       ],
       [
        -121.9644034,
        37.4132287
       ],
       [
        -121.9643698,
        37.4131795
       ],
       [
        -121.9643562,
        37.4131763
       ],
       [
        -121.9643178,
        37.41312
       ],
       [
        -121.9643041,
        37.4131168
       ],
       [
        -121.9642705,
        37.4130675
       ],
       [
        -121.9642569,
        37.4130643
       ],
       [
        -121.9642233,
        37.4130151
       ],
       [
        -121.9642097,
        37.4130118
       ],
       [
        -121.9641761,
        37.4129626
       ],
       [
        -121.9641625,
        37.4129594
       ],
       [
        -121.9641241,
        37.4129031
       ],
       [
        -121.9641105,
        37.4128999
       ],
       [
        -121.9640769,
        37.4128506
       ],
       [
        -121.9640632,
        37.4128474
       ],
       [
        -121.9640296,
        37.4127982
       ],
       [
        -121.964016,
        37.412795
       ],
       [
        -121.9639824,
        37.4127457
       ],
       [
        -121.9639688,
        37.4127425
       ],
       [
        -121.9639304,
        37.4126862
       ],
       [
        -121.9639168,
        37.412683
       ],
       [
        -121.9638832,
        37.4126338
       ],
       [
        -121.9638696,
        37.4126305
       ],
       [
        -121.963836,
        37.4125813
       ],
       [
        -121.9638223,
        37.4125781
       ],
       [
        -121.9637887,
        37.4125288
       ],
       [
        -121.9637751,
        37.4125256
       ],
       [
        -121.9637415,
        37.4124764
       ],
       [
        -121.9637279,
        37.4124732
       ],
       [
        -121.9636895,
        37.4124169
       ],
       [
        -121.9636759,
        37.4124137
       ],
       [
        -121.9636423,
        37.4123644
       ],
       [
        -121.9636287,
        37.4123612
       ],
       [
        -121.9635951,
        37.412312
       ],
       [
        -121.9635814,
        37.4123087
       ],
       [
        -121.9635478,
        37.4122595
       ],
       [
        -121.9635342,
        37.4122563
       ],
       [
        -121.9634958,
        37.4122
       ],
       [
        -121.9634822,
        37.4121968
       ],
       [
        -121.9634486,
        37.4121475
       ],
       [
        -121.963435,
        37.4121443
       ],
       [
        -121.9634014,
        37.4120951
       ],
       [
        -121.9633878,
        37.4120919
       ],
       [
        -121.9633542,
        37.4120426
       ],
       [
        -121.9633405,
        37.4120394
       ],
       [
        -121.963307,
        37.4119902
       ],
       [
        -121.9632933,
        37.4119869
       ],
       [
        -121.9632549,
        37.4119307
       ],
       [
        -121.9632413,
        37.4119274
       ],
       [
        -121.9632077,
        37.4118782
       ],
       [
        -121.9631941,
        37.411875
       ],
       [
        -121.9631605,
        37.4118257
       ],
       [
        -121.9631469,
        37.4118225
       ],
       [
        -121.9631133,
        37.4117733
       ],
       [
        -121.9630997,
        37.4117701
       ],
       [
        -121.9630613,
        37.4117138
       ],
       [
        -121.9630476,
        37.4117106
       ],
       [
        -121.963014,
        37.4116613
       ],
       [
        -121.9630004,
        37.4116581
       ],
       [
        -121.9629668,
        37.4116089
       ],
       [
        -121.9629532,
        37.4116056
       ],
       [
        -121.9629196,
        37.4115564
       ],
       [
        -121.962906,
        37.4115532
       ],
       [
        -121.9628724,
        37.4115039
       ],
       [
        -121.9628588,
        37.4115007
       ],
       [
        -121.9628204,
        37.4114444
       ],
       [
        -121.9628067,
        37.4114412
       ],
       [
        -121.9627587,
        37.4113709
       ],
       [
        -121.9628558,
        37.4113288
       ],
       [
        -121.9629551,
        37.4113403
       ],
       [
        -121.9629992,
        37.4113212
       ],
       [
        -121.9630489,
        37.411327
       ],
       [
        -121.9630578,
        37.4113232
       ],
       [
        -121.963085,
        37.4113296
       ],
       [
        -121.9630938,
        37.4113257
       ],
       [
        -121.9631211,
        37.4113322
       ],
       [
        -121.9631299,
        37.4113283
       ],
       [
        -121.9631571,
        37.4113348
       ],
       [
        -121.9631659,
        37.4113309
       ],
       [
        -121.9632068,
        37.4113405
       ],
       [
        -121.9632517,
        37.4113393
       ],
       [
        -121.963315,
        37.4113483
       ],
       [
        -121.9633374,
        37.4113477
       ],
       [
        -121.9633551,
        37.41134
       ],
       [
        -121.9633687,
        37.4113432
       ],
       [
        -121.9634657,
        37.4113011
       ],
       [
        -121.9634793,
        37.4113043
       ],
       [
        -121.9635587,
        37.4112699
       ],
       [
        -121.9635724,
        37.4112731
       ],
       [
        -121.9636429,
        37.4112424
       ],
       [
        -121.9636565,
        37.4112457
       ],
       [
        -121.9637271,
        37.411215
       ],
       [
        -121.9637407,
        37.4112182
       ],
       [
        -121.9638201,
        37.4111838
       ],
       [
        -121.9638337,
        37.411187
       ],
       [
        -121.9639131,
        37.4111525
       ],
       [
        -121.9639267,
        37.4111557
       ],
       [
        -121.9639973,
        37.4111251
       ],
       [
        -121.9640109,
        37.4111283
       ],
       [
        -121.9640903,
        37.4110939
       ],
       [
        -121.9641039,
        37.4110971
       ],
       [
        -121.9641745,
        37.4110664
       ],
       [
        -121.9641881,
        37.4110696
       ],
       [
        -121.9642587,
        37.411039
       ],
       [
        -121.9642723,
        37.4110422
       ],
       [
        -121.9643341,
        37.4110154
       ],
       [
        -121.9643477,
        37.4110186
       ],
       [
        -121.9644271,
        37.4109842
       ],
       [
        -121.9644407,
        37.4109874
       ],
       [
        -121.9645201,
        37.4109529
       ],
       [
        -121.9645337,
        37.4109561
       ],
       [
        -121.9646043,
        37.4109255
       ],
       [
        -121.9646179,
        37.4109287
       ],
       [
        -121.9646973,
        37.4108942
       ],
       [
        -121.9647109,
        37.4108975
       ],
       [
        -121.9647815,
        37.4108668
       ],
       [
        -121.9647951,
        37.41087
       ],
       [
        -121.9648745,
        37.4108356
       ],
       [
        -121.9648881,
        37.4108388
       ],
       [
        -121.9649586,
        37.4108082
       ],
       [
        -121.9649723,
        37.4108114
       ],
       [
        -121.9650517,
        37.4107769
       ],
       [
        -121.9650653,
        37.4107801
       ],
       [
        -121.9651358,
        37.4107495
       ],
       [
        -121.9651495,
        37.4107527
       ],
       [
        -121.9652289,
        37.4107182
       ],
       [
        -121.9652425,
        37.4107214
       ],
       [
        -121.965313,
        37.4106908
       ],
       [
        -121.9653267,
        37.410694
       ],
       [
        -121.965406,
        37.4106596
       ],
       [
        -121.9654197,
        37.4106628
       ],
       [
        -121.9654991,
        37.4106283
       ],
       [
        -121.9655127,
        37.4106315
       ],
       [
        -121.9655832,
        37.4106009
       ],
       [
        -121.9655969,
        37.4106041
       ],
       [
        -121.9656762,
        37.4105696
       ],
       [
        -121.9656899,
        37.4105728
       ],
       [
        -121.9657604,
        37.4105422
       ],
       [
        -121.9657741,
        37.4105454
       ],
       [
        -121.9658534,
        37.410511
       ],
       [
        -121.9658671,
        37.4105142
       ],
       [
        -121.9659376,
        37.4104835
       ],
       [
        -121.9659512,
        37.4104867
       ],
       [
        -121.9660306,
        37.4104523
       ],
       [
        -121.9660443,
        37.4104555
       ],
       [
        -121.9661148,
        37.4104249
       ],
       [
        -121.9661284,
        37.4104281
       ],
       [
        -121.9662078,
        37.4103936
       ],
       [
        -121.9662214,
        37.4103968
       ],
       [
        -121.9663008,
        37.4103623
       ],
       [
        -121.9663144,
        37.4103656
       ],
       [
        -121.966385,
        37.4103349
       ],
       [
        -121.9663986,
        37.4103381
       ],
       [
        -121.966478,
        37.4103037
       ],
       [
        -121.9664916,
        37.4103069
       ],
       [
        -121.9665622,
        37.4102763
       ],
       [
        -121.9665758,
        37.4102795
       ],
       [
        -121.9666552,
        37.410245
       ],
       [
        -121.9666688,
        37.4102482
       ],
       [
        -121.9667394,
        37.4102176
       ],
       [
        -121.966753,
        37.4102208
       ],
       [
        -121.9668324,
        37.4101863
       ],
       [
        -121.966846,
        37.4101895
       ],
       [
        -121.9669166,
        37.4101589
       ],
       [
        -121.9669302,
        37.4101621
       ],
       [
        -121.9670096,
        37.4101276
       ],
       [
        -121.9670232,
        37.4101309
       ],
       [
        -121.9671026,
        37.4100964
       ],
       [
        -121.9671162,
        37.4100996
       ],
       [
        -121.9671868,
        37.410069
       ],
       [
        -121.9672004,
        37.4100722
       ],
       [
        -121.9672798,
        37.4100377
       ],
       [
        -121.9672934,
        37.4100409
       ],
       [
        -121.967364,
        37.4100103
       ],
       [
        -121.9673776,
        37.4100135
       ],
       [
        -121.967457,
        37.409979
       ],
       [
        -121.9674706,
        37.4099822
       ],
       [
        -121.9675412,
        37.4099516
       ],
       [
        -121.9675548,
        37.4099548
       ],
       [
        -121.9676342,
        37.4099204
       ],
       [
        -121.9676478,
        37.4099236
       ],
       [
        -121.9677184,
        37.4098929
       ],
       [
        -121.967732,
        37.4098961
       ],
       [
        -121.9678114,
        37.4098617
       ],
       [
        -121.967825,
        37.4098649
       ],
       [
        -121.9678955,
        37.4098343
       ],
       [
        -121.9679092,
        37.4098375
       ],
       [
        -121.9679886,
        37.409803
       ],
       [
        -121.9680022,
        37.4098062
       ],
       [
        -121.9680816,
        37.4097718
       ],
       [
        -121.9680952,
        37.409775
       ],
       [
        -121.9681657,
        37.4097443
       ],
       [
        -121.9681794,
        37.4097475
       ],
       [
        -121.9682587,
        37.4097131
       ],
       [
        -121.9682724,
        37.4097163
       ],
       [
        -121.9683429,
        37.4096857
       ],
       [
        -121.9683566,
        37.4096889
       ],
       [
        -121.9684359,
        37.4096544
       ],
       [
        -121.9718682,
        37.4146851
       ],
       [
        -121.9718642,
        37.4146959
       ],
       [
        -121.9719938,
        37.4148859
       ],
       [
        -121.9719898,
        37.4148968
       ],
       [
        -121.972009,
        37.4149249
       ],
       [
        -121.972005,
        37.4149358
       ],
       [
        -121.9720394,
        37.4150029
       ],
       [
        -121.9720353,
        37.4150138
       ],
       [
        -121.9720545,
        37.4150419
       ],
       [
        -121.9720505,
        37.4150528
       ],
       [
        -121.9720649,
        37.4150739
       ],
       [
        -121.9720609,
        37.4150848
       ],
       [
        -121.9720801,
        37.4151129
       ],
       [
        -121.9720761,
        37.4151238
       ],
       [
        -121.9720953,
        37.4151519
       ],
       [
        -121.9720913,
        37.4151628
       ],
       [
        -121.9721105,
        37.4151909
       ],
       [
        -121.9721065,
        37.4152018
       ],
       [
        -121.9721257,
        37.41523
       ],
       [
        -121.9721216,
        37.4152408
       ],
       [
        -121.972136,
        37.4152619
       ],
       [
        -121.9721328,
        37.4152907
       ],
       [
        -121.9721424,
        37.4153048
       ],
       [
        -121.9721455,
        37.4153764
       ],
       [
        -121.9721551,
        37.4153904
       ],
       [
        -121.9721519,
        37.4154192
       ],
       [
        -121.9721615,
        37.4154333
       ],
       [
        -121.9721583,
        37.415462
       ],
       [
        -121.9721679,
        37.4154761
       ],
       [
        -121.9721654,
        37.4155228
       ],
       [
        -121.972175,
        37.4155369
       ],
       [
        -121.9721718,
        37.4155656
       ],
       [
        -121.9721814,
        37.4155797
       ],
       [
        -121.9721845,
        37.4156513
       ],
       [
        -121.9721941,
        37.4156654
       ],
       [
        -121.9721916,
        37.415712
       ],
       [
        -121.9722012,
        37.4157261
       ],
       [
        -121.9721988,
        37.4157728
       ],
       [
        -121.9722084,
        37.4157868
       ],
       [
        -121.9722131,
        37.4158942
       ],
       [
        -121.9722227,
        37.4159083
       ],
       [
        -121.9722202,
        37.415955
       ],
       [
        -121.9722298,
        37.4159691
       ],
       [
        -121.9722273,
        37.4160157
       ],
       [
        -121.9722369,
        37.4160298
       ],
       [
        -121.9722345,
        37.4160765
       ],
       [
        -121.9722441,
        37.4160905
       ],
       [
        -121.9722416,
        37.4161372
       ],
       [
        -121.9722512,
        37.4161513
       ],
       [
        -121.972248,
        37.41618
       ],
       [
        -121.9722576,
        37.4161941
       ],
       [
        -121.9722567,
        37.4162766
       ],
       [
        -121.9722663,
        37.4162907
       ],
       [
        -121.9722638,
        37.4163373
       ],
       [
        -121.9722734,
        37.4163514
       ],
       [
        -121.972271,
        37.4163981
       ],
       [
        -121.9723142,
        37.4164614
       ],
       [
        -121.9723102,
        37.4164722
       ],
       [
        -121.9723438,
        37.4165215
       ],
       [
        -121.9723398,
        37.4165324
       ],
       [
        -121.972359,
        37.4165605
       ],
       [
        -121.9723549,
        37.4165714
       ],
       [
        -121.9723885,
        37.4166206
       ],
       [
        -121.9723845,
        37.4166315
       ],
       [
        -121.9724613,
        37.4167441
       ],
       [
        -121.9724573,
        37.4167549
       ],
       [
        -121.9725677,
        37.4169167
       ],
       [
        -121.9725637,
        37.4169276
       ],
       [
        -121.9726789,
        37.4170965
       ],
       [
        -121.9726749,
        37.4171073
       ],
       [
        -121.9726941,
        37.4171355
       ],
       [
        -121.9725883,
        37.4171814
       ],
       [
        -121.9725746,
        37.4171782
       ],
       [
        -121.9725482,
        37.4171897
       ],
       [
        -121.9725033,
        37.417191
       ],
       [
        -121.9724367,
        37.4172107
       ],
       [
        -121.9723919,
        37.417212
       ],
       [
        -121.9723253,
        37.4172317
       ],
       [
        -121.9722804,
        37.417233
       ],
       [
        -121.972254,
        37.4172445
       ],
       [
        -121.9722403,
        37.4172413
       ],
       [
        -121.9722139,
        37.4172528
       ],
       [
        -121.9722003,
        37.4172495
       ],
       [
        -121.9721738,
        37.417261
       ],
       [
        -121.9721289,
        37.4172623
       ],
       [
        -121.9720624,
        37.4172821
       ],
       [
        -121.9720175,
        37.4172833
       ],
       [
        -121.9719509,
        37.4173031
       ],
       [
        -121.971906,
        37.4173043
       ],
       [
        -121.9718796,
        37.4173158
       ],
       [
        -121.9718659,
        37.4173126
       ],
       [
        -121.9718395,
        37.4173241
       ],
       [
        -121.9718259,
        37.4173209
       ],
       [
        -121.9717994,
        37.4173324
       ],
       [
        -121.9717858,
        37.4173292
       ],
       [
        -121.9717681,
        37.4173368
       ],
       [
        -121.9717545,
        37.4173336
       ],
       [
        -121.971688,
        37.4173534
       ],
       [
        -121.9716431,
        37.4173546
       ],
       [
        -121.9715765,
        37.4173744
       ],
       [
        -121.9715316,
        37.4173756
       ],
       [
        -121.9713376,
        37.4174599
       ],
       [
        -121.9713336,
        37.4174707
       ],
       [
        -121.9712983,
        37.4174861
       ],
       [
        -121.9712942,
        37.4174969
       ],
       [
        -121.9712678,
        37.4175084
       ],
       [
        -121.9712638,
        37.4175193
       ],
       [
        -121.9712245,
        37.4175455
       ],
       [
        -121.9712204,
        37.4175563
       ],
       [
        -121.9712028,
        37.417564
       ],
       [
        -121.9711129,
        37.4176668
       ],
       [
        -121.9710711,
        37.4177397
       ],
       [
        -121.9710623,
        37.4177435
       ],
       [
        -121.9710503,
        37.4177761
       ],
       [
        -121.9710414,
        37.4177799
       ],
       [
        -121.9710085,
        37.417849
       ],
       [
        -121.9709828,
        37.4178783
       ],
       [
        -121.9709499,
        37.4179474
       ],
       [
        -121.9709242,
        37.4179768
       ],
       [
        -121.9708759,
        37.4181071
       ],
       [
        -121.9708807,
        37.4181142
       ]
      ],
      [
       [
        -121.970658,
        37.4180558
       ],
       [
        -121.9706844,
        37.4180443
       ],
       [
        -121.9706885,
        37.4180335
       ],
       [
        -121.9707061,
        37.4180258
       ],
       [
        -121.970727,
        37.4179894
       ],
       [
        -121.9707486,
        37.4179709
       ],
       [
        -121.9707736,
        37.4179236
       ],
       [
        -121.9708121,
        37.4178795
       ],
       [
        -121.9708659,
        37.4177741
       ],
       [
        -121.9708916,
        37.4177447
       ],
       [
        -121.9709036,
        37.4177121
       ],
       [
        -121.9709125,
        37.4177082
       ],
       [
        -121.9709374,
        37.417661
       ],
       [
        -121.970959,
        37.4176424
       ],
       [
        -121.9709671,
        37.4176207
       ],
       [
        -121.9710184,
        37.4175619
       ],
       [
        -121.9710361,
        37.4175543
       ],
       [
        -121.9711131,
        37.4174661
       ],
       [
        -121.9711116,
        37.4174303
       ],
       [
        -121.9711518,
        37.4173216
       ],
       [
        -121.9711694,
        37.417314
       ],
       [
        -121.9711734,
        37.4173031
       ],
       [
        -121.9712705,
        37.417261
       ],
       [
        -121.9712745,
        37.4172501
       ],
       [
        -121.9712601,
        37.417229
       ],
       [
        -121.9712681,
        37.4172073
       ],
       [
        -121.9712489,
        37.4171792
       ],
       [
        -121.971253,
        37.4171683
       ],
       [
        -121.9711857,
        37.4170698
       ],
       [
        -121.9711721,
        37.4170666
       ],
       [
        -121.9710185,
        37.4168414
       ],
       [
        -121.9710001,
        37.4168312
       ],
       [
        -121.9709824,
        37.4168388
       ],
       [
        -121.9709688,
        37.4168356
       ],
       [
        -121.9709071,
        37.4168624
       ],
       [
        -121.9708934,
        37.4168592
       ],
       [
        -121.970814,
        37.4168937
       ],
       [
        -121.9708004,
        37.4168905
       ],
       [
        -121.9706946,
        37.4169364
       ],
       [
        -121.9706809,
        37.4169332
       ],
       [
        -121.9702575,
        37.417117
       ],
       [
        -121.9702439,
        37.4171138
       ],
       [
        -121.9701733,
        37.4171445
       ],
       [
        -121.9700939,
        37.4171789
       ],
       [
        -121.9700899,
        37.4171898
       ],
       [
        -121.9697812,
        37.4173238
       ],
       [
        -121.9697676,
        37.4173206
       ],
       [
        -121.9696088,
        37.4173895
       ],
       [
        -121.9695952,
        37.4173863
       ],
       [
        -121.9689777,
        37.4176543
       ],
       [
        -121.9689736,
        37.4176652
       ],
       [
        -121.9689119,
        37.417692
       ],
       [
        -121.9689079,
        37.4177029
       ],
       [
        -121.9688726,
        37.4177182
       ],
       [
        -121.9688469,
        37.4177476
       ],
       [
        -121.9688389,
        37.4177693
       ],
       [
        -121.96883,
        37.4177731
       ],
       [
        -121.968818,
        37.4178057
       ],
       [
        -121.9688228,
        37.4178128
       ],
       [
        -121.9688107,
        37.4178454
       ],
       [
        -121.9688138,
        37.417917
       ],
       [
        -121.9688234,
        37.417931
       ],
       [
        -121.9688194,
        37.4179419
       ],
       [
        -121.9688346,
        37.4179809
       ],
       [
        -121.9688306,
        37.4179918
       ],
       [
        -121.968845,
        37.4180129
       ],
       [
        -121.9688458,
        37.4180308
       ],
       [
        -121.9688417,
        37.4180417
       ],
       [
        -121.9687976,
        37.4180608
       ],
       [
        -121.9688072,
        37.4180749
       ],
       [
        -121.9688297,
        37.4180743
       ],
       [
        -121.9689353,
        37.418229
       ],
       [
        -121.9689489,
        37.4182322
       ],
       [
        -121.9689585,
        37.4182463
       ],
       [
        -121.9690314,
        37.4182694
       ],
       [
        -121.9690498,
        37.4182796
       ],
       [
        -121.9690594,
        37.4182937
       ],
       [
        -121.9690731,
        37.4182969
       ],
       [
        -121.9690827,
        37.418311
       ],
       [
        -121.9690963,
        37.4183142
       ],
       [
        -121.9691051,
        37.4183104
       ],
       [
        -121.969146,
        37.41832
       ],
       [
        -121.9691909,
        37.4183187
       ],
       [
        -121.9692085,
        37.4183111
       ],
       [
        -121.9693343,
        37.4183112
       ],
       [
        -121.969352,
        37.4183035
       ],
       [
        -121.9696886,
        37.4182942
       ],
       [
        -121.9697376,
        37.4182821
       ],
       [
        -121.9697512,
        37.4182853
       ],
       [
        -121.9697688,
        37.4182776
       ],
       [
        -121.9698049,
        37.4182802
       ],
       [
        -121.9698538,
        37.4182681
       ],
       [
        -121.9699211,
        37.4182662
       ],
       [
        -121.9699388,
        37.4182586
       ],
       [
        -121.9699748,
        37.4182612
       ],
       [
        -121.9700189,
        37.418242
       ],
       [
        -121.9700326,
        37.4182452
       ],
       [
        -121.9700678,
        37.4182299
       ],
       [
        -121.9701127,
        37.4182287
       ],
       [
        -121.9701745,
        37.4182019
       ],
       [
        -121.9701881,
        37.4182051
       ],
       [
        -121.9702587,
        37.4181744
       ],
       [
        -121.9702723,
        37.4181776
       ],
       [
        -121.9703076,
        37.4181623
       ],
       [
        -121.9703212,
        37.4181655
       ],
       [
        -121.970383,
        37.4181387
       ],
       [
        -121.9703966,
        37.4181419
       ],
       [
        -121.9704671,
        37.4181113
       ],
       [
        -121.9704808,
        37.4181145
       ],
       [
        -121.970565,
        37.4180871
       ],
       [
        -121.9705786,
        37.4180903
       ],
       [
        -121.9706315,
        37.4180673
       ],
       [
        -121.9706451,
        37.4180705
       ],
       [
        -121.970658,
        37.4180558
       ]
      ]
     ]
    ]
   }
  },
  {
   "type": "Feature",
   "properties": {
    "kind": "block",
    "block": "WN and WJ",
    "label": "Blocks WN and WJ",
    "stage": "entitled",
    "height_ft": 190,
    "podium_ft": null,
    "base_ft": 0,
    "use": "Mixed use: residential, office, hotel and retail",
    "phase": "Phase 2",
    "illustrative": true,
    "source": "illustrative: block outlined from Master Community Plan Scheme C Supplement (Santa Clara Resolution 25-9467, July 8, 2025), Exhibit 4C-1 (Scheme C), Parcel & Block Key Plan, p. 54; drawn to the project's 190-ft maximum (17 stories, measured from the finished grade of the on-site streets; CEQA Addendum 4 (Resolution 25-9465, July 8, 2025), PDF p. 16, note 2 (https://santaclara.legistar1.com/santaclara/attachments/595ea4c8-fb0f-4da1-bb99-eace63cf42ed.pdf)). The Parcel 4 guidelines (p. 59) expect towers of about 10-12 stories on 2-5-story podiums",
    "note": "Parcel 4. Towers are expected to be about 10-12 stories; 190 ft is the cap."
   },
   "geometry": {
    "type": "MultiPolygon",
    "coordinates": [
     [
      [
       [
        -121.9773939,
        37.4086396
       ],
       [
        -121.977352,
        37.4085735
       ],
       [
        -121.9773524,
        37.4085568
       ],
       [
        -121.9772856,
        37.4084627
       ],
       [
        -121.9772684,
        37.4084531
       ],
       [
        -121.9772546,
        37.4084177
       ],
       [
        -121.9771884,
        37.4084136
       ],
       [
        -121.9771187,
        37.4083727
       ],
       [
        -121.9770879,
        37.4083661
       ],
       [
        -121.9770223,
        37.4083323
       ],
       [
        -121.9769674,
        37.4082799
       ],
       [
        -121.9769226,
        37.4082811
       ],
       [
        -121.9768629,
        37.4082568
       ],
       [
        -121.9768537,
        37.4082431
       ],
       [
        -121.9768112,
        37.4082314
       ],
       [
        -121.9768017,
        37.4082179
       ],
       [
        -121.9767737,
        37.4082142
       ],
       [
        -121.9767093,
        37.4081463
       ],
       [
        -121.9766656,
        37.4081534
       ],
       [
        -121.9766039,
        37.4081199
       ],
       [
        -121.9765478,
        37.4081005
       ],
       [
        -121.9765392,
        37.4080819
       ],
       [
        -121.9765031,
        37.4080827
       ],
       [
        -121.9764811,
        37.4080691
       ],
       [
        -121.9764571,
        37.4080229
       ],
       [
        -121.9763939,
        37.4080282
       ],
       [
        -121.9763111,
        37.4079917
       ],
       [
        -121.9762665,
        37.4079592
       ],
       [
        -121.9762277,
        37.4079469
       ],
       [
        -121.9761918,
        37.4079005
       ],
       [
        -121.9761317,
        37.4078989
       ],
       [
        -121.9760466,
        37.4078496
       ],
       [
        -121.9760079,
        37.4078427
       ],
       [
        -121.9759703,
        37.407825
       ],
       [
        -121.975928,
        37.4077569
       ],
       [
        -121.9758841,
        37.4077691
       ],
       [
        -121.9757841,
        37.4077184
       ],
       [
        -121.9757679,
        37.4077178
       ],
       [
        -121.9757575,
        37.4077057
       ],
       [
        -121.9757251,
        37.4077051
       ],
       [
        -121.9756586,
        37.4076403
       ],
       [
        -121.9756182,
        37.407658
       ],
       [
        -121.9755822,
        37.4076474
       ],
       [
        -121.9755592,
        37.4076269
       ],
       [
        -121.9754351,
        37.4075795
       ],
       [
        -121.9754077,
        37.4075398
       ],
       [
        -121.9753498,
        37.4075344
       ],
       [
        -121.9752957,
        37.407516
       ],
       [
        -121.9751348,
        37.4074265
       ],
       [
        -121.9750484,
        37.4074048
       ],
       [
        -121.9749991,
        37.4073817
       ],
       [
        -121.9749179,
        37.4073325
       ],
       [
        -121.9749036,
        37.4073307
       ],
       [
        -121.9748773,
        37.4073041
       ],
       [
        -121.9747819,
        37.4072812
       ],
       [
        -121.9747088,
        37.4072286
       ],
       [
        -121.9746882,
        37.4072278
       ],
       [
        -121.9746743,
        37.4072185
       ],
       [
        -121.9746014,
        37.4071411
       ],
       [
        -121.9745575,
        37.4071599
       ],
       [
        -121.9744438,
        37.4071001
       ],
       [
        -121.9743627,
        37.4070158
       ],
       [
        -121.9743101,
        37.4070044
       ],
       [
        -121.9742635,
        37.406958
       ],
       [
        -121.9741726,
        37.4069794
       ],
       [
        -121.9738486,
        37.4071177
       ],
       [
        -121.9738233,
        37.4071198
       ],
       [
        -121.973309,
        37.4073471
       ],
       [
        -121.9732785,
        37.4073481
       ],
       [
        -121.9731192,
        37.4074119
       ],
       [
        -121.9732121,
        37.4076062
       ],
       [
        -121.9736826,
        37.4082956
       ],
       [
        -121.9737516,
        37.4084174
       ],
       [
        -121.9737781,
        37.4084553
       ],
       [
        -121.9738476,
        37.4085054
       ],
       [
        -121.9749152,
        37.4100773
       ],
       [
        -121.9749796,
        37.4100433
       ],
       [
        -121.9750246,
        37.4100434
       ],
       [
        -121.9750942,
        37.4100114
       ],
       [
        -121.9751157,
        37.410012
       ],
       [
        -121.9751962,
        37.4099775
       ],
       [
        -121.9752081,
        37.4099815
       ],
       [
        -121.9752657,
        37.4099548
       ],
       [
        -121.9752958,
        37.4099522
       ],
       [
        -121.9754774,
        37.4098805
       ],
       [
        -121.9755637,
        37.4098613
       ],
       [
        -121.9757034,
        37.4098133
       ],
       [
        -121.9757198,
        37.409817
       ],
       [
        -121.975778,
        37.4097888
       ],
       [
        -121.9758505,
        37.4097787
       ],
       [
        -121.9759207,
        37.4097442
       ],
       [
        -121.9759456,
        37.4097494
       ],
       [
        -121.9760135,
        37.4097121
       ],
       [
        -121.9760934,
        37.4096871
       ],
       [
        -121.9761146,
        37.4096886
       ],
       [
        -121.9761897,
        37.4096544
       ],
       [
        -121.976217,
        37.4096544
       ],
       [
        -121.9763225,
        37.4096145
       ],
       [
        -121.976347,
        37.4096149
       ],
       [
        -121.9764543,
        37.4095677
       ],
       [
        -121.9765471,
        37.4095464
       ],
       [
        -121.9766056,
        37.4095207
       ],
       [
        -121.9766769,
        37.4095086
       ],
       [
        -121.9768479,
        37.4094428
       ],
       [
        -121.9772381,
        37.4093261
       ],
       [
        -121.9773793,
        37.409265
       ],
       [
        -121.9773703,
        37.4092069
       ],
       [
        -121.9774061,
        37.4091851
       ],
       [
        -121.9773634,
        37.4091137
       ],
       [
        -121.977369,
        37.4090258
       ],
       [
        -121.9773551,
        37.4089417
       ],
       [
        -121.9774005,
        37.4088926
       ],
       [
        -121.9773568,
        37.4088357
       ],
       [
        -121.9773503,
        37.4087821
       ],
       [
        -121.9773565,
        37.4086682
       ],
       [
        -121.9773939,
        37.4086396
       ]
      ]
     ]
    ]
   }
  },
  {
   "type": "Feature",
   "properties": {
    "kind": "block",
    "block": "WP&WR",
    "label": "Block WP&WR",
    "stage": "entitled",
    "height_ft": 190,
    "podium_ft": null,
    "base_ft": 0,
    "use": "Mixed use: residential, office, hotel and retail",
    "phase": "Phase 2",
    "illustrative": true,
    "source": "illustrative: block outlined from Master Community Plan Scheme C Supplement (Santa Clara Resolution 25-9467, July 8, 2025), Exhibit 4C-1 (Scheme C), Parcel & Block Key Plan, p. 54; drawn to the project's 190-ft maximum (17 stories, measured from the finished grade of the on-site streets; CEQA Addendum 4 (Resolution 25-9465, July 8, 2025), PDF p. 16, note 2 (https://santaclara.legistar1.com/santaclara/attachments/595ea4c8-fb0f-4da1-bb99-eace63cf42ed.pdf)). The Parcel 4 guidelines (p. 59) expect towers of about 10-12 stories on 2-5-story podiums",
    "note": "Parcel 4. Towers are expected to be about 10-12 stories; 190 ft is the cap."
   },
   "geometry": {
    "type": "MultiPolygon",
    "coordinates": [
     [
      [
       [
        -121.9746559,
        37.4099991
       ],
       [
        -121.9745932,
        37.409858
       ],
       [
        -121.973767,
        37.4086517
       ],
       [
        -121.9712589,
        37.409739
       ],
       [
        -121.9720211,
        37.4108618
       ],
       [
        -121.9722384,
        37.4107686
       ],
       [
        -121.9722938,
        37.4107347
       ],
       [
        -121.972337,
        37.4107259
       ],
       [
        -121.9724435,
        37.4106788
       ],
       [
        -121.9724927,
        37.4106655
       ],
       [
        -121.9725099,
        37.4106727
       ],
       [
        -121.9725822,
        37.4106373
       ],
       [
        -121.9725917,
        37.4106407
       ],
       [
        -121.9727179,
        37.4105952
       ],
       [
        -121.9727975,
        37.4105777
       ],
       [
        -121.9728961,
        37.4105361
       ],
       [
        -121.9729195,
        37.4105536
       ],
       [
        -121.9730483,
        37.4104894
       ],
       [
        -121.9732182,
        37.4104586
       ],
       [
        -121.9733688,
        37.4103952
       ],
       [
        -121.9734176,
        37.4103992
       ],
       [
        -121.973441,
        37.4103836
       ],
       [
        -121.9734932,
        37.4103814
       ],
       [
        -121.9736101,
        37.4103364
       ],
       [
        -121.9736549,
        37.4103395
       ],
       [
        -121.9736743,
        37.4103171
       ],
       [
        -121.973707,
        37.4103036
       ],
       [
        -121.9737629,
        37.4103008
       ],
       [
        -121.973826,
        37.4102708
       ],
       [
        -121.973848,
        37.4102717
       ],
       [
        -121.9738935,
        37.4102498
       ],
       [
        -121.9739226,
        37.4102493
       ],
       [
        -121.9739714,
        37.4102259
       ],
       [
        -121.9740365,
        37.4102143
       ],
       [
        -121.9740998,
        37.4101869
       ],
       [
        -121.9741332,
        37.410185
       ],
       [
        -121.9741726,
        37.4101647
       ],
       [
        -121.9743282,
        37.410126
       ],
       [
        -121.9745134,
        37.4100625
       ],
       [
        -121.9746559,
        37.4099991
       ]
      ]
     ]
    ]
   }
  },
  {
   "type": "Feature",
   "properties": {
    "kind": "block",
    "block": "WS and WM",
    "label": "Blocks WS and WM",
    "stage": "entitled",
    "height_ft": 190,
    "podium_ft": null,
    "base_ft": 0,
    "use": "Mixed use: residential, office, hotel and retail",
    "phase": "Phase 2",
    "illustrative": true,
    "source": "illustrative: block outlined from Master Community Plan Scheme C Supplement (Santa Clara Resolution 25-9467, July 8, 2025), Exhibit 4C-1 (Scheme C), Parcel & Block Key Plan, p. 54; drawn to the project's 190-ft maximum (17 stories, measured from the finished grade of the on-site streets; CEQA Addendum 4 (Resolution 25-9465, July 8, 2025), PDF p. 16, note 2 (https://santaclara.legistar1.com/santaclara/attachments/595ea4c8-fb0f-4da1-bb99-eace63cf42ed.pdf)). The Parcel 4 guidelines (p. 59) expect towers of about 10-12 stories on 2-5-story podiums",
    "note": "Parcel 4. Towers are expected to be about 10-12 stories; 190 ft is the cap."
   },
   "geometry": {
    "type": "MultiPolygon",
    "coordinates": [
     [
      [
       [
        -121.9718132,
        37.4108247
       ],
       [
        -121.9704252,
        37.4087995
       ],
       [
        -121.9703499,
        37.4087079
       ],
       [
        -121.9694953,
        37.4090796
       ],
       [
        -121.9705833,
        37.4106737
       ],
       [
        -121.9705786,
        37.4107112
       ],
       [
        -121.9706364,
        37.4107212
       ],
       [
        -121.970666,
        37.4107673
       ],
       [
        -121.9706827,
        37.4107752
       ],
       [
        -121.9706876,
        37.4108039
       ],
       [
        -121.9707192,
        37.4108052
       ],
       [
        -121.9707543,
        37.410845
       ],
       [
        -121.9707653,
        37.410844
       ],
       [
        -121.9708006,
        37.4109123
       ],
       [
        -121.9708563,
        37.4108924
       ],
       [
        -121.9708333,
        37.4109461
       ],
       [
        -121.9708693,
        37.4109317
       ],
       [
        -121.9708612,
        37.4109512
       ],
       [
        -121.9709114,
        37.4109362
       ],
       [
        -121.9709003,
        37.4109764
       ],
       [
        -121.9709569,
        37.4109511
       ],
       [
        -121.97095,
        37.4110017
       ],
       [
        -121.971039,
        37.4109451
       ],
       [
        -121.9710901,
        37.4109645
       ],
       [
        -121.9711459,
        37.4109654
       ],
       [
        -121.9711777,
        37.4110114
       ],
       [
        -121.9711973,
        37.4109732
       ],
       [
        -121.9712197,
        37.4109775
       ],
       [
        -121.9712815,
        37.4109636
       ],
       [
        -121.9713075,
        37.4109807
       ],
       [
        -121.9713401,
        37.4109732
       ],
       [
        -121.9713696,
        37.4110009
       ],
       [
        -121.9714625,
        37.4109505
       ],
       [
        -121.9714892,
        37.4109527
       ],
       [
        -121.9715137,
        37.4109351
       ],
       [
        -121.9715574,
        37.4109288
       ],
       [
        -121.9718132,
        37.4108247
       ]
      ]
     ]
    ]
   }
  },
  {
   "type": "Feature",
   "properties": {
    "kind": "block",
    "block": "WK and WL",
    "label": "Blocks WK and WL",
    "stage": "entitled",
    "height_ft": 190,
    "podium_ft": null,
    "base_ft": 0,
    "use": "Mixed use: residential, office, hotel and retail",
    "phase": "Phase 2",
    "illustrative": true,
    "source": "illustrative: block outlined from Master Community Plan Scheme C Supplement (Santa Clara Resolution 25-9467, July 8, 2025), Exhibit 4C-1 (Scheme C), Parcel & Block Key Plan, p. 54; drawn to the project's 190-ft maximum (17 stories, measured from the finished grade of the on-site streets; CEQA Addendum 4 (Resolution 25-9465, July 8, 2025), PDF p. 16, note 2 (https://santaclara.legistar1.com/santaclara/attachments/595ea4c8-fb0f-4da1-bb99-eace63cf42ed.pdf)). The Parcel 4 guidelines (p. 59) expect towers of about 10-12 stories on 2-5-story podiums",
    "note": "Parcel 4. Towers are expected to be about 10-12 stories; 190 ft is the cap."
   },
   "geometry": {
    "type": "MultiPolygon",
    "coordinates": [
     [
      [
       [
        -121.9736378,
        37.408462
       ],
       [
        -121.9730122,
        37.4075547
       ],
       [
        -121.9704589,
        37.4086672
       ],
       [
        -121.971127,
        37.4096407
       ],
       [
        -121.9712179,
        37.4096146
       ],
       [
        -121.9731021,
        37.4087961
       ],
       [
        -121.9732165,
        37.4087548
       ],
       [
        -121.9735929,
        37.4085832
       ],
       [
        -121.9737305,
        37.4085364
       ],
       [
        -121.9736378,
        37.408462
       ]
      ]
     ]
    ]
   }
  },
  {
   "type": "Feature",
   "properties": {
    "kind": "block",
    "block": "WE",
    "label": "Block WE",
    "stage": "entitled",
    "height_ft": 190,
    "podium_ft": null,
    "base_ft": 0,
    "use": "Mixed use: residential, office, hotel and retail",
    "phase": "Phase 2",
    "illustrative": true,
    "source": "illustrative: block outlined from Master Community Plan Scheme C Supplement (Santa Clara Resolution 25-9467, July 8, 2025), Exhibit 4C-1 (Scheme C), Parcel & Block Key Plan, p. 54; drawn to the project's 190-ft maximum (17 stories, measured from the finished grade of the on-site streets; CEQA Addendum 4 (Resolution 25-9465, July 8, 2025), PDF p. 16, note 2 (https://santaclara.legistar1.com/santaclara/attachments/595ea4c8-fb0f-4da1-bb99-eace63cf42ed.pdf)). The Parcel 4 guidelines (p. 59) expect towers of about 10-12 stories on 2-5-story podiums",
    "note": "Parcel 4. Towers are expected to be about 10-12 stories; 190 ft is the cap."
   },
   "geometry": {
    "type": "MultiPolygon",
    "coordinates": [
     [
      [
       [
        -121.9739062,
        37.4064361
       ],
       [
        -121.9738711,
        37.4064087
       ],
       [
        -121.9738388,
        37.4063526
       ],
       [
        -121.9738209,
        37.406347
       ],
       [
        -121.9737544,
        37.4062708
       ],
       [
        -121.9737538,
        37.4062028
       ],
       [
        -121.9737041,
        37.4062131
       ],
       [
        -121.973677,
        37.4061686
       ],
       [
        -121.9736523,
        37.4061542
       ],
       [
        -121.9736164,
        37.4060974
       ],
       [
        -121.9735898,
        37.4060809
       ],
       [
        -121.9735609,
        37.406036
       ],
       [
        -121.9734875,
        37.4059631
       ],
       [
        -121.9734381,
        37.4058822
       ],
       [
        -121.9734246,
        37.405886
       ],
       [
        -121.9733819,
        37.4058211
       ],
       [
        -121.9733693,
        37.405825
       ],
       [
        -121.9732693,
        37.4056951
       ],
       [
        -121.9732587,
        37.4056949
       ],
       [
        -121.973179,
        37.4055948
       ],
       [
        -121.9731558,
        37.4055799
       ],
       [
        -121.9730435,
        37.4054334
       ],
       [
        -121.9728417,
        37.4055225
       ],
       [
        -121.9728126,
        37.405545
       ],
       [
        -121.9727266,
        37.4055763
       ],
       [
        -121.9727232,
        37.4056041
       ],
       [
        -121.9722051,
        37.4058287
       ],
       [
        -121.9721791,
        37.4058222
       ],
       [
        -121.9721387,
        37.4058376
       ],
       [
        -121.9719109,
        37.4058319
       ],
       [
        -121.9721007,
        37.4059774
       ],
       [
        -121.9730897,
        37.4074273
       ],
       [
        -121.973335,
        37.4073175
       ],
       [
        -121.9734135,
        37.4072973
       ],
       [
        -121.9738837,
        37.4070891
       ],
       [
        -121.9739618,
        37.4070678
       ],
       [
        -121.9741914,
        37.4069599
       ],
       [
        -121.9740904,
        37.4068179
       ],
       [
        -121.9740467,
        37.4067844
       ],
       [
        -121.9739951,
        37.4067212
       ],
       [
        -121.9739767,
        37.4067132
       ],
       [
        -121.9739353,
        37.4066594
       ],
       [
        -121.9739366,
        37.4066472
       ],
       [
        -121.9738568,
        37.4066209
       ],
       [
        -121.973834,
        37.4065878
       ],
       [
        -121.9738576,
        37.4065619
       ],
       [
        -121.9739406,
        37.4065241
       ],
       [
        -121.9739062,
        37.4064361
       ]
      ]
     ]
    ]
   }
  },
  {
   "type": "Feature",
   "properties": {
    "kind": "block",
    "block": "WF and WG",
    "label": "Blocks WF and WG",
    "stage": "entitled",
    "height_ft": 190,
    "podium_ft": null,
    "base_ft": 0,
    "use": "Mixed use: residential, office, hotel and retail",
    "phase": "Phase 2",
    "illustrative": true,
    "source": "illustrative: block outlined from Master Community Plan Scheme C Supplement (Santa Clara Resolution 25-9467, July 8, 2025), Exhibit 4C-1 (Scheme C), Parcel & Block Key Plan, p. 54; drawn to the project's 190-ft maximum (17 stories, measured from the finished grade of the on-site streets; CEQA Addendum 4 (Resolution 25-9465, July 8, 2025), PDF p. 16, note 2 (https://santaclara.legistar1.com/santaclara/attachments/595ea4c8-fb0f-4da1-bb99-eace63cf42ed.pdf)). The Parcel 4 guidelines (p. 59) expect towers of about 10-12 stories on 2-5-story podiums",
    "note": "Parcel 4. Towers are expected to be about 10-12 stories; 190 ft is the cap."
   },
   "geometry": {
    "type": "MultiPolygon",
    "coordinates": [
     [
      [
       [
        -121.9729394,
        37.407436
       ],
       [
        -121.9719563,
        37.4059989
       ],
       [
        -121.9693722,
        37.4071201
       ],
       [
        -121.9703541,
        37.4085583
       ],
       [
        -121.9729394,
        37.407436
       ]
      ]
     ]
    ]
   }
  },
  {
   "type": "Feature",
   "properties": {
    "kind": "block",
    "block": "WH",
    "label": "Block WH",
    "stage": "entitled",
    "height_ft": 190,
    "podium_ft": null,
    "base_ft": 0,
    "use": "Mixed use: residential, office, hotel and retail",
    "phase": "Phase 2",
    "illustrative": true,
    "source": "illustrative: block outlined from Master Community Plan Scheme C Supplement (Santa Clara Resolution 25-9467, July 8, 2025), Exhibit 4C-1 (Scheme C), Parcel & Block Key Plan, p. 54; drawn to the project's 190-ft maximum (17 stories, measured from the finished grade of the on-site streets; CEQA Addendum 4 (Resolution 25-9465, July 8, 2025), PDF p. 16, note 2 (https://santaclara.legistar1.com/santaclara/attachments/595ea4c8-fb0f-4da1-bb99-eace63cf42ed.pdf)). The Parcel 4 guidelines (p. 59) expect towers of about 10-12 stories on 2-5-story podiums",
    "note": "Parcel 4. Towers are expected to be about 10-12 stories; 190 ft is the cap."
   },
   "geometry": {
    "type": "MultiPolygon",
    "coordinates": [
     [
      [
       [
        -121.9702804,
        37.4085835
       ],
       [
        -121.9692806,
        37.4071187
       ],
       [
        -121.9686366,
        37.4074059
       ],
       [
        -121.9684195,
        37.4074886
       ],
       [
        -121.9694241,
        37.4089582
       ],
       [
        -121.9702804,
        37.4085835
       ]
      ]
     ]
    ]
   }
  },
  {
   "type": "Feature",
   "properties": {
    "kind": "block",
    "block": "WB",
    "label": "Block WB",
    "stage": "entitled",
    "height_ft": 190,
    "podium_ft": null,
    "base_ft": 0,
    "use": "Mixed use: residential, office, hotel and retail",
    "phase": "Phase 1",
    "illustrative": true,
    "source": "illustrative: block outlined from Master Community Plan Scheme C Supplement (Santa Clara Resolution 25-9467, July 8, 2025), Exhibit 4C-1 (Scheme C), Parcel & Block Key Plan, p. 54; drawn to the project's 190-ft maximum (17 stories, measured from the finished grade of the on-site streets; CEQA Addendum 4 (Resolution 25-9465, July 8, 2025), PDF p. 16, note 2 (https://santaclara.legistar1.com/santaclara/attachments/595ea4c8-fb0f-4da1-bb99-eace63cf42ed.pdf)). The Parcel 5 guidelines (p. 61) expect towers of about 10-12 stories on 2-5-story podiums",
    "note": "Parcel 5. Towers are expected to be about 10-12 stories; 190 ft is the cap."
   },
   "geometry": {
    "type": "MultiPolygon",
    "coordinates": [
     [
      [
       [
        -121.971866,
        37.4057089
       ],
       [
        -121.9717888,
        37.4056505
       ],
       [
        -121.9717324,
        37.4055633
       ],
       [
        -121.9716937,
        37.405545
       ],
       [
        -121.9716227,
        37.4054352
       ],
       [
        -121.9716047,
        37.4054339
       ],
       [
        -121.9715252,
        37.4053102
       ],
       [
        -121.9714938,
        37.4052872
       ],
       [
        -121.9714298,
        37.4051776
       ],
       [
        -121.9714111,
        37.405182
       ],
       [
        -121.971317,
        37.4050381
       ],
       [
        -121.9712872,
        37.4050338
       ],
       [
        -121.9712281,
        37.4049516
       ],
       [
        -121.9712127,
        37.404943
       ],
       [
        -121.9711672,
        37.4048694
       ],
       [
        -121.9711448,
        37.4048594
       ],
       [
        -121.9710693,
        37.4047598
       ],
       [
        -121.9708136,
        37.4048674
       ],
       [
        -121.9708073,
        37.404885
       ],
       [
        -121.9707398,
        37.4049104
       ],
       [
        -121.9707047,
        37.4049392
       ],
       [
        -121.9705303,
        37.4050136
       ],
       [
        -121.9705285,
        37.4050247
       ],
       [
        -121.9704586,
        37.4050544
       ],
       [
        -121.9704047,
        37.4050625
       ],
       [
        -121.9704047,
        37.4050862
       ],
       [
        -121.9702871,
        37.4051352
       ],
       [
        -121.9702513,
        37.4051706
       ],
       [
        -121.9701507,
        37.4052162
       ],
       [
        -121.9701497,
        37.4052253
       ],
       [
        -121.9698808,
        37.4053477
       ],
       [
        -121.9700063,
        37.405546
       ],
       [
        -121.9700391,
        37.4055697
       ],
       [
        -121.9702591,
        37.405863
       ],
       [
        -121.9702922,
        37.4058911
       ],
       [
        -121.9703231,
        37.4059443
       ],
       [
        -121.970358,
        37.4059709
       ],
       [
        -121.9704729,
        37.4061445
       ],
       [
        -121.9705078,
        37.4061752
       ],
       [
        -121.9705185,
        37.4062278
       ],
       [
        -121.9705457,
        37.4062233
       ],
       [
        -121.970559,
        37.4062695
       ],
       [
        -121.971866,
        37.4057089
       ]
      ]
     ]
    ]
   }
  },
  {
   "type": "Feature",
   "properties": {
    "kind": "block",
    "block": "WC/WD",
    "label": "Block WC/WD",
    "stage": "entitled",
    "height_ft": 190,
    "podium_ft": null,
    "base_ft": 0,
    "use": "Mixed use: residential, office, hotel and retail",
    "phase": "Phase 1",
    "illustrative": true,
    "source": "illustrative: block outlined from Master Community Plan Scheme C Supplement (Santa Clara Resolution 25-9467, July 8, 2025), Exhibit 4C-1 (Scheme C), Parcel & Block Key Plan, p. 54; drawn to the project's 190-ft maximum (17 stories, measured from the finished grade of the on-site streets; CEQA Addendum 4 (Resolution 25-9465, July 8, 2025), PDF p. 16, note 2 (https://santaclara.legistar1.com/santaclara/attachments/595ea4c8-fb0f-4da1-bb99-eace63cf42ed.pdf)). The Parcel 5 guidelines (p. 61) expect towers of about 10-12 stories on 2-5-story podiums",
    "note": "Parcel 5. Towers are expected to be about 10-12 stories; 190 ft is the cap."
   },
   "geometry": {
    "type": "MultiPolygon",
    "coordinates": [
     [
      [
       [
        -121.9704141,
        37.4063797
       ],
       [
        -121.970341,
        37.4063134
       ],
       [
        -121.969735,
        37.4054232
       ],
       [
        -121.9676819,
        37.4063136
       ],
       [
        -121.968291,
        37.4071967
       ],
       [
        -121.9683269,
        37.4072844
       ],
       [
        -121.9704141,
        37.4063797
       ]
      ]
     ]
    ]
   }
  }
 ]
}
