{"type":"FeatureCollection","properties":{"project":"sunnydale-hope-sf","illustrative":true,"summary":"Illustrative massing. The new buildings are drawn from their building permits: Parcel Q, Block 6, Blocks 3A and 3B and the community center are built, and Blocks 7 and 9 are under construction; Parcel Q's and Block 6's footprints are mapped, the others are drawn as their blocks, and every height is estimated from the permitted stories. The other 31 zones are drawn to the height limits of the adopted Design Standards and Guidelines (40, 50 and 60 ft, and fewer stories where the plan says so), not as building designs. The old public housing stays in the base map; streets and parks aren't drawn.","note":"Unbuilt blocks are drawn to their height limits, not as building designs.","sourceUrl":"https://sfplanning.s3.amazonaws.com/default/files/devagreements/HOPE-SF/Sunnydale/HOPE-SF_Sunnydale_Design_Controls_Guidelines.pdf","sourceLabel":"Design standards and guidelines, 2023 (PDF)","georeference":{"figure_7_4":{"scale_m_per_unit":1.34162,"rotation_deg":-19.61,"rms_m":1.53,"controls":[{"label":"Figure 7.4 property lines to the SUD boundary and DataSF parcel lines: trimmed RMS over the closest 80% of 1924 points","residual_m":1.53}],"method":"trimmed ICP","points":1924,"inlier_share":0.8,"median_m":1.42,"p90_m":6.12,"target":"Special Use District boundary and the lines of 29 DataSF parcels mapped since 2019 (6310003, 6310008, 6310009, 6310010, 6310011, 6310012, 6311009, 6311010, 6311014, 6311016, 6311017, 6311021, 6311022, 6311023, 6311024, 6311025, 6311026, 6311027, 6312007, 6312008, 6312009, 6312010, 6312011, 6313002, 6314002, 6314003, 6314004, 6374036, 6374037)","units":"metres per PDF point","lines":"coloured setback lines on the plan's outer edge and east of Block 14"},"figure_7_1_to_7_4":{"scale_m_per_unit":0.89587,"rotation_deg":0.247,"rms_m":0.89,"controls":[{"label":"Block 13, top-left","residual_m":0.45},{"label":"Block 1, top-right","residual_m":0.96},{"label":"Block 35, bottom-left","residual_m":0.78},{"label":"Block 8a, bottom-right","residual_m":1.21}],"units":"PDF points","use":"carries Figure 7.1's zones onto Figure 7.4 and its block numbers back"}},"sources":{"heights":"Sunnydale HOPE SF Design Standards and Guidelines (approved 2016, revised Sept 14, 2023), Figure 7.1, Building Height Diagram, p. 84 (PDF page 86); DSG 7.1.1","blocks":"Sunnydale HOPE SF Design Standards and Guidelines (approved 2016, revised Sept 14, 2023), Figure 7.4, Setback Diagram, p. 88","fit":"DataSF Parcels – Active and Retired (acdm-wktn) and the Special Use District boundary (DataSF 5yf5-ms5f, data/boundaries)","permits":"DataSF Building Permits (i98e-djp9): 201612225710, 201806202372, 202107124132, 202106031523, 202106031549, 202211146447, 202211297323","mohcd":"MOHCD Loan Committee, Sunnydale HOPE SF Block 9 loan evaluation (Jan 24, 2025), https://media.api.sf.gov/documents/Approved_Sunnydale_Block_9_Loan_Evaluation_-_LC_1-24-25.pdf (pp. 2, 34, 45)"},"license":"Zones traced from the DSG (SF Planning); parcels and permits from DataSF (ODC-PDDL / Public Domain); footprints OpenStreetMap contributors (ODbL 1.0), via Overture Maps."},"features":[{"type":"Feature","properties":{"block":"Q","label":"Parcel Q, 1491 Sunnydale Ave (Casala)","stage":"complete","base_ft":0,"podium_ft":null,"use":"Affordable housing, 55 homes","phase":null,"kind":"building","height_ft":60,"illustrative":true,"source":"illustrative: footprint from OpenStreetMap via Overture 2026-09-23.1 (OSM w1117317110@1); height estimated from 5 stories in DBI permit 201612225710 at 12.5 ft a story (DSG 7.1.1), capped at the block's 60-ft limit","note":"DBI permit 201612225710, complete 2020-02-20. Block: MOHCD's Block 9 loan evaluation lists Casala (55 units) (p. 34).","fid":1},"geometry":{"type":"MultiPolygon","coordinates":[[[[-122.4158937,37.7117932],[-122.4159242,37.7118017],[-122.4161202,37.7113621],[-122.4157067,37.7112468],[-122.4155926,37.7115025],[-122.4156103,37.7115074],[-122.4155318,37.7116834],[-122.4158972,37.7117854],[-122.4158937,37.7117932]]]]}},{"type":"Feature","properties":{"block":"6","label":"Block 6, 242 Hahn St (290 Malosi)","stage":"complete","base_ft":0,"podium_ft":null,"use":"Affordable housing, 167 homes","phase":null,"kind":"building","height_ft":50,"illustrative":true,"source":"illustrative: footprint from OpenStreetMap via Overture 2026-09-23.1 (OSM w1539016859@1); height estimated from 5 stories in DBI permit 201806202372 at 12.5 ft a story (DSG 7.1.1), capped at the block's 50-ft limit","note":"DBI permit 201806202372, complete 2022-06-24. Block: MOHCD's Block 9 loan evaluation lists 290 Malosi (167 units); Figure 7.4 numbers it 6a and 6b (p. 34).","fid":2},"geometry":{"type":"MultiPolygon","coordinates":[[[[-122.41766,37.7108098],[-122.4178634,37.7108681],[-122.4179584,37.7106453],[-122.4178925,37.7106241],[-122.417907,37.7105834],[-122.4179886,37.71061],[-122.4180623,37.7104199],[-122.41746,37.7102422],[-122.4174555,37.710259],[-122.4173795,37.7102439],[-122.4171862,37.7106701],[-122.417299,37.7106931],[-122.4172856,37.7107302],[-122.4175035,37.7107841],[-122.4174778,37.7108416],[-122.4176052,37.7108885],[-122.41766,37.7108098]]]]}},{"type":"Feature","properties":{"block":"1","label":"Block 1, community center, 1500 Sunnydale Ave","stage":"complete","base_ft":0,"podium_ft":null,"use":"Community center with childcare","phase":null,"kind":"block","height_ft":25,"illustrative":true,"source":"illustrative: the block's zone in Sunnydale HOPE SF Design Standards and Guidelines (approved 2016, revised Sept 14, 2023), Figure 7.1, Building Height Diagram, p. 84, standing in for the building's footprint, which OpenStreetMap doesn't map yet; height estimated from 2 stories in DBI permit 202107124132 at 12.5 ft a story (DSG 7.1.1)","note":"DBI permit 202107124132, complete 2024-10-15. Block: the permit's 2 stories matches Figure 7.1's \"2 STORIES\" on Block 1, the only 2-story block on the street. Drawn as its block: the building's own footprint isn't mapped yet.","fid":3},"geometry":{"type":"MultiPolygon","coordinates":[[[[-122.4171282,37.7123908],[-122.4160268,37.7120686],[-122.4158255,37.712503],[-122.4169269,37.7128251],[-122.4171282,37.7123908]]]]}},{"type":"Feature","properties":{"block":"3","label":"Blocks 3A and 3B, 1501 Sunnydale Ave","stage":"complete","base_ft":0,"podium_ft":null,"use":"Affordable housing, 170 homes (80 and 90), with retail and childcare","phase":null,"kind":"block","height_ft":60,"illustrative":true,"source":"illustrative: the block's zone in Sunnydale HOPE SF Design Standards and Guidelines (approved 2016, revised Sept 14, 2023), Figure 7.1, Building Height Diagram, p. 84, standing in for the building's footprint, which OpenStreetMap doesn't map yet; height estimated from 5 stories in DBI permits 202106031523 and 202106031549 at 12.5 ft a story (DSG 7.1.1), capped at the block's 60-ft limit","note":"DBI permits 202106031523 and 202106031549, complete 2025-04-28. Block: the permits name \"sunnydale block 3a\" and \"sunnydale block 3b\"; Figure 7.1 draws Block 3 as one zone. Drawn as its block: the building's own footprint isn't mapped yet.","fid":4},"geometry":{"type":"MultiPolygon","coordinates":[[[[-122.4175052,37.7116661],[-122.4163676,37.7113334],[-122.4161354,37.7118345],[-122.417273,37.7121672],[-122.4175052,37.7116661]]]]}},{"type":"Feature","properties":{"block":"9","label":"Block 9, 1652 Sunnydale Ave","stage":"construction","base_ft":0,"podium_ft":null,"use":"Affordable housing, 95 homes","phase":null,"kind":"block","height_ft":50,"illustrative":true,"source":"illustrative: the block's zone in Sunnydale HOPE SF Design Standards and Guidelines (approved 2016, revised Sept 14, 2023), Figure 7.1, Building Height Diagram, p. 84, standing in for the building's footprint, which OpenStreetMap doesn't map yet; height estimated from MOHCD's Jan 2025 loan evaluation: \"a total of 5 stories, 4-story wood over 1-story concrete podium\" (DBI's permit, issued Aug 2024, says 4 stories) at 12.5 ft a story (DSG 7.1.1), capped at the block's 50-ft limit","note":"DBI permit 202211146447, first construction document 2025-06-18. Block: MOHCD's Block 9 loan evaluation gives 1652 Sunnydale Avenue as Block 9's address (p. 2). Drawn as its block: the building's own footprint isn't mapped yet.","fid":5},"geometry":{"type":"MultiPolygon","coordinates":[[[[-122.41868,37.7128929],[-122.4178031,37.7126364],[-122.4176371,37.7129944],[-122.4185141,37.7132509],[-122.41868,37.7128929]]]]}},{"type":"Feature","properties":{"block":"7","label":"Block 7","stage":"construction","base_ft":0,"podium_ft":null,"use":"Affordable housing, 89 homes","phase":null,"kind":"block","height_ft":50,"illustrative":true,"source":"illustrative: the block's zone in Sunnydale HOPE SF Design Standards and Guidelines (approved 2016, revised Sept 14, 2023), Figure 7.1, Building Height Diagram, p. 84, standing in for the building's footprint, which OpenStreetMap doesn't map yet; height estimated from 5 stories in DBI permit 202211297323 at 12.5 ft a story (DSG 7.1.1), capped at the block's 50-ft limit","note":"DBI permit 202211297323, first construction document 2025-07-16. Block: MOHCD's Block 9 loan evaluation describes Block 7 as \"a 5-story, 89-unit\" project starting construction in mid-2025, matching this 89-unit, 5-story permit (p. 45). Drawn as its block: the building's own footprint isn't mapped yet.","fid":6},"geometry":{"type":"MultiPolygon","coordinates":[[[[-122.4185336,37.7112502],[-122.4188972,37.7106254],[-122.4183031,37.7104516],[-122.4180003,37.7111048],[-122.4185336,37.7112502]]]]}},{"type":"Feature","properties":{"kind":"block","block":"4","label":"Block 4","stage":"entitled","height_ft":12,"podium_ft":null,"base_ft":0,"use":null,"phase":null,"illustrative":true,"source":"illustrative: Sunnydale HOPE SF Design Standards and Guidelines (approved 2016, revised Sept 14, 2023), Figure 7.1, Building Height Diagram, p. 84 limits this zone to 1 story within a 40-ft height limit; drawn at 12 ft (1 × 12.5 ft a story, DSG 7.1.1)","note":"Height limit: 40 ft, and no more than 1 story. Drawn as an envelope, not a building design.","fid":7},"geometry":{"type":"MultiPolygon","coordinates":[[[[-122.4182645,37.7116686],[-122.4179063,37.7115638],[-122.4179657,37.7114357],[-122.4183239,37.7115405],[-122.4182645,37.7116686]]]]}},{"type":"Feature","properties":{"kind":"block","block":"5","label":"Block 5","stage":"entitled","height_ft":38,"podium_ft":null,"base_ft":0,"use":null,"phase":null,"illustrative":true,"source":"illustrative: Sunnydale HOPE SF Design Standards and Guidelines (approved 2016, revised Sept 14, 2023), Figure 7.1, Building Height Diagram, p. 84 limits this zone to 3 stories within a 40-ft height limit; drawn at 38 ft (3 × 12.5 ft a story, DSG 7.1.1)","note":"Height limit: 40 ft, and no more than 3 stories. Drawn as an envelope, not a building design.","fid":8},"geometry":{"type":"MultiPolygon","coordinates":[[[[-122.4170317,37.7107065],[-122.4167028,37.7106103],[-122.4168326,37.7103301],[-122.4171616,37.7104263],[-122.4170317,37.7107065]]]]}},{"type":"Feature","properties":{"kind":"block","block":"8","label":"Blocks 8A and 8B","stage":"entitled","height_ft":38,"podium_ft":null,"base_ft":0,"use":null,"phase":null,"illustrative":true,"source":"illustrative: Sunnydale HOPE SF Design Standards and Guidelines (approved 2016, revised Sept 14, 2023), Figure 7.1, Building Height Diagram, p. 84 limits this zone to 3 stories within a 40-ft height limit; drawn at 38 ft (3 × 12.5 ft a story, DSG 7.1.1)","note":"Height limit: 40 ft, and no more than 3 stories. Drawn as an envelope, not a building design.","fid":9},"geometry":{"type":"MultiPolygon","coordinates":[[[[-122.4189809,37.7104456],[-122.4174064,37.7099851],[-122.4176298,37.709503],[-122.4192043,37.7099635],[-122.4189809,37.7104456]]]]}},{"type":"Feature","properties":{"kind":"block","block":"10","label":"Block 10","stage":"entitled","height_ft":50,"podium_ft":null,"base_ft":0,"use":null,"phase":null,"illustrative":true,"source":"illustrative: drawn to the 50-ft height limit in Sunnydale HOPE SF Design Standards and Guidelines (approved 2016, revised Sept 14, 2023), Figure 7.1, Building Height Diagram, p. 84","note":"Height limit: 50 ft. Drawn as an envelope, not a building design.","fid":10},"geometry":{"type":"MultiPolygon","coordinates":[[[[-122.4187203,37.7133187],[-122.4188893,37.7129541],[-122.4195205,37.7131388],[-122.4193498,37.7135014],[-122.4187203,37.7133187]]]]}},{"type":"Feature","properties":{"kind":"block","block":"11","label":"Block 11","stage":"entitled","height_ft":50,"podium_ft":null,"base_ft":0,"use":null,"phase":null,"illustrative":true,"source":"illustrative: drawn to the 50-ft height limit in Sunnydale HOPE SF Design Standards and Guidelines (approved 2016, revised Sept 14, 2023), Figure 7.1, Building Height Diagram, p. 84","note":"Height limit: 50 ft. Drawn as an envelope, not a building design.","fid":11},"geometry":{"type":"MultiPolygon","coordinates":[[[[-122.4195468,37.7135591],[-122.4197177,37.7131902],[-122.4203532,37.7133761],[-122.4201818,37.7137434],[-122.4195468,37.7135591]]]]}},{"type":"Feature","properties":{"kind":"block","block":"12","label":"Block 12","stage":"entitled","height_ft":50,"podium_ft":null,"base_ft":0,"use":null,"phase":null,"illustrative":true,"source":"illustrative: drawn to the 50-ft height limit in Sunnydale HOPE SF Design Standards and Guidelines (approved 2016, revised Sept 14, 2023), Figure 7.1, Building Height Diagram, p. 84","note":"Height limit: 50 ft. Drawn as an envelope, not a building design.","fid":12},"geometry":{"type":"MultiPolygon","coordinates":[[[[-122.4210132,37.7139818],[-122.4203905,37.7137993],[-122.4205583,37.7134424],[-122.421178,37.7136262],[-122.4210132,37.7139818]]]]}},{"type":"Feature","properties":{"kind":"block","block":"13","label":"Block 13","stage":"entitled","height_ft":40,"podium_ft":null,"base_ft":0,"use":null,"phase":null,"illustrative":true,"source":"illustrative: drawn to the 40-ft height limit in Sunnydale HOPE SF Design Standards and Guidelines (approved 2016, revised Sept 14, 2023), Figure 7.1, Building Height Diagram, p. 84","note":"Height limit: 40 ft. Drawn as an envelope, not a building design.","fid":13},"geometry":{"type":"MultiPolygon","coordinates":[[[[-122.4217795,37.714206],[-122.42122,37.7140423],[-122.4213885,37.7136789],[-122.421948,37.7138425],[-122.4217795,37.714206]]]]}},{"type":"Feature","properties":{"kind":"block","block":"14","label":"Block 14","stage":"entitled","height_ft":50,"podium_ft":null,"base_ft":0,"use":null,"phase":null,"illustrative":true,"source":"illustrative: drawn to the 50-ft height limit in Sunnydale HOPE SF Design Standards and Guidelines (approved 2016, revised Sept 14, 2023), Figure 7.1, Building Height Diagram, p. 84","note":"Height limit: 50 ft. Drawn as an envelope, not a building design.","fid":14},"geometry":{"type":"MultiPolygon","coordinates":[[[[-122.418191,37.712439],[-122.4184716,37.7118394],[-122.4188908,37.7119471],[-122.4186057,37.7125603],[-122.418191,37.712439]]]]}},{"type":"Feature","properties":{"kind":"block","block":"14","label":"Block 14","stage":"entitled","height_ft":40,"podium_ft":null,"base_ft":0,"use":null,"phase":null,"illustrative":true,"source":"illustrative: drawn to the 40-ft height limit in Sunnydale HOPE SF Design Standards and Guidelines (approved 2016, revised Sept 14, 2023), Figure 7.1, Building Height Diagram, p. 84","note":"Height limit: 40 ft. Drawn as an envelope, not a building design.","fid":15},"geometry":{"type":"MultiPolygon","coordinates":[[[[-122.4186274,37.7125729],[-122.4189143,37.711954],[-122.4190977,37.7119966],[-122.418807,37.7126297],[-122.4186274,37.7125729]]]]}},{"type":"Feature","properties":{"kind":"block","block":"15","label":"Block 15","stage":"entitled","height_ft":40,"podium_ft":null,"base_ft":0,"use":null,"phase":null,"illustrative":true,"source":"illustrative: drawn to the 40-ft height limit in Sunnydale HOPE SF Design Standards and Guidelines (approved 2016, revised Sept 14, 2023), Figure 7.1, Building Height Diagram, p. 84","note":"Height limit: 40 ft. Drawn as an envelope, not a building design.","fid":16},"geometry":{"type":"MultiPolygon","coordinates":[[[[-122.4190039,37.7126868],[-122.419247,37.7121622],[-122.4198805,37.7123539],[-122.41964,37.7128728],[-122.4190039,37.7126868]]]]}},{"type":"Feature","properties":{"kind":"block","block":"16","label":"Block 16","stage":"entitled","height_ft":38,"podium_ft":null,"base_ft":0,"use":null,"phase":null,"illustrative":true,"source":"illustrative: Sunnydale HOPE SF Design Standards and Guidelines (approved 2016, revised Sept 14, 2023), Figure 7.1, Building Height Diagram, p. 84 limits this zone to 3 stories within a 40-ft height limit; drawn at 38 ft (3 × 12.5 ft a story, DSG 7.1.1)","note":"Height limit: 40 ft, and no more than 3 stories. Drawn as an envelope, not a building design.","fid":17},"geometry":{"type":"MultiPolygon","coordinates":[[[[-122.4192462,37.712164],[-122.4193124,37.7120211],[-122.4200057,37.7120839],[-122.4198805,37.7123539],[-122.4192462,37.712164]]]]}},{"type":"Feature","properties":{"kind":"block","block":"17","label":"Block 17","stage":"entitled","height_ft":50,"podium_ft":null,"base_ft":0,"use":null,"phase":null,"illustrative":true,"source":"illustrative: drawn to the 50-ft height limit in Sunnydale HOPE SF Design Standards and Guidelines (approved 2016, revised Sept 14, 2023), Figure 7.1, Building Height Diagram, p. 84","note":"Height limit: 50 ft. Drawn as an envelope, not a building design.","fid":18},"geometry":{"type":"MultiPolygon","coordinates":[[[[-122.4204674,37.7130985],[-122.4198447,37.7129163],[-122.42015,37.7122576],[-122.4207728,37.7124397],[-122.4204674,37.7130985]]]]}},{"type":"Feature","properties":{"kind":"block","block":"18","label":"Block 18","stage":"entitled","height_ft":38,"podium_ft":null,"base_ft":0,"use":null,"phase":null,"illustrative":true,"source":"illustrative: Sunnydale HOPE SF Design Standards and Guidelines (approved 2016, revised Sept 14, 2023), Figure 7.1, Building Height Diagram, p. 84 limits this zone to 3 stories within a 40-ft height limit; drawn at 38 ft (3 × 12.5 ft a story, DSG 7.1.1)","note":"Height limit: 40 ft, and no more than 3 stories. Drawn as an envelope, not a building design.","fid":19},"geometry":{"type":"MultiPolygon","coordinates":[[[[-122.4207802,37.7124267],[-122.4201562,37.7122442],[-122.4202431,37.7120567],[-122.4208671,37.7122392],[-122.4207802,37.7124267]]]]}},{"type":"Feature","properties":{"kind":"block","block":"19","label":"Block 19","stage":"entitled","height_ft":40,"podium_ft":null,"base_ft":0,"use":null,"phase":null,"illustrative":true,"source":"illustrative: drawn to the 40-ft height limit in Sunnydale HOPE SF Design Standards and Guidelines (approved 2016, revised Sept 14, 2023), Figure 7.1, Building Height Diagram, p. 84","note":"Height limit: 40 ft. Drawn as an envelope, not a building design.","fid":20},"geometry":{"type":"MultiPolygon","coordinates":[[[[-122.4213078,37.7133443],[-122.420673,37.7131586],[-122.4209783,37.7124998],[-122.4216131,37.7126855],[-122.4213078,37.7133443]]]]}},{"type":"Feature","properties":{"kind":"block","block":"20","label":"Block 20","stage":"entitled","height_ft":38,"podium_ft":null,"base_ft":0,"use":null,"phase":null,"illustrative":true,"source":"illustrative: Sunnydale HOPE SF Design Standards and Guidelines (approved 2016, revised Sept 14, 2023), Figure 7.1, Building Height Diagram, p. 84 limits this zone to 3 stories within a 40-ft height limit; drawn at 38 ft (3 × 12.5 ft a story, DSG 7.1.1)","note":"Height limit: 40 ft, and no more than 3 stories. Drawn as an envelope, not a building design.","fid":21},"geometry":{"type":"MultiPolygon","coordinates":[[[[-122.4216217,37.7126668],[-122.420987,37.7124812],[-122.4210769,37.7122872],[-122.4217116,37.7124729],[-122.4216217,37.7126668]]]]}},{"type":"Feature","properties":{"kind":"block","block":"21","label":"Block 21","stage":"entitled","height_ft":50,"podium_ft":null,"base_ft":0,"use":null,"phase":null,"illustrative":true,"source":"illustrative: drawn to the 50-ft height limit in Sunnydale HOPE SF Design Standards and Guidelines (approved 2016, revised Sept 14, 2023), Figure 7.1, Building Height Diagram, p. 84","note":"Height limit: 50 ft. Drawn as an envelope, not a building design.","fid":22},"geometry":{"type":"MultiPolygon","coordinates":[[[[-122.4219828,37.7135385],[-122.4215447,37.7134104],[-122.4218894,37.7126667],[-122.4223274,37.7127948],[-122.4219828,37.7135385]]]]}},{"type":"Feature","properties":{"kind":"block","block":"22A","label":"Block 22A","stage":"entitled","height_ft":40,"podium_ft":null,"base_ft":0,"use":null,"phase":null,"illustrative":true,"source":"illustrative: drawn to the 40-ft height limit in Sunnydale HOPE SF Design Standards and Guidelines (approved 2016, revised Sept 14, 2023), Figure 7.1, Building Height Diagram, p. 84","note":"Height limit: 40 ft. Drawn as an envelope, not a building design.","fid":23},"geometry":{"type":"MultiPolygon","coordinates":[[[[-122.4187452,37.7113459],[-122.4189489,37.7110661],[-122.4191526,37.7106974],[-122.4196116,37.7108317],[-122.4193004,37.7115083],[-122.4187452,37.7113459]]]]}},{"type":"Feature","properties":{"kind":"block","block":"22B","label":"Block 22B","stage":"entitled","height_ft":38,"podium_ft":null,"base_ft":0,"use":null,"phase":null,"illustrative":true,"source":"illustrative: Sunnydale HOPE SF Design Standards and Guidelines (approved 2016, revised Sept 14, 2023), Figure 7.1, Building Height Diagram, p. 84 limits this zone to 3 stories within a 40-ft height limit; drawn at 38 ft (3 × 12.5 ft a story, DSG 7.1.1)","note":"Height limit: 40 ft, and no more than 3 stories. Drawn as an envelope, not a building design.","fid":24},"geometry":{"type":"MultiPolygon","coordinates":[[[[-122.4184841,37.7116846],[-122.4186135,37.7115296],[-122.4187428,37.7113452],[-122.4192983,37.7115077],[-122.4191405,37.711851],[-122.4184841,37.7116846]]]]}},{"type":"Feature","properties":{"kind":"block","block":"23","label":"Block 23","stage":"entitled","height_ft":38,"podium_ft":null,"base_ft":0,"use":null,"phase":null,"illustrative":true,"source":"illustrative: Sunnydale HOPE SF Design Standards and Guidelines (approved 2016, revised Sept 14, 2023), Figure 7.1, Building Height Diagram, p. 84 limits this zone to 3 stories within a 40-ft height limit; drawn at 38 ft (3 × 12.5 ft a story, DSG 7.1.1)","note":"Height limit: 40 ft, and no more than 3 stories. Drawn as an envelope, not a building design.","fid":25},"geometry":{"type":"MultiPolygon","coordinates":[[[[-122.4193751,37.7118858],[-122.4195235,37.7115656],[-122.4201696,37.7117242],[-122.4200716,37.7119417],[-122.4193751,37.7118858]]]]}},{"type":"Feature","properties":{"kind":"block","block":"24","label":"Block 24","stage":"entitled","height_ft":40,"podium_ft":null,"base_ft":0,"use":null,"phase":null,"illustrative":true,"source":"illustrative: drawn to the 40-ft height limit in Sunnydale HOPE SF Design Standards and Guidelines (approved 2016, revised Sept 14, 2023), Figure 7.1, Building Height Diagram, p. 84","note":"Height limit: 40 ft. Drawn as an envelope, not a building design.","fid":26},"geometry":{"type":"MultiPolygon","coordinates":[[[[-122.4195235,37.7115656],[-122.419836,37.7108913],[-122.4204889,37.7110337],[-122.4201699,37.7117222],[-122.4195235,37.7115656]]]]}},{"type":"Feature","properties":{"kind":"block","block":"26","label":"Block 26","stage":"entitled","height_ft":38,"podium_ft":null,"base_ft":0,"use":null,"phase":null,"illustrative":true,"source":"illustrative: Sunnydale HOPE SF Design Standards and Guidelines (approved 2016, revised Sept 14, 2023), Figure 7.1, Building Height Diagram, p. 84 limits this zone to 3 stories within a 40-ft height limit; drawn at 38 ft (3 × 12.5 ft a story, DSG 7.1.1)","note":"Height limit: 40 ft, and no more than 3 stories. Drawn as an envelope, not a building design.","fid":27},"geometry":{"type":"MultiPolygon","coordinates":[[[[-122.4210107,37.7118968],[-122.4204155,37.7117228],[-122.4205147,37.7115089],[-122.4211098,37.7116829],[-122.4210107,37.7118968]]]]}},{"type":"Feature","properties":{"kind":"block","block":"27","label":"Block 27","stage":"entitled","height_ft":50,"podium_ft":null,"base_ft":0,"use":null,"phase":null,"illustrative":true,"source":"illustrative: drawn to the 50-ft height limit in Sunnydale HOPE SF Design Standards and Guidelines (approved 2016, revised Sept 14, 2023), Figure 7.1, Building Height Diagram, p. 84","note":"Height limit: 50 ft. Drawn as an envelope, not a building design.","fid":28},"geometry":{"type":"MultiPolygon","coordinates":[[[[-122.4205112,37.7114974],[-122.420709,37.7110706],[-122.4213383,37.7112193],[-122.4211261,37.7116772],[-122.4205112,37.7114974]]]]}},{"type":"Feature","properties":{"kind":"block","block":"28","label":"Block 28","stage":"entitled","height_ft":38,"podium_ft":null,"base_ft":0,"use":null,"phase":null,"illustrative":true,"source":"illustrative: Sunnydale HOPE SF Design Standards and Guidelines (approved 2016, revised Sept 14, 2023), Figure 7.1, Building Height Diagram, p. 84 limits this zone to 3 stories within a 40-ft height limit; drawn at 38 ft (3 × 12.5 ft a story, DSG 7.1.1)","note":"Height limit: 40 ft, and no more than 3 stories. Drawn as an envelope, not a building design.","fid":29},"geometry":{"type":"MultiPolygon","coordinates":[[[[-122.4217774,37.712331],[-122.4211567,37.7121495],[-122.4212558,37.7119356],[-122.4218765,37.7121171],[-122.4217774,37.712331]]]]}},{"type":"Feature","properties":{"kind":"block","block":"29","label":"Block 29","stage":"entitled","height_ft":40,"podium_ft":null,"base_ft":0,"use":null,"phase":null,"illustrative":true,"source":"illustrative: drawn to the 40-ft height limit in Sunnydale HOPE SF Design Standards and Guidelines (approved 2016, revised Sept 14, 2023), Figure 7.1, Building Height Diagram, p. 84","note":"Height limit: 40 ft. Drawn as an envelope, not a building design.","fid":30},"geometry":{"type":"MultiPolygon","coordinates":[[[[-122.4218761,37.7121179],[-122.4212555,37.7119364],[-122.4215582,37.711283],[-122.4221789,37.7114645],[-122.4218761,37.7121179]]]]}},{"type":"Feature","properties":{"kind":"block","block":"30","label":"Block 30","stage":"entitled","height_ft":25,"podium_ft":null,"base_ft":0,"use":null,"phase":null,"illustrative":true,"source":"illustrative: Sunnydale HOPE SF Design Standards and Guidelines (approved 2016, revised Sept 14, 2023), Figure 7.1, Building Height Diagram, p. 84 limits this zone to 2 stories within a 40-ft height limit; drawn at 25 ft (2 × 12.5 ft a story, DSG 7.1.1)","note":"Height limit: 40 ft, and no more than 2 stories. Drawn as an envelope, not a building design.","fid":31},"geometry":{"type":"MultiPolygon","coordinates":[[[[-122.4222658,37.712525],[-122.4220368,37.712458],[-122.4220851,37.7123535],[-122.4223142,37.7124205],[-122.4222658,37.712525]]]]}},{"type":"Feature","properties":{"kind":"block","block":"31","label":"Block 31","stage":"entitled","height_ft":50,"podium_ft":null,"base_ft":0,"use":null,"phase":null,"illustrative":true,"source":"illustrative: drawn to the 50-ft height limit in Sunnydale HOPE SF Design Standards and Guidelines (approved 2016, revised Sept 14, 2023), Figure 7.1, Building Height Diagram, p. 84","note":"Height limit: 50 ft. Drawn as an envelope, not a building design.","fid":32},"geometry":{"type":"MultiPolygon","coordinates":[[[[-122.4224146,37.7115334],[-122.4227728,37.7116382],[-122.4224625,37.7123078],[-122.4221043,37.712203],[-122.4224146,37.7115334]]]]}},{"type":"Feature","properties":{"kind":"block","block":"32","label":"Block 32","stage":"entitled","height_ft":40,"podium_ft":null,"base_ft":0,"use":null,"phase":null,"illustrative":true,"source":"illustrative: drawn to the 40-ft height limit in Sunnydale HOPE SF Design Standards and Guidelines (approved 2016, revised Sept 14, 2023), Figure 7.1, Building Height Diagram, p. 84","note":"Height limit: 40 ft. Drawn as an envelope, not a building design.","fid":33},"geometry":{"type":"MultiPolygon","coordinates":[[[[-122.4199187,37.7107199],[-122.4192874,37.7105352],[-122.4194822,37.7101148],[-122.4201135,37.7102995],[-122.4199187,37.7107199]]]]}},{"type":"Feature","properties":{"kind":"block","block":"33","label":"Block 33","stage":"entitled","height_ft":40,"podium_ft":null,"base_ft":0,"use":null,"phase":null,"illustrative":true,"source":"illustrative: drawn to the 40-ft height limit in Sunnydale HOPE SF Design Standards and Guidelines (approved 2016, revised Sept 14, 2023), Figure 7.1, Building Height Diagram, p. 84","note":"Height limit: 40 ft. Drawn as an envelope, not a building design.","fid":34},"geometry":{"type":"MultiPolygon","coordinates":[[[[-122.420644,37.7108724],[-122.4200852,37.710709],[-122.4202641,37.710323],[-122.4208228,37.7104865],[-122.420644,37.7108724]]]]}},{"type":"Feature","properties":{"kind":"block","block":"34","label":"Block 34","stage":"entitled","height_ft":40,"podium_ft":null,"base_ft":0,"use":null,"phase":null,"illustrative":true,"source":"illustrative: drawn to the 40-ft height limit in Sunnydale HOPE SF Design Standards and Guidelines (approved 2016, revised Sept 14, 2023), Figure 7.1, Building Height Diagram, p. 84","note":"Height limit: 40 ft. Drawn as an envelope, not a building design.","fid":35},"geometry":{"type":"MultiPolygon","coordinates":[[[[-122.4214078,37.7110109],[-122.4208352,37.7108435],[-122.4209794,37.7105323],[-122.421552,37.7106997],[-122.4214078,37.7110109]]]]}},{"type":"Feature","properties":{"kind":"block","block":"35","label":"Block 35","stage":"entitled","height_ft":40,"podium_ft":null,"base_ft":0,"use":null,"phase":null,"illustrative":true,"source":"illustrative: drawn to the 40-ft height limit in Sunnydale HOPE SF Design Standards and Guidelines (approved 2016, revised Sept 14, 2023), Figure 7.1, Building Height Diagram, p. 84","note":"Height limit: 40 ft. Drawn as an envelope, not a building design.","fid":36},"geometry":{"type":"MultiPolygon","coordinates":[[[[-122.4222455,37.7112559],[-122.4216726,37.7110884],[-122.4218168,37.7107772],[-122.4223897,37.7109447],[-122.4222455,37.7112559]]]]}},{"type":"Feature","properties":{"kind":"block","block":"36","label":"Block 36","stage":"entitled","height_ft":50,"podium_ft":null,"base_ft":0,"use":null,"phase":null,"illustrative":true,"source":"illustrative: drawn to the 50-ft height limit in Sunnydale HOPE SF Design Standards and Guidelines (approved 2016, revised Sept 14, 2023), Figure 7.1, Building Height Diagram, p. 84","note":"Height limit: 50 ft. Drawn as an envelope, not a building design.","fid":37},"geometry":{"type":"MultiPolygon","coordinates":[[[[-122.4225252,37.7113638],[-122.4226759,37.7110385],[-122.4230341,37.7111432],[-122.4228825,37.711467],[-122.4225252,37.7113638]]]]}}]}
