{
 "type": "FeatureCollection",
 "properties": {
  "project": "the-rise",
  "illustrative": true,
  "summary": "Illustrative massing from the plan set Cupertino approved in February 2024: each block's podium, the buildings above it and its towers, traced from the plans and extruded to the heights in the approved building sections: podiums of 27 to 43 ft, townhouses of 30 ft, residential buildings of 80 to 133 ft, residential towers of 166 and 200 ft and office towers of 186 to 228 ft. Each piece is drawn to its tallest point; real buildings step. Block 13 is an outline only: the 2026 modification cut the project's office space by exactly Block 13's amount, and its new plans aren't published. Nothing has been built yet.",
  "note": "Drawn from the 2024 approved plans to each piece's tallest point; the 2026 changes aren't published.",
  "sourceUrl": "https://apps.cupertino.org/pdf/Attachment%20A%20-%20Approved%20Plans.pdf",
  "sourceLabel": "Approved plans, 2024 (PDF)",
  "georeference": {
   "street_level_plan": {
    "scale_m_per_unit": 0.2702,
    "rotation_deg": -88.518,
    "rms_m": 0.32,
    "controls": [
     {
      "label": "P-0800.01 existing property line vs Santa Clara County parcels 316-20-121/122: trimmed RMS over the closest 80% of 6292 points",
      "residual_m": 0.32
     }
    ],
    "method": "trimmed ICP",
    "points": 6292,
    "inlier_share": 0.8,
    "median_m": 0.26,
    "p90_m": 5.87,
    "nominal_scale_m_per_unit": 0.27093
   },
   "check_against_site": {
    "massing_m2": 107605,
    "outside_site_m2": 1810,
    "outside_site_share": 0.0168
   },
   "overture_buildings_on_site": 5
  },
  "documents": {
   "approved_plans": {
    "title": "The Rise SB 35 modification, Attachment A - Approved Plans (approved Feb 16, 2024)",
    "url": "https://apps.cupertino.org/pdf/Attachment%20A%20-%20Approved%20Plans.pdf",
    "sha256": "a062268d82d44200142ec5e838799bab93b994fd4366a686a096eb67cb7885a7",
    "pages": "P-0101 (PDF p. 2): block uses; P-0800.01/.05/.06 (pp. 78, 82, 83): footprints; P-0800.24 (p. 84): block numbers; P-0831/P-0832 (pp. 89-90): heights"
   },
   "approval_letter": {
    "url": "https://legistar.granicus.com/cupertino/attachments/61c2b68e-c1ce-44ee-9a66-55f5ebbc08e0.pdf",
    "pages": "p. 1: approves the plan set in Attachment A; p. 13: no height limits apply"
   },
   "third_modification": {
    "url": "https://legistar.granicus.com/cupertino/attachments/4e3bbad6-3215-4bd4-a4ea-ca168b6a8332.pdf",
    "finding": "Recital 4: up to 1,474,946 sq ft of office (2024 plans: 1,954,613, of which Block 13 479,667). The Feb 27, 2026 plans are not published."
   },
   "block_5": {
    "url": "https://legistar.granicus.com/cupertino/attachments/a48ffc4f-a6db-4f2c-a12c-c966dfb6dfbf.pdf",
    "finding": "Block 5 apartments: 234 affordable units with Eden Housing."
   }
  },
  "license": "Building shapes and heights from public City of Cupertino documents; placed on Santa Clara County parcel boundaries (county open data)."
 },
 "features": [
  {
   "type": "Feature",
   "properties": {
    "kind": "building",
    "block": "1",
    "label": "Block 1 podium",
    "stage": "entitled",
    "height_ft": 36.67,
    "podium_ft": null,
    "base_ft": 0,
    "use": "parking, retail, lobbies",
    "phase": null,
    "illustrative": true,
    "source": "illustrative: footprint traced from The Rise SB 35 modification, Attachment A - Approved Plans (approved Feb 16, 2024), sheet P-0800.01 (PDF p. 78); height to its tallest point from P-0831 (PDF p. 89), section 2 (Perimeter Way): level 3 deck 232'-2\" over average grade 195'-6\""
   },
   "geometry": {"type":"MultiPolygon","coordinates":[[[[-122.01711,37.323583],[-122.017115,37.323628],[-122.017103,37.323629],[-122.017102,37.323707],[-122.017092,37.323707],[-122.017083,37.323769],[-122.016359,37.323777],[-122.016353,37.323773],[-122.016339,37.323778],[-122.015971,37.323782],[-122.015969,37.323764],[-122.015883,37.323765],[-122.015882,37.323617],[-122.015861,37.323613],[-122.015861,37.323571],[-122.015881,37.323567],[-122.015881,37.32355],[-122.015797,37.32355],[-122.015798,37.323523],[-122.01586,37.323522],[-122.015859,37.323497],[-122.015879,37.323492],[-122.015879,37.32347],[-122.015859,37.323466],[-122.015858,37.323425],[-122.015878,37.323423],[-122.015878,37.323396],[-122.01579,37.323396],[-122.015792,37.32332],[-122.015863,37.32332],[-122.015864,37.323389],[-122.015896,37.323387],[-122.015901,37.32337],[-122.015952,37.32337],[-122.015958,37.323386],[-122.015987,37.323385],[-122.015992,37.323369],[-122.016044,37.323369],[-122.016049,37.323385],[-122.016079,37.323384],[-122.016084,37.323368],[-122.016135,37.323367],[-122.016139,37.323384],[-122.01617,37.323383],[-122.016175,37.323367],[-122.016225,37.323366],[-122.01623,37.323382],[-122.0163,37.323382],[-122.016305,37.323365],[-122.016345,37.323365],[-122.016345,37.323314],[-122.016377,37.323315],[-122.016378,37.323381],[-122.016412,37.32338],[-122.016417,37.323364],[-122.016468,37.323363],[-122.016474,37.323379],[-122.016503,37.323379],[-122.016508,37.323363],[-122.01656,37.323362],[-122.016565,37.323378],[-122.016638,37.323377],[-122.016643,37.323361],[-122.016682,37.323361],[-122.016679,37.323219],[-122.016672,37.323214],[-122.01664,37.323214],[-122.016634,37.323198],[-122.016493,37.3232],[-122.016488,37.323216],[-122.016436,37.323217],[-122.016431,37.323201],[-122.016357,37.323201],[-122.016352,37.323218],[-122.016304,37.323218],[-122.016301,37.323202],[-122.016204,37.323203],[-122.016199,37.32322],[-122.016152,37.32322],[-122.016148,37.323204],[-122.016076,37.323205],[-122.016071,37.323221],[-122.016022,37.323222],[-122.016016,37.323206],[-122.01592,37.323207],[-122.015917,37.323223],[-122.015865,37.323224],[-122.01586,37.323208],[-122.015694,37.32321],[-122.015689,37.323226],[-122.015648,37.323226],[-122.01565,37.323352],[-122.01567,37.323356],[-122.015671,37.323397],[-122.015651,37.323402],[-122.015651,37.323425],[-122.015672,37.323428],[-122.015673,37.323469],[-122.015652,37.323473],[-122.015653,37.323497],[-122.015673,37.323501],[-122.015674,37.323542],[-122.015654,37.323545],[-122.015654,37.32357],[-122.015675,37.323574],[-122.015675,37.323615],[-122.015655,37.323619],[-122.015657,37.323708],[-122.015677,37.323712],[-122.015678,37.323743],[-122.015777,37.323742],[-122.015777,37.323755],[-122.015645,37.323754],[-122.015636,37.323199],[-122.015884,37.323196],[-122.015891,37.3232],[-122.01596,37.323195],[-122.01688,37.323183],[-122.016886,37.323156],[-122.017002,37.323154],[-122.017002,37.323164],[-122.017047,37.323165],[-122.017048,37.323206],[-122.01716,37.323216],[-122.01711,37.323583]],[[-122.017125,37.323261],[-122.017127,37.323224],[-122.016967,37.323209],[-122.016944,37.323209],[-122.016941,37.32324],[-122.016919,37.323243],[-122.016895,37.323412],[-122.016968,37.323416],[-122.016969,37.323443],[-122.01691,37.323441],[-122.016909,37.323463],[-122.016884,37.323466],[-122.016879,37.323521],[-122.016896,37.323525],[-122.016894,37.323554],[-122.016891,37.323567],[-122.016868,37.323569],[-122.016868,37.323587],[-122.016944,37.323587],[-122.016944,37.323646],[-122.016849,37.323647],[-122.016847,37.323579],[-122.016801,37.323579],[-122.016796,37.323595],[-122.016745,37.323596],[-122.016739,37.32358],[-122.01671,37.32358],[-122.016705,37.323597],[-122.016653,37.323597],[-122.016648,37.323581],[-122.016622,37.323581],[-122.016617,37.323598],[-122.016568,37.323598],[-122.01656,37.323582],[-122.016486,37.323583],[-122.016483,37.323599],[-122.016442,37.3236],[-122.016443,37.323649],[-122.016408,37.323652],[-122.016406,37.323584],[-122.016372,37.323584],[-122.016367,37.323601],[-122.016318,37.323601],[-122.016312,37.323585],[-122.016287,37.323586],[-122.016282,37.323602],[-122.016234,37.323602],[-122.016229,37.323586],[-122.016157,37.323587],[-122.016152,37.323603],[-122.016112,37.323604],[-122.016115,37.323752],[-122.016155,37.323752],[-122.01616,37.323768],[-122.016275,37.323767],[-122.01628,37.32375],[-122.016332,37.32375],[-122.016337,37.323766],[-122.016365,37.323766],[-122.016367,37.323749],[-122.016419,37.323749],[-122.016425,37.323765],[-122.016456,37.323764],[-122.016461,37.323748],[-122.016513,37.323748],[-122.016516,37.323764],[-122.016586,37.323763],[-122.016591,37.323747],[-122.016643,37.323746],[-122.016646,37.323762],[-122.016678,37.323762],[-122.016682,37.323745],[-122.016734,37.323745],[-122.01674,37.323761],[-122.016765,37.323761],[-122.01677,37.323744],[-122.016821,37.323744],[-122.016827,37.32376],[-122.016856,37.32376],[-122.016859,37.323743],[-122.016913,37.323743],[-122.016916,37.323759],[-122.016993,37.323758],[-122.016996,37.323742],[-122.017069,37.323741],[-122.017077,37.323727],[-122.017088,37.323637],[-122.017088,37.323619],[-122.017075,37.323611],[-122.017076,37.323569],[-122.017099,37.323567],[-122.017098,37.323543],[-122.017084,37.323541],[-122.017084,37.323514],[-122.017088,37.323495],[-122.01711,37.323495],[-122.017109,37.323475],[-122.017095,37.323467],[-122.017096,37.323425],[-122.01712,37.323423],[-122.01712,37.323398],[-122.017106,37.323394],[-122.017105,37.323373],[-122.017107,37.323353],[-122.017131,37.32335],[-122.017142,37.323281],[-122.017142,37.323263],[-122.017125,37.323261]]]]}
  },
  {
   "type": "Feature",
   "properties": {
    "kind": "building",
    "block": "1",
    "label": "Block 1 residential",
    "stage": "entitled",
    "height_ft": 80.5,
    "podium_ft": null,
    "base_ft": 0,
    "use": "residential",
    "phase": null,
    "illustrative": true,
    "source": "illustrative: footprint traced from The Rise SB 35 modification, Attachment A - Approved Plans (approved Feb 16, 2024), sheet P-0800.05 (PDF p. 82); height to its tallest point from P-0831 (PDF p. 89), section 2: total height 80'-6\""
   },
   "geometry": {"type":"MultiPolygon","coordinates":[[[[-122.01668,37.323359],[-122.016642,37.32336],[-122.016636,37.323376],[-122.016567,37.323377],[-122.016563,37.323361],[-122.016504,37.323362],[-122.016502,37.323378],[-122.016476,37.323378],[-122.016469,37.323362],[-122.016412,37.323363],[-122.01641,37.323379],[-122.01638,37.323379],[-122.016379,37.323313],[-122.016342,37.323313],[-122.016343,37.323364],[-122.016304,37.323364],[-122.016297,37.32338],[-122.016234,37.323381],[-122.016225,37.323365],[-122.016176,37.323366],[-122.016169,37.323382],[-122.016142,37.323382],[-122.016134,37.323366],[-122.016083,37.323367],[-122.016077,37.323383],[-122.016051,37.323383],[-122.016048,37.323367],[-122.015987,37.323368],[-122.015986,37.323384],[-122.015959,37.323385],[-122.015957,37.323368],[-122.015902,37.323369],[-122.015894,37.323385],[-122.015876,37.323387],[-122.015877,37.32342],[-122.015856,37.323422],[-122.015857,37.32347],[-122.015878,37.323472],[-122.015878,37.323491],[-122.015858,37.323496],[-122.015858,37.323521],[-122.015795,37.323521],[-122.015796,37.323552],[-122.015879,37.323551],[-122.015879,37.323566],[-122.015859,37.323573],[-122.01586,37.323612],[-122.01588,37.323618],[-122.015882,37.323704],[-122.015862,37.323706],[-122.015862,37.32374],[-122.015679,37.323742],[-122.015679,37.323711],[-122.015658,37.323707],[-122.015657,37.323621],[-122.015677,37.323614],[-122.015676,37.323575],[-122.015656,37.323569],[-122.015655,37.323547],[-122.015676,37.323541],[-122.015675,37.3235],[-122.015654,37.323494],[-122.015654,37.323476],[-122.015674,37.323473],[-122.015673,37.323429],[-122.015653,37.323422],[-122.015653,37.323403],[-122.015673,37.323396],[-122.015672,37.323356],[-122.015652,37.323351],[-122.015651,37.323228],[-122.015694,37.323227],[-122.015696,37.323211],[-122.015856,37.323209],[-122.015865,37.323225],[-122.015915,37.323224],[-122.015923,37.323208],[-122.016013,37.323207],[-122.016021,37.323223],[-122.016076,37.323222],[-122.01608,37.323206],[-122.016143,37.323205],[-122.016147,37.323222],[-122.0162,37.323221],[-122.016208,37.323205],[-122.016295,37.323203],[-122.0163,37.32322],[-122.016352,37.323219],[-122.01636,37.323203],[-122.016429,37.323202],[-122.016432,37.323218],[-122.016493,37.323217],[-122.016496,37.323201],[-122.016631,37.323199],[-122.016639,37.323215],[-122.016678,37.323217],[-122.01668,37.323359]],[[-122.015787,37.323318],[-122.015789,37.323398],[-122.015866,37.323397],[-122.015864,37.323318],[-122.015787,37.323318]]],[[[-122.01713,37.323347],[-122.017105,37.323354],[-122.017104,37.323398],[-122.017118,37.323399],[-122.017119,37.323421],[-122.017094,37.323423],[-122.017093,37.323471],[-122.017108,37.323473],[-122.017108,37.323492],[-122.017086,37.323494],[-122.017082,37.323514],[-122.017083,37.323543],[-122.017097,37.323544],[-122.017097,37.323564],[-122.017075,37.323571],[-122.017074,37.323614],[-122.017086,37.323616],[-122.017086,37.323637],[-122.017072,37.323739],[-122.016997,37.32374],[-122.016989,37.323757],[-122.01692,37.323758],[-122.016912,37.323741],[-122.016861,37.323742],[-122.016853,37.323758],[-122.016829,37.323759],[-122.016826,37.323742],[-122.016765,37.323743],[-122.016763,37.323759],[-122.016741,37.32376],[-122.016735,37.323744],[-122.016678,37.323744],[-122.016676,37.323761],[-122.01665,37.323761],[-122.016641,37.323745],[-122.01659,37.323745],[-122.016583,37.323762],[-122.01652,37.323762],[-122.016511,37.323746],[-122.01646,37.323747],[-122.016452,37.323763],[-122.016428,37.323764],[-122.016424,37.323747],[-122.016363,37.323748],[-122.016363,37.323764],[-122.016339,37.323765],[-122.016336,37.323749],[-122.016275,37.323749],[-122.016274,37.323766],[-122.016164,37.323767],[-122.016159,37.323751],[-122.016117,37.323751],[-122.016114,37.323605],[-122.016157,37.323605],[-122.01616,37.323588],[-122.016227,37.323587],[-122.01623,37.323604],[-122.016287,37.323603],[-122.016288,37.323587],[-122.016311,37.323586],[-122.016313,37.323603],[-122.016372,37.323602],[-122.016374,37.323586],[-122.016404,37.323585],[-122.016406,37.323653],[-122.016444,37.323653],[-122.016443,37.323603],[-122.016488,37.323601],[-122.01649,37.323584],[-122.016559,37.323583],[-122.016567,37.3236],[-122.016616,37.323599],[-122.016624,37.323583],[-122.016646,37.323582],[-122.016649,37.323599],[-122.01671,37.323598],[-122.016711,37.323582],[-122.016738,37.323581],[-122.01674,37.323597],[-122.016801,37.323597],[-122.016803,37.32358],[-122.016845,37.32358],[-122.016847,37.323648],[-122.016946,37.323647],[-122.016945,37.323585],[-122.01687,37.323586],[-122.016872,37.32357],[-122.016888,37.32357],[-122.016896,37.323555],[-122.016897,37.323521],[-122.016881,37.323519],[-122.016886,37.323469],[-122.01691,37.323462],[-122.016912,37.323443],[-122.016971,37.323445],[-122.01697,37.323414],[-122.016897,37.32341],[-122.01692,37.323244],[-122.016942,37.323239],[-122.016948,37.32321],[-122.017123,37.323226],[-122.017124,37.323263],[-122.01714,37.323264],[-122.01713,37.323347]]]]}
  },
  {
   "type": "Feature",
   "properties": {
    "kind": "building",
    "block": "2",
    "label": "Block 2 podium",
    "stage": "entitled",
    "height_ft": 30.08,
    "podium_ft": null,
    "base_ft": 0,
    "use": "parking, retail, lobbies",
    "phase": null,
    "illustrative": true,
    "source": "illustrative: footprint traced from The Rise SB 35 modification, Attachment A - Approved Plans (approved Feb 16, 2024), sheet P-0800.01 (PDF p. 78); height to its tallest point from P-0831 (PDF p. 89), section 1 (Wolfe Road): level 4 deck 223'-7\" over average grade 193'-6\""
   },
   "geometry": {"type":"MultiPolygon","coordinates":[[[[-122.015432,37.324073],[-122.015399,37.324075],[-122.015401,37.324148],[-122.015387,37.324166],[-122.015373,37.324171],[-122.014574,37.324178],[-122.014565,37.323725],[-122.014585,37.323725],[-122.014581,37.323522],[-122.014603,37.3235],[-122.01464,37.323498],[-122.014638,37.323404],[-122.014599,37.323403],[-122.014579,37.323382],[-122.014575,37.323218],[-122.014585,37.323202],[-122.014601,37.323195],[-122.015164,37.323188],[-122.015164,37.323159],[-122.01531,37.323159],[-122.01531,37.323168],[-122.015331,37.323168],[-122.015331,37.323159],[-122.01542,37.323159],[-122.015421,37.323191],[-122.015437,37.323206],[-122.015452,37.324055],[-122.015432,37.324073]],[[-122.015339,37.323998],[-122.015334,37.323977],[-122.015058,37.323981],[-122.015055,37.323997],[-122.015006,37.323998],[-122.015,37.323981],[-122.014975,37.323982],[-122.01497,37.323998],[-122.014925,37.323999],[-122.014919,37.323982],[-122.014894,37.323983],[-122.014889,37.323999],[-122.014837,37.324],[-122.014836,37.323977],[-122.014813,37.323975],[-122.014812,37.323933],[-122.014835,37.323929],[-122.014831,37.323844],[-122.014811,37.323843],[-122.01481,37.323799],[-122.01483,37.323796],[-122.01483,37.323771],[-122.014809,37.323768],[-122.014808,37.323726],[-122.014829,37.323723],[-122.014827,37.323641],[-122.014807,37.323639],[-122.014806,37.323596],[-122.014826,37.323591],[-122.014825,37.323535],[-122.014781,37.323536],[-122.014776,37.323513],[-122.014624,37.323515],[-122.014625,37.323548],[-122.014597,37.323553],[-122.014596,37.323646],[-122.014619,37.32365],[-122.01462,37.323691],[-122.014597,37.323696],[-122.014598,37.323719],[-122.01462,37.323723],[-122.014621,37.323764],[-122.014599,37.323769],[-122.014599,37.323792],[-122.014622,37.323795],[-122.014622,37.323837],[-122.0146,37.32384],[-122.014601,37.323865],[-122.014623,37.323868],[-122.014624,37.323907],[-122.014602,37.323912],[-122.014602,37.323935],[-122.014624,37.323937],[-122.014625,37.32398],[-122.014603,37.323985],[-122.014603,37.324002],[-122.014626,37.324006],[-122.014627,37.324052],[-122.014606,37.324053],[-122.014608,37.324146],[-122.014652,37.324146],[-122.014655,37.324168],[-122.014771,37.324167],[-122.014783,37.324149],[-122.014831,37.324148],[-122.014834,37.324166],[-122.014862,37.324166],[-122.014864,37.324149],[-122.014914,37.324147],[-122.014917,37.324163],[-122.014943,37.324163],[-122.014946,37.324147],[-122.014995,37.324148],[-122.014999,37.324162],[-122.015008,37.324164],[-122.01503,37.324164],[-122.015035,37.324146],[-122.015087,37.324145],[-122.015092,37.324163],[-122.015162,37.324162],[-122.015167,37.324146],[-122.015217,37.324143],[-122.015229,37.324161],[-122.015337,37.32416],[-122.015342,37.324137],[-122.015386,37.324137],[-122.015383,37.323999],[-122.015339,37.323998]],[[-122.015412,37.323716],[-122.015411,37.323673],[-122.015431,37.32367],[-122.015431,37.323645],[-122.015411,37.323641],[-122.01541,37.3236],[-122.01543,37.323591],[-122.01543,37.323572],[-122.015409,37.323569],[-122.015408,37.323527],[-122.015429,37.323524],[-122.015428,37.3235],[-122.015408,37.323496],[-122.015407,37.323455],[-122.015427,37.323451],[-122.015427,37.323427],[-122.015406,37.323425],[-122.015406,37.323382],[-122.015426,37.323379],[-122.015425,37.323356],[-122.015405,37.323352],[-122.015404,37.323312],[-122.015425,37.323311],[-122.015423,37.323218],[-122.015379,37.323218],[-122.015374,37.323197],[-122.015253,37.323199],[-122.01525,37.323215],[-122.0152,37.323216],[-122.015195,37.3232],[-122.015169,37.3232],[-122.015164,37.323216],[-122.015117,37.323217],[-122.015111,37.323201],[-122.015091,37.323201],[-122.015081,37.323217],[-122.015031,37.323218],[-122.015028,37.323202],[-122.014996,37.323202],[-122.014992,37.323218],[-122.01494,37.323219],[-122.014937,37.323203],[-122.014868,37.323204],[-122.014864,37.32322],[-122.014812,37.323221],[-122.014806,37.323204],[-122.014694,37.323206],[-122.014689,37.323227],[-122.014645,37.323227],[-122.014648,37.323365],[-122.014691,37.323364],[-122.014697,37.323385],[-122.014968,37.323382],[-122.014973,37.323365],[-122.015021,37.323365],[-122.015024,37.323381],[-122.015052,37.323381],[-122.015057,37.323364],[-122.015104,37.323364],[-122.01511,37.323383],[-122.015135,37.323383],[-122.01514,37.323363],[-122.01519,37.323363],[-122.015195,37.323382],[-122.015218,37.323383],[-122.015218,37.323424],[-122.015198,37.323428],[-122.0152,37.32352],[-122.01522,37.323521],[-122.015221,37.323565],[-122.015201,37.32357],[-122.015201,37.323593],[-122.015222,37.323597],[-122.015222,37.323638],[-122.015202,37.323641],[-122.015204,37.323723],[-122.015224,37.323727],[-122.015225,37.323768],[-122.015205,37.323773],[-122.015206,37.32383],[-122.015249,37.32383],[-122.015253,37.323851],[-122.015406,37.323849],[-122.015406,37.323816],[-122.015434,37.323811],[-122.015432,37.323718],[-122.015412,37.323716]]]]}
  },
  {
   "type": "Feature",
   "properties": {
    "kind": "building",
    "block": "2",
    "label": "Block 2 residential",
    "stage": "entitled",
    "height_ft": 84.5,
    "podium_ft": null,
    "base_ft": 0,
    "use": "residential",
    "phase": null,
    "illustrative": true,
    "source": "illustrative: footprint traced from The Rise SB 35 modification, Attachment A - Approved Plans (approved Feb 16, 2024), sheet P-0800.05 (PDF p. 82); height to its tallest point from P-0831 (PDF p. 89), sections 1 and 5: total height 84'-6\""
   },
   "geometry": {"type":"MultiPolygon","coordinates":[[[[-122.015384,37.324135],[-122.015343,37.324136],[-122.015334,37.324159],[-122.01523,37.32416],[-122.015222,37.324142],[-122.015179,37.324143],[-122.015161,37.324149],[-122.015159,37.324161],[-122.015098,37.324162],[-122.015085,37.324144],[-122.01503,37.324145],[-122.015027,37.324162],[-122.015,37.324161],[-122.014994,37.324147],[-122.014947,37.324146],[-122.014941,37.324162],[-122.014919,37.324162],[-122.014913,37.324146],[-122.014866,37.324148],[-122.014858,37.324165],[-122.01484,37.324165],[-122.014833,37.324147],[-122.014782,37.324148],[-122.014771,37.324166],[-122.014659,37.324167],[-122.014656,37.324144],[-122.014612,37.324145],[-122.014608,37.324057],[-122.014628,37.324054],[-122.014627,37.324005],[-122.014605,37.324],[-122.014604,37.323986],[-122.014627,37.323984],[-122.014626,37.323935],[-122.014603,37.323934],[-122.014603,37.323913],[-122.014625,37.323908],[-122.014625,37.323869],[-122.014602,37.323862],[-122.014602,37.323841],[-122.014624,37.323841],[-122.014623,37.323796],[-122.014601,37.323791],[-122.0146,37.32377],[-122.014623,37.323765],[-122.014622,37.323724],[-122.014599,37.323718],[-122.014599,37.323697],[-122.014621,37.323695],[-122.01462,37.323646],[-122.014598,37.323645],[-122.014598,37.323556],[-122.014627,37.323549],[-122.014626,37.323518],[-122.014774,37.323514],[-122.014777,37.323537],[-122.014824,37.323538],[-122.014825,37.323589],[-122.014804,37.323592],[-122.014805,37.323637],[-122.014826,37.323644],[-122.014827,37.32372],[-122.014807,37.323727],[-122.014808,37.323767],[-122.014828,37.323774],[-122.014828,37.323793],[-122.014808,37.323795],[-122.014809,37.323845],[-122.01483,37.323847],[-122.014833,37.323928],[-122.014811,37.32393],[-122.014812,37.323978],[-122.014834,37.323978],[-122.014835,37.324001],[-122.014889,37.324],[-122.014895,37.323984],[-122.014918,37.323984],[-122.014926,37.324],[-122.014971,37.323999],[-122.014979,37.323983],[-122.014999,37.323983],[-122.015007,37.323999],[-122.015054,37.323998],[-122.015062,37.323982],[-122.015332,37.323978],[-122.015335,37.324],[-122.015381,37.324001],[-122.015384,37.324135]]],[[[-122.01541,37.323674],[-122.01541,37.323714],[-122.015431,37.323719],[-122.015433,37.32381],[-122.015404,37.323815],[-122.015405,37.323848],[-122.015257,37.32385],[-122.015254,37.323828],[-122.015209,37.323829],[-122.015206,37.323774],[-122.015227,37.323769],[-122.015226,37.323723],[-122.015205,37.323722],[-122.015204,37.323642],[-122.015224,37.323637],[-122.015223,37.323593],[-122.015203,37.323592],[-122.015202,37.323571],[-122.015223,37.323569],[-122.015222,37.323519],[-122.015201,37.323517],[-122.0152,37.32343],[-122.01522,37.323428],[-122.015219,37.323381],[-122.015199,37.323381],[-122.015194,37.323362],[-122.015135,37.323362],[-122.015132,37.323382],[-122.015111,37.323382],[-122.015109,37.323363],[-122.015052,37.323363],[-122.01505,37.32338],[-122.015028,37.32338],[-122.015019,37.323364],[-122.014969,37.323364],[-122.014967,37.323381],[-122.014699,37.323384],[-122.014696,37.323363],[-122.014649,37.323362],[-122.014647,37.32323],[-122.014689,37.323228],[-122.014695,37.323207],[-122.014805,37.323206],[-122.014807,37.323222],[-122.014868,37.323221],[-122.01487,37.323205],[-122.014933,37.323204],[-122.014941,37.32322],[-122.014996,37.323219],[-122.014998,37.323203],[-122.015024,37.323203],[-122.015033,37.323219],[-122.015086,37.323218],[-122.015087,37.323202],[-122.01511,37.323202],[-122.015116,37.323218],[-122.015169,37.323217],[-122.015171,37.323201],[-122.015193,37.323201],[-122.015196,37.323217],[-122.015248,37.323216],[-122.015254,37.3232],[-122.01537,37.323199],[-122.015374,37.32322],[-122.015421,37.323221],[-122.015423,37.323308],[-122.015403,37.32331],[-122.015404,37.323356],[-122.015424,37.323357],[-122.015424,37.323377],[-122.015404,37.323383],[-122.015405,37.323424],[-122.015425,37.323429],[-122.015426,37.32345],[-122.015405,37.323451],[-122.015406,37.3235],[-122.015427,37.323502],[-122.015427,37.323521],[-122.015407,37.323528],[-122.015408,37.323568],[-122.015428,37.323575],[-122.015428,37.323594],[-122.015408,37.323596],[-122.015409,37.323645],[-122.01543,37.323646],[-122.015428,37.323667],[-122.01541,37.323674]]]]}
  },
  {
   "type": "Feature",
   "properties": {
    "kind": "building",
    "block": "3",
    "label": "Block 3 podium",
    "stage": "entitled",
    "height_ft": 26.92,
    "podium_ft": null,
    "base_ft": 0,
    "use": "parking, retail, lobbies",
    "phase": null,
    "illustrative": true,
    "source": "illustrative: footprint traced from The Rise SB 35 modification, Attachment A - Approved Plans (approved Feb 16, 2024), sheet P-0800.01 (PDF p. 78); height to its tallest point from P-0831 (PDF p. 89), section 6: level 3 deck 221'-5\" over average grade 194'-6\""
   },
   "geometry": {"type":"MultiPolygon","coordinates":[[[[-122.017245,37.324669],[-122.017094,37.324671],[-122.017084,37.32466],[-122.017013,37.324661],[-122.017003,37.324672],[-122.016753,37.324672],[-122.016739,37.323971],[-122.01677,37.323969],[-122.016778,37.323961],[-122.016865,37.32396],[-122.016867,37.323968],[-122.0169,37.323967],[-122.016899,37.323959],[-122.016969,37.323958],[-122.016969,37.323965],[-122.01702,37.323966],[-122.017139,37.323958],[-122.017158,37.323966],[-122.017163,37.324122],[-122.017238,37.324125],[-122.017245,37.324669]],[[-122.017058,37.324469],[-122.017051,37.324487],[-122.017006,37.324488],[-122.017001,37.32448],[-122.016999,37.324403],[-122.016977,37.324399],[-122.016976,37.324357],[-122.016998,37.324352],[-122.016998,37.324327],[-122.016975,37.324323],[-122.016974,37.32428],[-122.016997,37.324276],[-122.016996,37.324251],[-122.016974,37.324247],[-122.016973,37.324202],[-122.016995,37.3242],[-122.016993,37.324111],[-122.016971,37.324107],[-122.01697,37.324063],[-122.016992,37.324058],[-122.016992,37.32403],[-122.016969,37.324026],[-122.016968,37.323978],[-122.016776,37.323981],[-122.016777,37.324028],[-122.016755,37.324033],[-122.016756,37.32409],[-122.016779,37.324094],[-122.016779,37.324137],[-122.016755,37.324147],[-122.016756,37.324167],[-122.01678,37.324171],[-122.016781,37.324215],[-122.016759,37.324223],[-122.016759,37.324245],[-122.016782,37.324247],[-122.016782,37.324291],[-122.016758,37.324301],[-122.016759,37.324319],[-122.016783,37.324323],[-122.016784,37.324368],[-122.016762,37.324372],[-122.016762,37.324397],[-122.016784,37.324399],[-122.016785,37.324442],[-122.016763,37.324447],[-122.016765,37.324569],[-122.016788,37.324573],[-122.01679,37.324662],[-122.01686,37.324661],[-122.016859,37.324616],[-122.016893,37.324615],[-122.016895,37.324642],[-122.016945,37.324642],[-122.01695,37.32466],[-122.017118,37.324658],[-122.017114,37.324468],[-122.017058,37.324469]]]]}
  },
  {
   "type": "Feature",
   "properties": {
    "kind": "building",
    "block": "3",
    "label": "Block 3 residential",
    "stage": "entitled",
    "height_ft": 84.5,
    "podium_ft": null,
    "base_ft": 0,
    "use": "residential",
    "phase": null,
    "illustrative": true,
    "source": "illustrative: footprint traced from The Rise SB 35 modification, Attachment A - Approved Plans (approved Feb 16, 2024), sheet P-0800.05 (PDF p. 82); height to its tallest point from P-0831 (PDF p. 89), sections 2 and 6: total height 84'-6\""
   },
   "geometry": {"type":"MultiPolygon","coordinates":[[[[-122.017113,37.32447],[-122.017116,37.324656],[-122.016952,37.324658],[-122.016949,37.324641],[-122.016896,37.32464],[-122.016896,37.324614],[-122.016857,37.324614],[-122.016856,37.32466],[-122.016791,37.32466],[-122.016789,37.324569],[-122.016767,37.324568],[-122.016765,37.324448],[-122.016787,37.324443],[-122.016786,37.324401],[-122.016764,37.324396],[-122.016763,37.324373],[-122.016785,37.324366],[-122.016785,37.324324],[-122.016762,37.324318],[-122.01676,37.324302],[-122.016784,37.324295],[-122.016783,37.324243],[-122.016761,37.324243],[-122.01676,37.324221],[-122.016782,37.324214],[-122.016782,37.324167],[-122.016759,37.324165],[-122.016757,37.324148],[-122.016781,37.324138],[-122.01678,37.324091],[-122.016758,37.324089],[-122.016757,37.324034],[-122.016779,37.324029],[-122.016782,37.323982],[-122.016967,37.323981],[-122.016968,37.32403],[-122.01699,37.324031],[-122.016991,37.324057],[-122.016969,37.324064],[-122.01697,37.324111],[-122.016992,37.324112],[-122.016994,37.324197],[-122.016971,37.324203],[-122.016972,37.324251],[-122.016995,37.324252],[-122.016995,37.324275],[-122.016973,37.324277],[-122.016974,37.324327],[-122.016996,37.324328],[-122.016997,37.324351],[-122.016974,37.324356],[-122.016975,37.3244],[-122.016998,37.324404],[-122.017001,37.324489],[-122.017052,37.324488],[-122.01706,37.324472],[-122.017113,37.32447]]]]}
  },
  {
   "type": "Feature",
   "properties": {
    "kind": "building",
    "block": "4",
    "label": "Block 4 podium",
    "stage": "entitled",
    "height_ft": 43.42,
    "podium_ft": null,
    "base_ft": 0,
    "use": "parking, retail, lobbies",
    "phase": null,
    "illustrative": true,
    "source": "illustrative: footprint traced from The Rise SB 35 modification, Attachment A - Approved Plans (approved Feb 16, 2024), sheet P-0800.01 (PDF p. 78); height to its tallest point from P-0831 (PDF p. 89), section 3 (Street B): level 5 deck 235'-11\" over average grade 192'-6\""
   },
   "geometry": {"type":"MultiPolygon","coordinates":[[[[-122.016552,37.325441],[-122.016538,37.325446],[-122.016335,37.325449],[-122.016331,37.325242],[-122.016101,37.325245],[-122.016101,37.325451],[-122.015725,37.325455],[-122.015708,37.324471],[-122.01637,37.324463],[-122.016376,37.324531],[-122.016518,37.324529],[-122.016537,37.324535],[-122.016545,37.324637],[-122.016538,37.324637],[-122.016539,37.324681],[-122.016529,37.324683],[-122.016547,37.325081],[-122.016537,37.325082],[-122.016542,37.325323],[-122.016558,37.325334],[-122.016559,37.325368],[-122.016553,37.325368],[-122.016552,37.325441]],[[-122.016263,37.324557],[-122.01621,37.324556],[-122.016198,37.324546],[-122.0161,37.324544],[-122.016068,37.324545],[-122.016059,37.324559],[-122.015989,37.32456],[-122.015979,37.324546],[-122.015934,37.324546],[-122.015829,37.324551],[-122.015815,37.324562],[-122.01572,37.324565],[-122.015721,37.324697],[-122.015737,37.324703],[-122.015738,37.324751],[-122.015722,37.324753],[-122.015722,37.324779],[-122.015739,37.324784],[-122.01574,37.324843],[-122.015724,37.324849],[-122.015725,37.324922],[-122.015741,37.324927],[-122.015743,37.324985],[-122.015726,37.324992],[-122.015728,37.325061],[-122.015744,37.325068],[-122.015745,37.325126],[-122.015729,37.325132],[-122.01573,37.325171],[-122.015733,37.325222],[-122.015747,37.325227],[-122.015748,37.325277],[-122.015734,37.325283],[-122.015736,37.325389],[-122.015751,37.325395],[-122.015756,37.325442],[-122.01598,37.32544],[-122.015981,37.325387],[-122.015995,37.325386],[-122.015992,37.325221],[-122.015978,37.325214],[-122.015977,37.325158],[-122.015991,37.32515],[-122.015994,37.325116],[-122.015994,37.325083],[-122.015975,37.325076],[-122.015974,37.32502],[-122.015992,37.325012],[-122.015991,37.324973],[-122.015986,37.324911],[-122.015972,37.324904],[-122.015971,37.324845],[-122.015985,37.324839],[-122.015984,37.32481],[-122.01597,37.324808],[-122.015969,37.324749],[-122.016078,37.324743],[-122.016089,37.324755],[-122.016194,37.324753],[-122.01621,37.324742],[-122.016272,37.324741],[-122.016272,37.324564],[-122.016263,37.324557]]]]}
  },
  {
   "type": "Feature",
   "properties": {
    "kind": "building",
    "block": "4",
    "label": "Block 4 residential",
    "stage": "entitled",
    "height_ft": 133.42,
    "podium_ft": null,
    "base_ft": 0,
    "use": "residential",
    "phase": null,
    "illustrative": true,
    "source": "illustrative: footprint traced from The Rise SB 35 modification, Attachment A - Approved Plans (approved Feb 16, 2024), sheet P-0800.05 (PDF p. 82); height to its tallest point from P-0831 (PDF p. 89), section 6: roof 325'-11\" over average grade 192'-6\" (no total-height dimension); the building steps from 3 to 12 storeys",
    "note": "Steps up from 3 to 12 storeys; drawn to its top."
   },
   "geometry": {"type":"MultiPolygon","coordinates":[[[[-122.01627,37.32474],[-122.016209,37.324741],[-122.016193,37.324752],[-122.016089,37.324753],[-122.016077,37.324742],[-122.015981,37.324743],[-122.015983,37.324838],[-122.015969,37.324843],[-122.01597,37.324872],[-122.015984,37.324881],[-122.015989,37.324928],[-122.015991,37.32501],[-122.015976,37.325011],[-122.015973,37.32502],[-122.015977,37.325045],[-122.015991,37.325045],[-122.015989,37.325149],[-122.015979,37.325149],[-122.015975,37.325158],[-122.015976,37.325183],[-122.01598,37.325192],[-122.01599,37.325191],[-122.015994,37.325385],[-122.01598,37.325385],[-122.015979,37.325438],[-122.015757,37.325441],[-122.015752,37.325394],[-122.015738,37.325386],[-122.015736,37.325286],[-122.01575,37.325276],[-122.015749,37.325227],[-122.015734,37.325219],[-122.015731,37.32517],[-122.015731,37.325133],[-122.015747,37.325125],[-122.015746,37.325068],[-122.015729,37.32506],[-122.015728,37.324993],[-122.015744,37.324985],[-122.015743,37.324927],[-122.015727,37.32492],[-122.015725,37.32485],[-122.015739,37.32485],[-122.015741,37.324844],[-122.01574,37.324784],[-122.015724,37.324777],[-122.015723,37.324755],[-122.01574,37.32475],[-122.015739,37.324703],[-122.015736,37.324696],[-122.015722,37.324696],[-122.015722,37.324568],[-122.015817,37.324564],[-122.015825,37.324552],[-122.015933,37.324548],[-122.015976,37.324547],[-122.015978,37.324558],[-122.015988,37.324561],[-122.016059,37.324561],[-122.016069,37.324557],[-122.016069,37.324546],[-122.0161,37.324545],[-122.016201,37.324547],[-122.01621,37.324557],[-122.016267,37.324558],[-122.01627,37.32474]]]]}
  },
  {
   "type": "Feature",
   "properties": {
    "kind": "building",
    "block": "5",
    "label": "Block 5 podium",
    "stage": "entitled",
    "height_ft": 31.0,
    "podium_ft": null,
    "base_ft": 0,
    "use": "parking, retail, lobbies",
    "phase": null,
    "illustrative": true,
    "source": "illustrative: footprint traced from The Rise SB 35 modification, Attachment A - Approved Plans (approved Feb 16, 2024), sheet P-0800.01 (PDF p. 78); height to its tallest point from P-0831 (PDF p. 89), section 1: level 4 amenity deck 219'-6\" over average grade 188'-6\"",
    "note": "Block 5 holds the 234-unit affordable apartments (174 very low-income, 58 low-income, 2 managers) for which the city held a bond-financing (TEFRA) hearing in 2026."
   },
   "geometry": {"type":"MultiPolygon","coordinates":[[[[-122.014707,37.325422],[-122.014702,37.32535],[-122.014596,37.325352],[-122.014595,37.32529],[-122.014611,37.325285],[-122.014611,37.325264],[-122.014595,37.325262],[-122.014593,37.325205],[-122.01461,37.3252],[-122.014609,37.325186],[-122.014593,37.325181],[-122.014577,37.324356],[-122.015459,37.324349],[-122.015463,37.324535],[-122.0154,37.324538],[-122.0154,37.324552],[-122.015441,37.324552],[-122.015443,37.32468],[-122.015466,37.324683],[-122.015478,37.32541],[-122.014707,37.325422]],[[-122.014999,37.324365],[-122.015,37.324432],[-122.014963,37.324433],[-122.014961,37.324365],[-122.014612,37.324369],[-122.014619,37.324692],[-122.01471,37.324695],[-122.014714,37.324812],[-122.014621,37.324817],[-122.014624,37.324946],[-122.014709,37.324946],[-122.014708,37.324974],[-122.014624,37.324975],[-122.014627,37.325125],[-122.014813,37.325123],[-122.014801,37.324517],[-122.015224,37.324509],[-122.015221,37.324362],[-122.014999,37.324365]],[[-122.015143,37.324833],[-122.015146,37.324807],[-122.01523,37.324806],[-122.015226,37.324633],[-122.01504,37.324635],[-122.01505,37.325256],[-122.014713,37.325261],[-122.014716,37.32541],[-122.0148,37.325409],[-122.0148,37.32534],[-122.014835,37.325341],[-122.014836,37.325408],[-122.015241,37.325403],[-122.01523,37.324834],[-122.015143,37.324833]]]]}
  },
  {
   "type": "Feature",
   "properties": {
    "kind": "building",
    "block": "5",
    "label": "Block 5 residential",
    "stage": "entitled",
    "height_ft": 85.0,
    "podium_ft": null,
    "base_ft": 0,
    "use": "residential",
    "phase": null,
    "illustrative": true,
    "source": "illustrative: footprint traced from The Rise SB 35 modification, Attachment A - Approved Plans (approved Feb 16, 2024), sheet P-0800.05 (PDF p. 82); height to its tallest point from P-0831 (PDF p. 89), sections 1 and 6: total height 85'-0\"",
    "note": "Block 5 holds the 234-unit affordable apartments (174 very low-income, 58 low-income, 2 managers) for which the city held a bond-financing (TEFRA) hearing in 2026."
   },
   "geometry": {"type":"MultiPolygon","coordinates":[[[[-122.01522,37.324363],[-122.015222,37.324506],[-122.0148,37.324514],[-122.014811,37.325122],[-122.014631,37.325124],[-122.014626,37.324976],[-122.014711,37.324975],[-122.01471,37.324944],[-122.014625,37.324945],[-122.014623,37.32482],[-122.014716,37.324813],[-122.014714,37.324697],[-122.014706,37.324689],[-122.01462,37.324689],[-122.014614,37.324372],[-122.01496,37.324366],[-122.014961,37.324434],[-122.015001,37.324434],[-122.015,37.324366],[-122.01522,37.324363]]],[[[-122.015141,37.324837],[-122.015229,37.324835],[-122.01524,37.3254],[-122.014837,37.325407],[-122.014836,37.325339],[-122.014797,37.325339],[-122.014799,37.325407],[-122.014719,37.325408],[-122.014715,37.325262],[-122.015052,37.325258],[-122.015042,37.324636],[-122.015225,37.324634],[-122.015228,37.324805],[-122.015143,37.324806],[-122.015141,37.324837]]]]}
  },
  {
   "type": "Feature",
   "properties": {
    "kind": "building",
    "block": "6",
    "label": "Block 6 townhouses",
    "stage": "entitled",
    "height_ft": 29.92,
    "podium_ft": null,
    "base_ft": 0,
    "use": "residential",
    "phase": null,
    "illustrative": true,
    "source": "illustrative: footprint traced from The Rise SB 35 modification, Attachment A - Approved Plans (approved Feb 16, 2024), sheet P-0800.01 (PDF p. 78); height to its tallest point from P-0831 (PDF p. 89), section 7: townhouse roof 216'-11\" over their ground floor 187'-0\" (no average grade is printed)"
   },
   "geometry": {"type":"MultiPolygon","coordinates":[[[[-122.017234,37.325148],[-122.01704,37.325151],[-122.017039,37.325162],[-122.016972,37.325163],[-122.016969,37.325152],[-122.016945,37.325152],[-122.016939,37.325162],[-122.016878,37.325163],[-122.016878,37.325153],[-122.01686,37.325153],[-122.01686,37.325166],[-122.016819,37.325167],[-122.016807,37.325154],[-122.01675,37.325154],[-122.016749,37.325116],[-122.016741,37.325116],[-122.016747,37.325025],[-122.017231,37.325022],[-122.017238,37.32508],[-122.017239,37.325121],[-122.017233,37.325121],[-122.017234,37.325148]]],[[[-122.017229,37.324924],[-122.016745,37.324932],[-122.016743,37.324791],[-122.016816,37.32479],[-122.016816,37.324801],[-122.016869,37.324801],[-122.016869,37.324789],[-122.016914,37.324789],[-122.016926,37.324792],[-122.016926,37.3248],[-122.017021,37.324799],[-122.017021,37.324787],[-122.017115,37.324786],[-122.017115,37.324798],[-122.017168,37.324797],[-122.01717,37.324786],[-122.017227,37.324785],[-122.017227,37.32483],[-122.017238,37.32483],[-122.017238,37.324868],[-122.01723,37.324868],[-122.017229,37.324924]]],[[[-122.017244,37.325788],[-122.016762,37.325796],[-122.016762,37.325775],[-122.016754,37.325775],[-122.016753,37.325744],[-122.016761,37.325744],[-122.01676,37.325663],[-122.016851,37.325666],[-122.016851,37.325655],[-122.016979,37.32566],[-122.016979,37.325653],[-122.01715,37.325659],[-122.01715,37.325651],[-122.017203,37.325651],[-122.017205,37.325657],[-122.017243,37.325657],[-122.017244,37.325788]]],[[[-122.017236,37.325356],[-122.016754,37.325365],[-122.016751,37.325236],[-122.016806,37.325235],[-122.016808,37.32522],[-122.016845,37.32522],[-122.016853,37.325221],[-122.016853,37.325234],[-122.016969,37.325233],[-122.016969,37.325222],[-122.017011,37.325221],[-122.017012,37.325232],[-122.017235,37.32523],[-122.017236,37.325356]]],[[[-122.017196,37.326019],[-122.017196,37.326027],[-122.017155,37.326028],[-122.017155,37.326017],[-122.017053,37.326019],[-122.017053,37.326029],[-122.016988,37.32603],[-122.016988,37.32602],[-122.016878,37.326022],[-122.016879,37.326031],[-122.016836,37.326032],[-122.016836,37.326025],[-122.016821,37.326022],[-122.016767,37.326023],[-122.016765,37.32594],[-122.016757,37.32594],[-122.016756,37.325908],[-122.016764,37.325908],[-122.016764,37.325893],[-122.017246,37.325889],[-122.017252,37.326017],[-122.017196,37.326019]]],[[[-122.017259,37.326447],[-122.016944,37.326453],[-122.016938,37.326498],[-122.016902,37.326499],[-122.016901,37.326452],[-122.016775,37.326453],[-122.016765,37.326361],[-122.016773,37.326361],[-122.016772,37.326327],[-122.017254,37.326321],[-122.017259,37.326447]]],[[[-122.017254,37.326222],[-122.016771,37.326228],[-122.016768,37.326103],[-122.017252,37.326097],[-122.017254,37.326222]]],[[[-122.017242,37.325585],[-122.01713,37.325582],[-122.01713,37.325587],[-122.017047,37.325588],[-122.017045,37.325596],[-122.016998,37.325596],[-122.016998,37.325588],[-122.016884,37.325593],[-122.016884,37.325585],[-122.016858,37.325585],[-122.016855,37.32546],[-122.01724,37.325455],[-122.017242,37.325585]]]]}
  },
  {
   "type": "Feature",
   "properties": {
    "kind": "building",
    "block": "7",
    "label": "Block 7 podium",
    "stage": "entitled",
    "height_ft": 36.25,
    "podium_ft": null,
    "base_ft": 0,
    "use": "parking, retail, lobbies",
    "phase": null,
    "illustrative": true,
    "source": "illustrative: footprint traced from The Rise SB 35 modification, Attachment A - Approved Plans (approved Feb 16, 2024), sheet P-0800.01 (PDF p. 78); height to its tallest point from P-0831 (PDF p. 89), sections 3 and 7: level 4 deck 225'-9\" over average grade 189'-6\""
   },
   "geometry": {"type":"MultiPolygon","coordinates":[[[[-122.015966,37.326384],[-122.015962,37.326148],[-122.015984,37.326148],[-122.015984,37.326122],[-122.015961,37.326119],[-122.01596,37.326041],[-122.015968,37.326041],[-122.015967,37.32602],[-122.015959,37.326013],[-122.015956,37.325658],[-122.016515,37.325646],[-122.016515,37.325651],[-122.016556,37.325652],[-122.016559,37.325701],[-122.016565,37.325701],[-122.016565,37.32599],[-122.016571,37.32599],[-122.01657,37.326376],[-122.015966,37.326384]],[[-122.016378,37.326245],[-122.016377,37.326185],[-122.01637,37.326179],[-122.016194,37.326177],[-122.016193,37.326118],[-122.016219,37.326114],[-122.016218,37.326093],[-122.016192,37.32609],[-122.016191,37.326045],[-122.016217,37.326042],[-122.016211,37.325907],[-122.016188,37.325905],[-122.016188,37.32586],[-122.01621,37.325857],[-122.016209,37.325834],[-122.016187,37.325832],[-122.016186,37.325785],[-122.016208,37.325783],[-122.016206,37.325684],[-122.016157,37.325685],[-122.016151,37.325667],[-122.01599,37.325669],[-122.01599,37.325709],[-122.015968,37.325713],[-122.015969,37.325769],[-122.015992,37.325773],[-122.015993,37.325818],[-122.015966,37.325821],[-122.015967,37.325846],[-122.015993,37.32585],[-122.015994,37.325894],[-122.015968,37.325898],[-122.015968,37.325924],[-122.015995,37.325926],[-122.015995,37.32597],[-122.015969,37.325975],[-122.01597,37.326],[-122.015996,37.326002],[-122.015997,37.326047],[-122.015971,37.326051],[-122.015972,37.326112],[-122.015998,37.326113],[-122.015999,37.326159],[-122.015973,37.326161],[-122.015973,37.326187],[-122.016,37.32619],[-122.016001,37.326235],[-122.015978,37.326238],[-122.015981,37.326357],[-122.016028,37.326356],[-122.016034,37.326374],[-122.016153,37.326374],[-122.016156,37.326355],[-122.016213,37.326354],[-122.016217,37.326372],[-122.016352,37.32637],[-122.016357,37.326352],[-122.016402,37.326352],[-122.0164,37.326249],[-122.016378,37.326245]]]]}
  },
  {
   "type": "Feature",
   "properties": {
    "kind": "building",
    "block": "7",
    "label": "Block 7 residential",
    "stage": "entitled",
    "height_ft": 85.0,
    "podium_ft": null,
    "base_ft": 0,
    "use": "residential",
    "phase": null,
    "illustrative": true,
    "source": "illustrative: footprint traced from The Rise SB 35 modification, Attachment A - Approved Plans (approved Feb 16, 2024), sheet P-0800.05 (PDF p. 82); height to its tallest point from P-0831 (PDF p. 89), section 3: total height 85'-0\""
   },
   "geometry": {"type":"MultiPolygon","coordinates":[[[[-122.016401,37.326349],[-122.016352,37.326351],[-122.01635,37.326369],[-122.01622,37.326371],[-122.016216,37.326353],[-122.016157,37.326354],[-122.016151,37.326373],[-122.016035,37.326373],[-122.016033,37.326355],[-122.015982,37.326354],[-122.01598,37.326241],[-122.016002,37.326234],[-122.016001,37.32619],[-122.015975,37.326184],[-122.015974,37.326164],[-122.016001,37.326157],[-122.016,37.32611],[-122.015973,37.326111],[-122.015972,37.326054],[-122.015998,37.326047],[-122.015998,37.326003],[-122.015971,37.325997],[-122.015971,37.325978],[-122.015997,37.325974],[-122.015996,37.325927],[-122.01597,37.325921],[-122.015969,37.325901],[-122.015996,37.325898],[-122.015995,37.325846],[-122.015968,37.325844],[-122.015968,37.325825],[-122.015994,37.325821],[-122.015993,37.325769],[-122.015971,37.325768],[-122.01597,37.325715],[-122.015992,37.325709],[-122.015993,37.32567],[-122.016148,37.325669],[-122.016156,37.325686],[-122.016205,37.325687],[-122.016207,37.325781],[-122.016185,37.325783],[-122.016185,37.32583],[-122.016208,37.325837],[-122.016208,37.325854],[-122.016186,37.325856],[-122.016187,37.325908],[-122.016209,37.32591],[-122.016216,37.326041],[-122.01619,37.326046],[-122.016191,37.326093],[-122.016217,37.326095],[-122.016217,37.326111],[-122.016191,37.326118],[-122.016192,37.326178],[-122.016198,37.326183],[-122.016375,37.326182],[-122.016377,37.326249],[-122.016397,37.32625],[-122.016401,37.326349]]]]}
  },
  {
   "type": "Feature",
   "properties": {
    "kind": "building",
    "block": "8",
    "label": "Block 8 podium",
    "stage": "entitled",
    "height_ft": 41.17,
    "podium_ft": null,
    "base_ft": 0,
    "use": "parking, retail, lobbies",
    "phase": null,
    "illustrative": true,
    "source": "illustrative: footprint traced from The Rise SB 35 modification, Attachment A - Approved Plans (approved Feb 16, 2024), sheet P-0800.01 (PDF p. 78); height to its tallest point from P-0831 (PDF p. 89), sections 1 and 7: level 5 deck 228'-8\" over average grade 187'-6\""
   },
   "geometry": {"type":"MultiPolygon","coordinates":[[[[-122.015513,37.32587],[-122.015517,37.32596],[-122.01548,37.325966],[-122.015481,37.325992],[-122.015518,37.325996],[-122.015519,37.326072],[-122.015483,37.326075],[-122.015483,37.326101],[-122.015516,37.3261],[-122.01552,37.326108],[-122.015521,37.326184],[-122.015485,37.326187],[-122.015485,37.326208],[-122.015507,37.326207],[-122.015522,37.326215],[-122.015522,37.326246],[-122.015508,37.326246],[-122.015509,37.326261],[-122.015523,37.326271],[-122.015524,37.326305],[-122.015487,37.326312],[-122.015488,37.326336],[-122.01551,37.326336],[-122.01551,37.326344],[-122.015524,37.326344],[-122.015525,37.326379],[-122.015507,37.326384],[-122.014712,37.326394],[-122.014706,37.326308],[-122.0147,37.326303],[-122.014619,37.326304],[-122.014607,37.325675],[-122.015168,37.325663],[-122.015168,37.325668],[-122.015269,37.325661],[-122.015269,37.325666],[-122.015373,37.32566],[-122.015373,37.325665],[-122.015438,37.325664],[-122.015438,37.325659],[-122.015696,37.325661],[-122.015704,37.325864],[-122.015513,37.32587]],[[-122.015511,37.325777],[-122.015509,37.325675],[-122.015479,37.325676],[-122.015477,37.325692],[-122.015423,37.325692],[-122.015419,37.325676],[-122.01539,37.325677],[-122.015385,37.325693],[-122.015331,37.325694],[-122.015328,37.325677],[-122.015298,37.325678],[-122.015294,37.325694],[-122.015242,37.325695],[-122.015236,37.325679],[-122.015213,37.325679],[-122.015208,37.325695],[-122.015159,37.325696],[-122.015155,37.32568],[-122.015101,37.32568],[-122.015098,37.325696],[-122.015049,37.325697],[-122.015043,37.325681],[-122.015025,37.325681],[-122.015015,37.325697],[-122.014966,37.325698],[-122.01496,37.325682],[-122.014931,37.325682],[-122.014928,37.325699],[-122.014874,37.325699],[-122.014871,37.325683],[-122.014841,37.325683],[-122.014836,37.3257],[-122.014785,37.3257],[-122.014779,37.325684],[-122.01466,37.325686],[-122.014661,37.32572],[-122.014641,37.325723],[-122.014643,37.325836],[-122.014663,37.32584],[-122.014664,37.32588],[-122.014644,37.325884],[-122.014645,37.325969],[-122.014666,37.325973],[-122.014667,37.326016],[-122.014826,37.326014],[-122.014831,37.325998],[-122.014873,37.325997],[-122.014871,37.325897],[-122.014848,37.325895],[-122.014847,37.325839],[-122.014765,37.32584],[-122.014763,37.325809],[-122.014683,37.32581],[-122.014683,37.325782],[-122.014848,37.32578],[-122.014852,37.32585],[-122.01491,37.325847],[-122.014921,37.325865],[-122.014943,37.325865],[-122.014948,37.325849],[-122.015,37.325848],[-122.015003,37.325864],[-122.01505,37.325863],[-122.015059,37.325862],[-122.015064,37.325845],[-122.015116,37.325846],[-122.015119,37.325861],[-122.015149,37.325861],[-122.015151,37.325846],[-122.015205,37.325844],[-122.015211,37.325862],[-122.015274,37.325861],[-122.015288,37.325843],[-122.015341,37.325842],[-122.015347,37.32586],[-122.015437,37.325859],[-122.015442,37.325841],[-122.015471,37.32584],[-122.015496,37.325842],[-122.015499,37.325858],[-122.015624,37.325856],[-122.015623,37.325778],[-122.015511,37.325777]],[[-122.015419,37.326185],[-122.015295,37.326181],[-122.015287,37.326202],[-122.015227,37.326203],[-122.015226,37.326182],[-122.015152,37.326183],[-122.015151,37.326204],[-122.015093,37.326205],[-122.015088,37.326184],[-122.015056,37.326184],[-122.015053,37.326205],[-122.014996,37.326206],[-122.014992,37.326185],[-122.014961,37.326185],[-122.01496,37.326206],[-122.014902,37.326207],[-122.014899,37.326189],[-122.01477,37.326193],[-122.014767,37.326209],[-122.014721,37.326209],[-122.014722,37.326354],[-122.014726,37.326364],[-122.01477,37.326364],[-122.014773,37.326382],[-122.014943,37.32638],[-122.014948,37.326362],[-122.015004,37.326361],[-122.015005,37.326379],[-122.01503,37.326378],[-122.015033,37.326361],[-122.015093,37.32636],[-122.015095,37.326381],[-122.015126,37.326381],[-122.015129,37.326359],[-122.015189,37.326359],[-122.01519,37.32638],[-122.015423,37.326374],[-122.015419,37.326185]]]]}
  },
  {
   "type": "Feature",
   "properties": {
    "kind": "building",
    "block": "8",
    "label": "Block 8 residential",
    "stage": "entitled",
    "height_ft": 85.0,
    "podium_ft": null,
    "base_ft": 0,
    "use": "residential",
    "phase": null,
    "illustrative": true,
    "source": "illustrative: footprint traced from The Rise SB 35 modification, Attachment A - Approved Plans (approved Feb 16, 2024), sheet P-0800.05 (PDF p. 82); height to its tallest point from P-0831 (PDF p. 89), section 1: total height 85'-0\""
   },
   "geometry": {"type":"MultiPolygon","coordinates":[[[[-122.015619,37.325855],[-122.015503,37.325857],[-122.015494,37.325841],[-122.015472,37.325839],[-122.015443,37.32584],[-122.015436,37.325858],[-122.015348,37.325859],[-122.01534,37.325841],[-122.015279,37.325843],[-122.015273,37.32586],[-122.015214,37.32586],[-122.01521,37.325842],[-122.015153,37.325845],[-122.015147,37.325859],[-122.015121,37.32586],[-122.01512,37.325845],[-122.015059,37.325844],[-122.015058,37.325861],[-122.015049,37.325862],[-122.015007,37.325863],[-122.015002,37.325847],[-122.01495,37.325847],[-122.01494,37.325864],[-122.014921,37.325864],[-122.014909,37.325846],[-122.014846,37.325849],[-122.014847,37.325897],[-122.014869,37.325899],[-122.014871,37.325996],[-122.014826,37.325997],[-122.014825,37.326013],[-122.01467,37.326015],[-122.014667,37.325973],[-122.014647,37.325966],[-122.014645,37.325885],[-122.014666,37.325883],[-122.014665,37.325839],[-122.014644,37.325835],[-122.014642,37.325726],[-122.014662,37.325719],[-122.014664,37.325687],[-122.014776,37.325685],[-122.01478,37.325702],[-122.014841,37.325701],[-122.014843,37.325685],[-122.014867,37.325684],[-122.014876,37.3257],[-122.014926,37.3257],[-122.014934,37.325683],[-122.014959,37.325683],[-122.014967,37.325699],[-122.015014,37.325699],[-122.015022,37.325682],[-122.01504,37.325682],[-122.015044,37.325698],[-122.015097,37.325698],[-122.015103,37.325681],[-122.015152,37.325681],[-122.01516,37.325697],[-122.015207,37.325696],[-122.015215,37.32568],[-122.015235,37.32568],[-122.015237,37.325696],[-122.015298,37.325695],[-122.0153,37.325679],[-122.015324,37.325679],[-122.015329,37.325695],[-122.01539,37.325694],[-122.015392,37.325678],[-122.015416,37.325678],[-122.015424,37.325694],[-122.015475,37.325693],[-122.015483,37.325677],[-122.015507,37.325676],[-122.015509,37.325775],[-122.015515,37.32578],[-122.015619,37.325779],[-122.015619,37.325855]],[[-122.014851,37.325779],[-122.01468,37.325781],[-122.01468,37.325812],[-122.014762,37.325811],[-122.014762,37.325841],[-122.014854,37.32584],[-122.014851,37.325779]]],[[[-122.015421,37.326372],[-122.015194,37.326378],[-122.015191,37.326357],[-122.01515,37.326358],[-122.015147,37.326205],[-122.015154,37.326205],[-122.015155,37.326184],[-122.015222,37.326183],[-122.015225,37.326204],[-122.01529,37.326204],[-122.015294,37.326182],[-122.015418,37.326186],[-122.015421,37.326372]]]]}
  },
  {
   "type": "Feature",
   "properties": {
    "kind": "building",
    "block": "8",
    "label": "Block 8 tower",
    "stage": "entitled",
    "height_ft": 200.08,
    "podium_ft": null,
    "base_ft": 0,
    "use": "residential",
    "phase": null,
    "illustrative": true,
    "source": "illustrative: footprint traced from The Rise SB 35 modification, Attachment A - Approved Plans (approved Feb 16, 2024), sheet P-0800.06 (PDF p. 83); height to its tallest point from P-0831 (PDF p. 89), section 7: total height 200'-1\" (roof 387'-7\", 18 storeys)"
   },
   "geometry": {"type":"MultiPolygon","coordinates":[[[[-122.015141,37.326189],[-122.015145,37.326197],[-122.015145,37.326376],[-122.015009,37.326378],[-122.015006,37.32636],[-122.014943,37.32636],[-122.014941,37.326378],[-122.014775,37.32638],[-122.014768,37.326363],[-122.014728,37.326361],[-122.014725,37.326211],[-122.014765,37.32621],[-122.014771,37.326194],[-122.014897,37.326191],[-122.0149,37.326208],[-122.014963,37.326208],[-122.014962,37.326188],[-122.014987,37.326186],[-122.014993,37.326207],[-122.015058,37.326206],[-122.01506,37.32619],[-122.015141,37.326189]]]]}
  },
  {
   "type": "Feature",
   "properties": {
    "kind": "building",
    "block": "9",
    "label": "Block 9 podium",
    "stage": "entitled",
    "height_ft": 31.08,
    "podium_ft": null,
    "base_ft": 0,
    "use": "parking, retail, lobbies",
    "phase": null,
    "illustrative": true,
    "source": "illustrative: footprint traced from The Rise SB 35 modification, Attachment A - Approved Plans (approved Feb 16, 2024), sheet P-0800.01 (PDF p. 78); height to its tallest point from P-0831 (PDF p. 89), section 4 (Street C): level 4 deck 215'-7\" over average grade 184'-6\""
   },
   "geometry": {"type":"MultiPolygon","coordinates":[[[[-122.016046,37.327445],[-122.016009,37.327445],[-122.015999,37.327465],[-122.01591,37.327462],[-122.01591,37.327448],[-122.015881,37.327448],[-122.015881,37.327461],[-122.015869,37.327463],[-122.015751,37.327464],[-122.015751,37.327451],[-122.015731,37.327452],[-122.015731,37.327461],[-122.015664,37.327464],[-122.015664,37.327452],[-122.015639,37.327451],[-122.015639,37.327456],[-122.015617,37.327456],[-122.015615,37.327466],[-122.015546,37.32747],[-122.015534,37.327467],[-122.015534,37.327456],[-122.015464,37.327452],[-122.015464,37.327439],[-122.015458,37.327439],[-122.015446,37.326588],[-122.015582,37.326586],[-122.015606,37.326584],[-122.015606,37.326578],[-122.015734,37.326576],[-122.015734,37.32657],[-122.015777,37.326569],[-122.015777,37.326576],[-122.015799,37.326577],[-122.015801,37.326584],[-122.015822,37.326583],[-122.015844,37.326577],[-122.015844,37.326569],[-122.015885,37.326568],[-122.015885,37.326575],[-122.015952,37.326574],[-122.015952,37.326582],[-122.016037,37.326582],[-122.01604,37.326612],[-122.01605,37.326611],[-122.016051,37.326678],[-122.016041,37.326683],[-122.016054,37.326834],[-122.016044,37.326839],[-122.016045,37.326897],[-122.016056,37.326902],[-122.016056,37.326939],[-122.016046,37.32694],[-122.016047,37.326964],[-122.016057,37.326964],[-122.016058,37.327021],[-122.016048,37.327021],[-122.016048,37.327045],[-122.016058,37.327045],[-122.016063,37.327288],[-122.016053,37.327289],[-122.016053,37.327311],[-122.016064,37.327311],[-122.016065,37.327371],[-122.016053,37.327371],[-122.016054,37.327428],[-122.016046,37.327445]],[[-122.015992,37.327272],[-122.015989,37.327256],[-122.015919,37.327257],[-122.015914,37.327273],[-122.015858,37.327274],[-122.015855,37.327257],[-122.01578,37.327258],[-122.015778,37.327275],[-122.01573,37.327275],[-122.015727,37.327286],[-122.015678,37.327283],[-122.015677,37.327195],[-122.015697,37.32719],[-122.015696,37.327134],[-122.015675,37.32713],[-122.015674,37.327088],[-122.015695,37.327085],[-122.015694,37.327058],[-122.015674,37.327056],[-122.015673,37.327014],[-122.015693,37.32701],[-122.015692,37.326956],[-122.015672,37.326952],[-122.015671,37.326907],[-122.015691,37.326905],[-122.015691,37.326879],[-122.01567,37.326875],[-122.01567,37.326836],[-122.01569,37.326831],[-122.015689,37.32681],[-122.015669,37.326806],[-122.015668,37.326753],[-122.015588,37.326754],[-122.015584,37.326722],[-122.015587,37.326695],[-122.015671,37.326694],[-122.015673,37.326762],[-122.015768,37.326761],[-122.015771,37.326777],[-122.015845,37.326776],[-122.01585,37.32676],[-122.015904,37.326759],[-122.015909,37.326775],[-122.01598,37.326774],[-122.015982,37.326758],[-122.016026,37.326758],[-122.016023,37.326609],[-122.015982,37.326609],[-122.015976,37.326593],[-122.015701,37.326597],[-122.015698,37.326613],[-122.01565,37.326614],[-122.015645,37.326597],[-122.015503,37.326599],[-122.015496,37.326615],[-122.015457,37.326616],[-122.015459,37.326709],[-122.015479,37.326712],[-122.015482,37.326754],[-122.01546,37.326757],[-122.01546,37.326786],[-122.015481,37.32679],[-122.015481,37.326832],[-122.015461,37.326835],[-122.015462,37.326859],[-122.015482,37.326861],[-122.015484,37.32688],[-122.015485,37.326904],[-122.015463,37.326908],[-122.015464,37.326963],[-122.015484,37.326966],[-122.015485,37.327008],[-122.015465,37.32701],[-122.015465,37.327036],[-122.015485,37.327038],[-122.015486,37.327081],[-122.015466,37.327085],[-122.015466,37.327109],[-122.015489,37.327111],[-122.015488,37.327154],[-122.015467,37.327157],[-122.015468,37.327213],[-122.015489,37.327215],[-122.01549,37.327256],[-122.015469,37.327259],[-122.01547,37.327284],[-122.01549,37.327286],[-122.015491,37.327329],[-122.015471,37.327332],[-122.015473,37.327428],[-122.015518,37.327428],[-122.015522,37.327444],[-122.015608,37.327443],[-122.015613,37.327427],[-122.015667,37.327426],[-122.01567,37.327442],[-122.0157,37.327442],[-122.015702,37.327426],[-122.015754,37.327425],[-122.015758,37.327441],[-122.01586,37.32744],[-122.015865,37.327424],[-122.015919,37.327423],[-122.015922,37.327439],[-122.015992,37.327438],[-122.015995,37.327422],[-122.016039,37.327421],[-122.016036,37.327271],[-122.015992,37.327272]]]]}
  },
  {
   "type": "Feature",
   "properties": {
    "kind": "building",
    "block": "9",
    "label": "Block 9 residential",
    "stage": "entitled",
    "height_ft": 85.0,
    "podium_ft": null,
    "base_ft": 0,
    "use": "residential",
    "phase": null,
    "illustrative": true,
    "source": "illustrative: footprint traced from The Rise SB 35 modification, Attachment A - Approved Plans (approved Feb 16, 2024), sheet P-0800.05 (PDF p. 82); height to its tallest point from P-0831 (PDF p. 89), sections 4 and 8: total height 85'-0\""
   },
   "geometry": {"type":"MultiPolygon","coordinates":[[[[-122.015989,37.327437],[-122.015924,37.327438],[-122.015921,37.327422],[-122.015864,37.327422],[-122.015859,37.327439],[-122.015761,37.32744],[-122.015759,37.327424],[-122.0157,37.327424],[-122.015698,37.327441],[-122.015672,37.327441],[-122.015665,37.327425],[-122.015608,37.327426],[-122.015607,37.327442],[-122.015525,37.327443],[-122.015517,37.327427],[-122.015476,37.327427],[-122.015472,37.327335],[-122.015493,37.327328],[-122.015492,37.327287],[-122.015473,37.327283],[-122.015471,37.327262],[-122.015491,37.327258],[-122.01549,37.327211],[-122.01547,37.327208],[-122.015469,37.327161],[-122.015489,37.327153],[-122.01549,37.327112],[-122.015468,37.327106],[-122.015468,37.327088],[-122.015488,37.327084],[-122.015487,37.327039],[-122.015467,37.327033],[-122.015466,37.327013],[-122.015486,37.327011],[-122.015486,37.326966],[-122.015465,37.32696],[-122.015464,37.326913],[-122.015486,37.326903],[-122.015484,37.326862],[-122.015463,37.326856],[-122.015463,37.326838],[-122.015483,37.326831],[-122.015482,37.326786],[-122.015462,37.326783],[-122.015461,37.32676],[-122.015483,37.326753],[-122.015481,37.326709],[-122.01546,37.326706],[-122.015461,37.326617],[-122.015497,37.326617],[-122.015505,37.3266],[-122.015643,37.326599],[-122.01565,37.326615],[-122.015702,37.326614],[-122.015702,37.326598],[-122.015975,37.326595],[-122.015981,37.326611],[-122.016022,37.326612],[-122.016024,37.326756],[-122.015984,37.326757],[-122.015976,37.326773],[-122.015911,37.326774],[-122.015909,37.326758],[-122.01585,37.326758],[-122.015842,37.326775],[-122.015775,37.326776],[-122.015772,37.326759],[-122.015667,37.326761],[-122.015668,37.326806],[-122.015688,37.326811],[-122.015688,37.326829],[-122.015668,37.326835],[-122.015669,37.326879],[-122.015689,37.326881],[-122.01569,37.326903],[-122.015669,37.326908],[-122.01567,37.326956],[-122.015691,37.326957],[-122.015692,37.327009],[-122.015671,37.327011],[-122.015672,37.327055],[-122.015693,37.327061],[-122.015693,37.327084],[-122.015673,37.327089],[-122.015674,37.327131],[-122.015694,37.327137],[-122.015695,37.327189],[-122.015675,37.327191],[-122.015677,37.327283],[-122.015726,37.327288],[-122.015734,37.327276],[-122.015776,37.327276],[-122.015784,37.327259],[-122.015851,37.327259],[-122.01586,37.327275],[-122.015919,37.327274],[-122.01592,37.327258],[-122.015985,37.327257],[-122.015994,37.327273],[-122.016034,37.327273],[-122.016037,37.327419],[-122.015991,37.327426],[-122.015989,37.327437]],[[-122.015584,37.326694],[-122.015585,37.326755],[-122.015675,37.326754],[-122.015673,37.326692],[-122.015584,37.326694]]]]}
  },
  {
   "type": "Feature",
   "properties": {
    "kind": "building",
    "block": "10",
    "label": "Block 10 podium",
    "stage": "entitled",
    "height_ft": 31.0,
    "podium_ft": null,
    "base_ft": 0,
    "use": "parking, retail, lobbies",
    "phase": null,
    "illustrative": true,
    "source": "illustrative: footprint traced from The Rise SB 35 modification, Attachment A - Approved Plans (approved Feb 16, 2024), sheet P-0800.01 (PDF p. 78); height to its tallest point from P-0831 (PDF p. 89), section 1: level 4 deck 213'-0\" over average grade 182'-0\""
   },
   "geometry": {"type":"MultiPolygon","coordinates":[[[[-122.015288,37.327459],[-122.015288,37.327468],[-122.015249,37.327469],[-122.015249,37.327459],[-122.014643,37.327467],[-122.014629,37.326787],[-122.014819,37.326784],[-122.014816,37.326599],[-122.014824,37.326588],[-122.01495,37.326586],[-122.014958,37.326594],[-122.015145,37.326584],[-122.015145,37.326592],[-122.015283,37.326593],[-122.015285,37.326699],[-122.015299,37.3267],[-122.015301,37.326791],[-122.015287,37.326791],[-122.015296,37.327457],[-122.015288,37.327459]],[[-122.014848,37.327302],[-122.014857,37.327301],[-122.01485,37.326914],[-122.014664,37.326916],[-122.014668,37.32712],[-122.014759,37.327123],[-122.014761,37.327226],[-122.01467,37.32723],[-122.014674,37.327453],[-122.014927,37.32745],[-122.014922,37.327383],[-122.014958,37.327381],[-122.014957,37.327449],[-122.015126,37.327447],[-122.015123,37.327299],[-122.014848,37.327302]],[[-122.014833,37.326607],[-122.014834,37.326663],[-122.014891,37.326667],[-122.01489,37.326691],[-122.014834,37.326692],[-122.014835,37.326756],[-122.015001,37.326754],[-122.015001,37.326686],[-122.01517,37.326688],[-122.015171,37.32676],[-122.015084,37.326762],[-122.015091,37.327144],[-122.015279,37.327142],[-122.015269,37.326602],[-122.014833,37.326607]]],[[[-122.014849,37.327371],[-122.014775,37.32737],[-122.014774,37.327303],[-122.014848,37.327302],[-122.014849,37.327371]]]]}
  },
  {
   "type": "Feature",
   "properties": {
    "kind": "building",
    "block": "10",
    "label": "Block 10 residential",
    "stage": "entitled",
    "height_ft": 85.0,
    "podium_ft": null,
    "base_ft": 0,
    "use": "residential",
    "phase": null,
    "illustrative": true,
    "source": "illustrative: footprint traced from The Rise SB 35 modification, Attachment A - Approved Plans (approved Feb 16, 2024), sheet P-0800.05 (PDF p. 82); height to its tallest point from P-0831 (PDF p. 89), sections 1 and 8: total height 85'-0\""
   },
   "geometry": {"type":"MultiPolygon","coordinates":[[[[-122.01492,37.32738],[-122.014926,37.327449],[-122.014676,37.327452],[-122.014671,37.327233],[-122.014763,37.327225],[-122.014761,37.327123],[-122.014754,37.327118],[-122.014669,37.327119],[-122.014665,37.326918],[-122.014848,37.326915],[-122.014856,37.327303],[-122.015122,37.3273],[-122.015123,37.327446],[-122.014958,37.327448],[-122.014961,37.32738],[-122.01492,37.32738]],[[-122.014774,37.327374],[-122.014851,37.327373],[-122.014849,37.3273],[-122.014772,37.327301],[-122.014774,37.327374]]],[[[-122.014998,37.326685],[-122.014998,37.326753],[-122.014837,37.326755],[-122.014836,37.326695],[-122.014893,37.326692],[-122.014886,37.326662],[-122.014835,37.326661],[-122.014834,37.326609],[-122.015267,37.326605],[-122.015275,37.327141],[-122.015092,37.32714],[-122.015085,37.326766],[-122.015173,37.326762],[-122.015171,37.326686],[-122.014998,37.326685]]]]}
  },
  {
   "type": "Feature",
   "properties": {
    "kind": "building",
    "block": "11",
    "label": "Block 11 podium",
    "stage": "entitled",
    "height_ft": 30.5,
    "podium_ft": null,
    "base_ft": 0,
    "use": "parking, retail, lobbies",
    "phase": null,
    "illustrative": true,
    "source": "illustrative: footprint traced from The Rise SB 35 modification, Attachment A - Approved Plans (approved Feb 16, 2024), sheet P-0800.01 (PDF p. 78); height to its tallest point from P-0832 (PDF p. 90), section 3: level 4 deck 214'-6\" over average grade 184'-0\""
   },
   "geometry": {"type":"MultiPolygon","coordinates":[[[[-122.013959,37.326683],[-122.013955,37.326757],[-122.013772,37.32676],[-122.013753,37.326755],[-122.013753,37.326749],[-122.013706,37.326749],[-122.013946,37.326746],[-122.013943,37.326601],[-122.013936,37.326596],[-122.013558,37.3266],[-122.013559,37.326669],[-122.013474,37.32667],[-122.013475,37.326612],[-122.013557,37.326611],[-122.013545,37.32603],[-122.013538,37.326024],[-122.013359,37.326026],[-122.013375,37.326753],[-122.013625,37.32675],[-122.013619,37.326762],[-122.013365,37.326765],[-122.013359,37.32676],[-122.013344,37.326016],[-122.013346,37.326003],[-122.013454,37.326002],[-122.013452,37.325919],[-122.013444,37.325915],[-122.013445,37.325742],[-122.01365,37.32574],[-122.013667,37.325746],[-122.013667,37.325753],[-122.013709,37.325752],[-122.013709,37.325746],[-122.013729,37.325739],[-122.013973,37.325736],[-122.01398,37.325741],[-122.013998,37.326677],[-122.013959,37.326683]],[[-122.013566,37.325754],[-122.013566,37.325823],[-122.013531,37.325822],[-122.01353,37.325755],[-122.013456,37.325756],[-122.013459,37.325904],[-122.013787,37.3259],[-122.013786,37.325833],[-122.01386,37.325832],[-122.013861,37.325901],[-122.01378,37.325903],[-122.01379,37.326412],[-122.013978,37.326409],[-122.013976,37.326308],[-122.013913,37.326308],[-122.013913,37.326275],[-122.013975,37.326275],[-122.013973,37.326167],[-122.01388,37.326165],[-122.013876,37.326064],[-122.013881,37.326058],[-122.013971,37.326057],[-122.013965,37.325749],[-122.013667,37.325753],[-122.013566,37.325754]]],[[[-122.013706,37.326756],[-122.013625,37.32675],[-122.013706,37.326749],[-122.013706,37.326756]]]]}
  },
  {
   "type": "Feature",
   "properties": {
    "kind": "building",
    "block": "11",
    "label": "Block 11 residential",
    "stage": "entitled",
    "height_ft": 84.5,
    "podium_ft": null,
    "base_ft": 0,
    "use": "residential",
    "phase": null,
    "illustrative": true,
    "source": "illustrative: footprint traced from The Rise SB 35 modification, Attachment A - Approved Plans (approved Feb 16, 2024), sheet P-0800.05 (PDF p. 82); height to its tallest point from P-0832 (PDF p. 90), sections 1 and 3: total height 84'-6\" (the other wing's roof, 258'-3\", is about 74 ft)",
    "note": "The two wings are 84.5 and about 74 ft; drawn to the taller."
   },
   "geometry": {"type":"MultiPolygon","coordinates":[[[[-122.013377,37.326752],[-122.013363,37.326028],[-122.013542,37.326025],[-122.013544,37.32603],[-122.013555,37.326602],[-122.013941,37.326599],[-122.013942,37.326743],[-122.013377,37.326752]],[[-122.013473,37.326672],[-122.01356,37.326671],[-122.013559,37.32661],[-122.013472,37.326611],[-122.013473,37.326672]]],[[[-122.013876,37.326057],[-122.013876,37.326161],[-122.013884,37.326169],[-122.013972,37.326169],[-122.013974,37.326272],[-122.013911,37.326274],[-122.013911,37.32631],[-122.013974,37.326309],[-122.013976,37.326408],[-122.013791,37.32641],[-122.013781,37.325899],[-122.013462,37.325903],[-122.013457,37.325757],[-122.013529,37.325756],[-122.01353,37.325824],[-122.013568,37.325824],[-122.013567,37.325756],[-122.013964,37.325751],[-122.013967,37.326054],[-122.013876,37.326057]],[[-122.013861,37.32583],[-122.013784,37.325831],[-122.013786,37.325904],[-122.013863,37.325903],[-122.013861,37.32583]]]]}
  },
  {
   "type": "Feature",
   "properties": {
    "kind": "building",
    "block": "12",
    "label": "Block 12 podium",
    "stage": "entitled",
    "height_ft": 31.33,
    "podium_ft": null,
    "base_ft": 0,
    "use": "parking, retail, lobbies",
    "phase": null,
    "illustrative": true,
    "source": "illustrative: footprint traced from The Rise SB 35 modification, Attachment A - Approved Plans (approved Feb 16, 2024), sheet P-0800.01 (PDF p. 78); height to its tallest point from P-0832 (PDF p. 90), section 3: level 4 deck 213'-10\" over average grade 182'-6\""
   },
   "geometry": {"type":"MultiPolygon","coordinates":[[[[-122.012811,37.32578],[-122.012765,37.32578],[-122.01276,37.325764],[-122.012734,37.325765],[-122.012729,37.325781],[-122.012682,37.325781],[-122.012678,37.325765],[-122.012647,37.325766],[-122.012642,37.325782],[-122.01259,37.325783],[-122.012587,37.325766],[-122.012531,37.325767],[-122.012528,37.325783],[-122.012474,37.325784],[-122.012469,37.325768],[-122.012439,37.325768],[-122.012435,37.325784],[-122.012383,37.325785],[-122.012377,37.325769],[-122.012305,37.32577],[-122.0123,37.325786],[-122.012255,37.325787],[-122.012255,37.325855],[-122.01222,37.325854],[-122.012219,37.325797],[-122.012246,37.325796],[-122.012245,37.325771],[-122.012183,37.325771],[-122.01218,37.325788],[-122.012129,37.325788],[-122.012123,37.325772],[-122.01209,37.325772],[-122.012089,37.325789],[-122.012041,37.325789],[-122.012036,37.325773],[-122.011964,37.325774],[-122.011959,37.325795],[-122.011917,37.325796],[-122.011919,37.325863],[-122.011904,37.325864],[-122.011904,37.325779],[-122.011935,37.325761],[-122.013002,37.325748],[-122.013029,37.325761],[-122.012815,37.325764],[-122.012811,37.32578]]],[[[-122.013092,37.326313],[-122.013092,37.326333],[-122.013105,37.326334],[-122.013105,37.326354],[-122.013115,37.326354],[-122.013116,37.326383],[-122.013093,37.326388],[-122.013102,37.32642],[-122.013116,37.32642],[-122.013117,37.326453],[-122.013099,37.326453],[-122.013099,37.326471],[-122.013117,37.326471],[-122.013118,37.326508],[-122.013104,37.326508],[-122.013096,37.326539],[-122.013119,37.326542],[-122.013121,37.326648],[-122.013109,37.326648],[-122.013099,37.326658],[-122.013076,37.326658],[-122.013075,37.326694],[-122.012656,37.326699],[-122.012653,37.32677],[-122.011922,37.326776],[-122.011905,37.325924],[-122.01192,37.325924],[-122.011927,37.325934],[-122.011964,37.325934],[-122.011967,37.325955],[-122.012078,37.325954],[-122.012083,37.325937],[-122.01213,37.325937],[-122.012136,37.325953],[-122.012208,37.325952],[-122.012213,37.325936],[-122.012263,37.325935],[-122.012268,37.325951],[-122.012342,37.32595],[-122.012347,37.325934],[-122.012399,37.325933],[-122.012404,37.32595],[-122.012434,37.325949],[-122.012439,37.325933],[-122.01249,37.325932],[-122.012501,37.325948],[-122.012525,37.325948],[-122.01253,37.325932],[-122.012582,37.325931],[-122.012585,37.325947],[-122.012613,37.325947],[-122.012618,37.325931],[-122.012665,37.32593],[-122.012669,37.325946],[-122.012769,37.325945],[-122.012774,37.325929],[-122.012824,37.325928],[-122.012827,37.325944],[-122.012845,37.325945],[-122.012849,37.32603],[-122.012869,37.326033],[-122.01287,37.326074],[-122.01285,37.326078],[-122.01285,37.326098],[-122.012871,37.326102],[-122.012872,37.326144],[-122.012851,37.326148],[-122.012852,37.326206],[-122.012873,37.326208],[-122.012874,37.326251],[-122.012853,37.326253],[-122.012854,37.326274],[-122.012874,37.326278],[-122.012875,37.326319],[-122.012855,37.326323],[-122.012856,37.326379],[-122.012876,37.326383],[-122.012877,37.326423],[-122.012857,37.326427],[-122.012858,37.326488],[-122.012878,37.32649],[-122.012879,37.326532],[-122.012859,37.326534],[-122.012861,37.326647],[-122.012888,37.326651],[-122.012888,37.326684],[-122.013062,37.326682],[-122.013061,37.326649],[-122.013088,37.326644],[-122.013086,37.326557],[-122.013065,37.326549],[-122.013065,37.326508],[-122.013085,37.326503],[-122.013083,37.326424],[-122.013063,37.32642],[-122.013062,37.326379],[-122.013082,37.326375],[-122.013082,37.326351],[-122.013062,37.326347],[-122.013061,37.326306],[-122.013081,37.326303],[-122.01308,37.326247],[-122.01306,37.326245],[-122.013059,37.326202],[-122.013079,37.3262],[-122.013079,37.326176],[-122.013058,37.326172],[-122.013057,37.326131],[-122.013078,37.326128],[-122.013077,37.326103],[-122.013057,37.326099],[-122.013056,37.326059],[-122.013076,37.326055],[-122.013076,37.326033],[-122.013055,37.326031],[-122.013055,37.32599],[-122.013075,37.325985],[-122.013074,37.325962],[-122.013054,37.325959],[-122.013053,37.325918],[-122.013073,37.325911],[-122.013088,37.325924],[-122.013089,37.326164],[-122.013111,37.326165],[-122.013112,37.326209],[-122.013092,37.32621],[-122.01309,37.326219],[-122.013074,37.326219],[-122.013074,37.326234],[-122.013113,37.32624],[-122.013113,37.32626],[-122.013136,37.326259],[-122.013136,37.326293],[-122.013114,37.326294],[-122.013114,37.326312],[-122.013092,37.326313]],[[-122.012557,37.32659],[-122.012556,37.326572],[-122.012404,37.326574],[-122.012403,37.326592],[-122.012342,37.326593],[-122.012336,37.326575],[-122.012305,37.326575],[-122.012302,37.326593],[-122.012244,37.326594],[-122.01224,37.326576],[-122.01215,37.326577],[-122.012146,37.326542],[-122.012169,37.326537],[-122.012168,37.326512],[-122.012146,37.32651],[-122.012145,37.326464],[-122.012167,37.326461],[-122.012167,37.326439],[-122.012144,37.326435],[-122.012143,37.326391],[-122.012166,37.326388],[-122.012165,37.32633],[-122.012142,37.32633],[-122.012141,37.326282],[-122.012164,37.326279],[-122.012162,37.326186],[-122.012139,37.326185],[-122.012138,37.326136],[-122.011982,37.326134],[-122.011974,37.326152],[-122.011924,37.326153],[-122.011926,37.32622],[-122.01195,37.326224],[-122.011951,37.326264],[-122.011944,37.326271],[-122.011927,37.326271],[-122.011927,37.326298],[-122.011952,37.3263],[-122.011952,37.326345],[-122.011928,37.326348],[-122.011929,37.326409],[-122.011954,37.326411],[-122.011955,37.326457],[-122.01193,37.32646],[-122.011931,37.326485],[-122.011955,37.326485],[-122.011956,37.326533],[-122.011932,37.326542],[-122.011932,37.326563],[-122.011957,37.326563],[-122.011957,37.326609],[-122.011933,37.326612],[-122.011934,37.326639],[-122.011958,37.32664],[-122.011959,37.326687],[-122.011935,37.326689],[-122.01194,37.326751],[-122.011981,37.326751],[-122.011987,37.32677],[-122.012095,37.326769],[-122.012105,37.326749],[-122.012154,37.326748],[-122.012162,37.326768],[-122.012193,37.326767],[-122.012198,37.326748],[-122.012262,37.326747],[-122.012268,37.326766],[-122.012439,37.326764],[-122.012446,37.326745],[-122.012502,37.326744],[-122.012505,37.326764],[-122.012578,37.326763],[-122.012578,37.326743],[-122.012638,37.326742],[-122.012637,37.326592],[-122.012557,37.32659]]]]}
  },
  {
   "type": "Feature",
   "properties": {
    "kind": "building",
    "block": "12",
    "label": "Block 12 residential",
    "stage": "entitled",
    "height_ft": 85.5,
    "podium_ft": null,
    "base_ft": 0,
    "use": "residential",
    "phase": null,
    "illustrative": true,
    "source": "illustrative: footprint traced from The Rise SB 35 modification, Attachment A - Approved Plans (approved Feb 16, 2024), sheet P-0800.05 (PDF p. 82); height to its tallest point from P-0832 (PDF p. 90), section 2: roof 268'-0\" over average grade 182'-6\" (no total-height dimension)"
   },
   "geometry": {"type":"MultiPolygon","coordinates":[[[[-122.013086,37.326643],[-122.01306,37.326645],[-122.013058,37.326681],[-122.01289,37.326681],[-122.012889,37.326647],[-122.012863,37.326646],[-122.01286,37.326537],[-122.012881,37.326535],[-122.01288,37.326487],[-122.012859,37.326485],[-122.012858,37.326428],[-122.012879,37.326423],[-122.012878,37.326379],[-122.012857,37.326378],[-122.012856,37.326324],[-122.012877,37.326323],[-122.012876,37.326279],[-122.012855,37.326273],[-122.012855,37.326255],[-122.012875,37.326253],[-122.012874,37.326209],[-122.012854,37.326204],[-122.012853,37.326149],[-122.012873,37.326142],[-122.012872,37.326099],[-122.012852,37.326097],[-122.012852,37.326079],[-122.012872,37.326077],[-122.012871,37.326034],[-122.012851,37.326029],[-122.012847,37.325943],[-122.012831,37.325943],[-122.012822,37.325927],[-122.012775,37.325928],[-122.012768,37.325944],[-122.012672,37.325945],[-122.012664,37.325929],[-122.012617,37.32593],[-122.012611,37.325946],[-122.012589,37.325946],[-122.01258,37.32593],[-122.012529,37.325931],[-122.012522,37.325947],[-122.012497,37.325947],[-122.012489,37.325931],[-122.012438,37.325932],[-122.01243,37.325948],[-122.012406,37.325948],[-122.012403,37.325932],[-122.012342,37.325933],[-122.012341,37.325949],[-122.01227,37.32595],[-122.012267,37.325934],[-122.012212,37.325935],[-122.012205,37.325951],[-122.012139,37.325952],[-122.012131,37.325936],[-122.012078,37.325936],[-122.012076,37.325952],[-122.011969,37.325954],[-122.011962,37.325933],[-122.011922,37.325932],[-122.011919,37.325799],[-122.01196,37.325796],[-122.011965,37.325775],[-122.012032,37.325774],[-122.012037,37.325791],[-122.012092,37.32579],[-122.012091,37.325774],[-122.012122,37.325773],[-122.012124,37.32579],[-122.012185,37.325789],[-122.012187,37.325773],[-122.012244,37.325772],[-122.012244,37.325788],[-122.012299,37.325787],[-122.012307,37.325771],[-122.012376,37.32577],[-122.012384,37.325786],[-122.012435,37.325786],[-122.012441,37.325769],[-122.012467,37.325769],[-122.01247,37.325785],[-122.012531,37.325785],[-122.012532,37.325768],[-122.012583,37.325768],[-122.012588,37.325784],[-122.012647,37.325783],[-122.01265,37.325767],[-122.012677,37.325766],[-122.012683,37.325783],[-122.01273,37.325782],[-122.012736,37.325766],[-122.012758,37.325765],[-122.012762,37.325782],[-122.012811,37.325781],[-122.012817,37.325765],[-122.013041,37.325762],[-122.013043,37.325793],[-122.01307,37.325799],[-122.013072,37.325914],[-122.013052,37.325916],[-122.013053,37.325962],[-122.013073,37.325963],[-122.013073,37.325982],[-122.013053,37.325989],[-122.013054,37.326035],[-122.013074,37.326036],[-122.013075,37.326052],[-122.013055,37.326059],[-122.013055,37.3261],[-122.013076,37.326106],[-122.013076,37.326127],[-122.013056,37.326132],[-122.013057,37.326176],[-122.013077,37.326177],[-122.013077,37.326197],[-122.013057,37.326203],[-122.013058,37.326247],[-122.013079,37.32625],[-122.01308,37.326301],[-122.013059,37.326302],[-122.01306,37.326351],[-122.013081,37.326353],[-122.013081,37.326374],[-122.013061,37.32638],[-122.013061,37.326421],[-122.013082,37.326427],[-122.013083,37.326502],[-122.013063,37.326504],[-122.013064,37.326552],[-122.013084,37.326554],[-122.013086,37.326643]],[[-122.012219,37.325857],[-122.012258,37.325856],[-122.012256,37.325794],[-122.012218,37.325795],[-122.012219,37.325857]]],[[[-122.012576,37.326742],[-122.012574,37.326761],[-122.012507,37.326762],[-122.012495,37.326574],[-122.01255,37.326573],[-122.012554,37.326591],[-122.012636,37.326593],[-122.012635,37.32674],[-122.012576,37.326742]]]]}
  },
  {
   "type": "Feature",
   "properties": {
    "kind": "building",
    "block": "12",
    "label": "Block 12 tower",
    "stage": "entitled",
    "height_ft": 166.08,
    "podium_ft": null,
    "base_ft": 0,
    "use": "residential",
    "phase": null,
    "illustrative": true,
    "source": "illustrative: footprint traced from The Rise SB 35 modification, Attachment A - Approved Plans (approved Feb 16, 2024), sheet P-0800.06 (PDF p. 83); height to its tallest point from P-0832 (PDF p. 90), section 3: total height 166'-1\" (roof 349'-1\", 15 storeys)"
   },
   "geometry": {"type":"MultiPolygon","coordinates":[[[[-122.012497,37.326762],[-122.012271,37.326765],[-122.012263,37.326746],[-122.0122,37.326747],[-122.012192,37.326766],[-122.012165,37.326767],[-122.012157,37.326747],[-122.012106,37.326748],[-122.012098,37.326767],[-122.011991,37.326769],[-122.011982,37.326749],[-122.011941,37.32675],[-122.011936,37.326693],[-122.011961,37.326689],[-122.01196,37.326638],[-122.011935,37.326636],[-122.011935,37.326618],[-122.011959,37.326608],[-122.011958,37.326561],[-122.011934,37.32656],[-122.011933,37.326539],[-122.011958,37.326532],[-122.011957,37.326485],[-122.011932,37.326482],[-122.011932,37.326462],[-122.011956,37.326456],[-122.011955,37.326409],[-122.011931,37.326406],[-122.01193,37.32635],[-122.011954,37.326344],[-122.011953,37.326301],[-122.011929,37.326295],[-122.011928,37.326274],[-122.011952,37.326267],[-122.011952,37.326225],[-122.011927,37.326217],[-122.011926,37.326154],[-122.011977,37.326153],[-122.011978,37.326136],[-122.012137,37.326138],[-122.012138,37.326187],[-122.01216,37.326189],[-122.012162,37.326276],[-122.01214,37.326278],[-122.012141,37.326332],[-122.012163,37.326333],[-122.012164,37.326385],[-122.012142,37.326392],[-122.012143,37.326439],[-122.012165,37.326442],[-122.012166,37.326458],[-122.012143,37.326465],[-122.012144,37.326513],[-122.012167,37.326515],[-122.012167,37.326534],[-122.012145,37.326541],[-122.012145,37.326578],[-122.012237,37.326577],[-122.012245,37.326595],[-122.0123,37.326594],[-122.012308,37.326576],[-122.012493,37.326574],[-122.012497,37.326762]]]]}
  },
  {
   "type": "Feature",
   "properties": {
    "kind": "building",
    "block": "13",
    "label": "Block 13 (offices, superseded)",
    "stage": "entitled",
    "height_ft": null,
    "podium_ft": null,
    "base_ft": 0,
    "use": "office, parking",
    "phase": null,
    "illustrative": false,
    "source": "traced: The Rise SB 35 modification, Attachment A - Approved Plans (approved Feb 16, 2024), sheet P-0800.01 (PDF p. 78) (outline only)",
    "note": "Drawn as an outline only. The 2024 plans put two office buildings here (about 146 and 161 ft) over a six-level garage, with 479,667 sq ft of office. The 2026 modification cut the project's office to 1,474,946 sq ft, exactly the 2024 total less Block 13's office; its new plans are not published."
   },
   "geometry": {"type":"MultiPolygon","coordinates":[[[[-122.016043,37.328445],[-122.015984,37.328467],[-122.014781,37.328481],[-122.01474,37.328472],[-122.014703,37.328443],[-122.014682,37.328444],[-122.01468,37.328333],[-122.014661,37.328334],[-122.014656,37.328118],[-122.014703,37.328114],[-122.0147,37.327969],[-122.014653,37.327967],[-122.014648,37.327697],[-122.01468,37.327697],[-122.014692,37.327658],[-122.01472,37.327657],[-122.014726,37.327649],[-122.01474,37.327649],[-122.01474,37.327636],[-122.014954,37.327633],[-122.014954,37.327645],[-122.01498,37.327657],[-122.015001,37.32768],[-122.015012,37.327728],[-122.015025,37.32774],[-122.015043,37.327748],[-122.015112,37.32775],[-122.015141,37.327759],[-122.01516,37.327777],[-122.015176,37.327777],[-122.015189,37.32802],[-122.015209,37.328041],[-122.01525,37.32805],[-122.015252,37.328118],[-122.015307,37.328118],[-122.015305,37.32805],[-122.015311,37.328045],[-122.015521,37.328042],[-122.015553,37.328025],[-122.015562,37.32777],[-122.015576,37.32777],[-122.015594,37.327754],[-122.015621,37.327745],[-122.015698,37.327739],[-122.015704,37.327731],[-122.015718,37.327731],[-122.015737,37.327653],[-122.015785,37.327636],[-122.015785,37.327623],[-122.016,37.32762],[-122.016001,37.327635],[-122.016019,37.32764],[-122.016019,37.327646],[-122.016044,37.327646],[-122.016055,37.327691],[-122.016059,37.327897],[-122.016045,37.327902],[-122.016047,37.328049],[-122.016062,37.328053],[-122.016064,37.328177],[-122.016058,37.328201],[-122.01605,37.328201],[-122.016052,37.328279],[-122.016066,37.328281],[-122.016066,37.328402],[-122.016043,37.328445]]]]}
  },
  {
   "type": "Feature",
   "properties": {
    "kind": "building",
    "block": "14",
    "label": "Block 14 office building",
    "stage": "entitled",
    "height_ft": 185.5,
    "podium_ft": null,
    "base_ft": 0,
    "use": "office",
    "phase": null,
    "illustrative": true,
    "source": "illustrative: footprint traced from The Rise SB 35 modification, Attachment A - Approved Plans (approved Feb 16, 2024), sheet P-0800.05 (PDF p. 82); height to its tallest point from P-0832 (PDF p. 90), section 1 (east Wolfe Road): total height 185'-6\" (roof 367'-6\")",
    "note": "Office floors from the ground up; the street-level plan's lower service wing is not drawn."
   },
   "geometry": {"type":"MultiPolygon","coordinates":[[[[-122.013768,37.32702],[-122.013774,37.327333],[-122.013006,37.327342],[-122.012998,37.327029],[-122.013768,37.32702]]]]}
  },
  {
   "type": "Feature",
   "properties": {
    "kind": "building",
    "block": "15",
    "label": "Block 15 garage",
    "stage": "entitled",
    "height_ft": 61.75,
    "podium_ft": null,
    "base_ft": 0,
    "use": "parking",
    "phase": null,
    "illustrative": true,
    "source": "illustrative: footprint traced from The Rise SB 35 modification, Attachment A - Approved Plans (approved Feb 16, 2024), sheet P-0800.01 (PDF p. 78); height to its tallest point from P-0832 (PDF p. 90), section 4: the garage's top deck (level 7) 242'-9\" over average grade 181'-0\"",
    "note": "Six-level office garage under the three towers (three more levels below ground)."
   },
   "geometry": {"type":"MultiPolygon","coordinates":[[[[-122.012025,37.327728],[-122.01199,37.327738],[-122.011963,37.327764],[-122.011956,37.32779],[-122.011965,37.328288],[-122.011963,37.328287],[-122.011962,37.328264],[-122.01195,37.328255],[-122.011948,37.32814],[-122.011962,37.328135],[-122.011957,37.327881],[-122.011943,37.327877],[-122.01194,37.327734],[-122.01195,37.327706],[-122.011966,37.32769],[-122.011965,37.32767],[-122.01202,37.327658],[-122.012187,37.327656],[-122.012187,37.327671],[-122.012205,37.327672],[-122.012234,37.327691],[-122.012253,37.327725],[-122.012025,37.327728]]],[[[-122.014012,37.328462],[-122.01399,37.328478],[-122.013945,37.328492],[-122.013609,37.328496],[-122.013603,37.328488],[-122.013601,37.328401],[-122.013942,37.328397],[-122.013976,37.328387],[-122.014003,37.328365],[-122.014011,37.328344],[-122.014,37.327749],[-122.014014,37.327749],[-122.014024,37.32844],[-122.014012,37.328462]]],[[[-122.013325,37.328488],[-122.013244,37.328494],[-122.013244,37.328489],[-122.013213,37.328488],[-122.013008,37.32849],[-122.012977,37.328492],[-122.012978,37.328499],[-122.01291,37.328492],[-122.012735,37.328494],[-122.012677,37.328496],[-122.012667,37.328508],[-122.012026,37.328514],[-122.011981,37.328496],[-122.01196,37.328471],[-122.011952,37.328354],[-122.011967,37.328344],[-122.011973,37.328461],[-122.012001,37.328491],[-122.012023,37.3285],[-122.012415,37.328496],[-122.012458,37.328467],[-122.012468,37.328437],[-122.012461,37.328089],[-122.012482,37.328101],[-122.012525,37.328105],[-122.012533,37.328093],[-122.012718,37.328091],[-122.012746,37.328081],[-122.012752,37.328369],[-122.012771,37.3284],[-122.012792,37.328415],[-122.012833,37.328424],[-122.013176,37.328415],[-122.013217,37.328388],[-122.013229,37.328361],[-122.013215,37.327781],[-122.013187,37.327746],[-122.013144,37.327731],[-122.012922,37.327733],[-122.012928,37.327704],[-122.012945,37.327676],[-122.012996,37.327654],[-122.013737,37.327645],[-122.01364,37.327673],[-122.013557,37.327675],[-122.01352,37.32769],[-122.013508,37.327709],[-122.013501,37.327786],[-122.013464,37.327828],[-122.013415,37.327969],[-122.013425,37.328498],[-122.013337,37.328499],[-122.013325,37.328488]]]]}
  },
  {
   "type": "Feature",
   "properties": {
    "kind": "building",
    "block": "15",
    "label": "Block 15 west office tower",
    "stage": "entitled",
    "height_ft": 198.25,
    "podium_ft": null,
    "base_ft": 0,
    "use": "office",
    "phase": null,
    "illustrative": true,
    "source": "illustrative: footprint traced from The Rise SB 35 modification, Attachment A - Approved Plans (approved Feb 16, 2024), sheet P-0800.05 (PDF p. 82); height to its tallest point from P-0832 (PDF p. 90), section 1 (east Wolfe Road): total height 198'-3\" (roof 379'-3\", 9 office floors over the garage)"
   },
   "geometry": {"type":"MultiPolygon","coordinates":[[[[-122.013988,37.328379],[-122.013941,37.328396],[-122.013601,37.3284],[-122.013595,37.327921],[-122.013644,37.327826],[-122.0137,37.327781],[-122.013767,37.327755],[-122.013998,37.327749],[-122.014008,37.328345],[-122.013988,37.328379]]],[[[-122.013511,37.327706],[-122.013539,37.327683],[-122.01357,37.327675],[-122.013638,37.327674],[-122.013563,37.327717],[-122.013503,37.327784],[-122.013502,37.327736],[-122.013511,37.327706]]]]}
  },
  {
   "type": "Feature",
   "properties": {
    "kind": "building",
    "block": "15",
    "label": "Block 15 middle office tower",
    "stage": "entitled",
    "height_ft": 213.25,
    "podium_ft": null,
    "base_ft": 0,
    "use": "office",
    "phase": null,
    "illustrative": true,
    "source": "illustrative: footprint traced from The Rise SB 35 modification, Attachment A - Approved Plans (approved Feb 16, 2024), sheet P-0800.05 (PDF p. 82); height to its tallest point from P-0832 (PDF p. 90), section 4: 10 office floors; its roof is not labelled, so 394'-3\" is level 16 (377'-9\") plus the 16'-6\" top floor the sheet gives the other two towers, over average grade 181'-0\""
   },
   "geometry": {"type":"MultiPolygon","coordinates":[[[[-122.013203,37.328399],[-122.013147,37.328419],[-122.012834,37.328423],[-122.012793,37.328413],[-122.01276,37.328386],[-122.012753,37.328368],[-122.012742,37.327792],[-122.012752,37.327769],[-122.012786,37.327743],[-122.012814,37.327736],[-122.013144,37.327732],[-122.013176,37.327741],[-122.013203,37.327762],[-122.013216,37.32779],[-122.013225,37.328363],[-122.013203,37.328399]]]]}
  },
  {
   "type": "Feature",
   "properties": {
    "kind": "building",
    "block": "15",
    "label": "Block 15 east office tower",
    "stage": "entitled",
    "height_ft": 228.25,
    "podium_ft": null,
    "base_ft": 0,
    "use": "office",
    "phase": null,
    "illustrative": true,
    "source": "illustrative: footprint traced from The Rise SB 35 modification, Attachment A - Approved Plans (approved Feb 16, 2024), sheet P-0800.05 (PDF p. 82); height to its tallest point from P-0832 (PDF p. 90), sections 2 and 4: total height 228'-3\" (roof 409'-3\", 11 office floors over the garage)"
   },
   "geometry": {"type":"MultiPolygon","coordinates":[[[[-122.012456,37.328466],[-122.012436,37.328484],[-122.012392,37.328498],[-122.012046,37.328502],[-122.01201,37.328494],[-122.011981,37.328472],[-122.01197,37.328443],[-122.011957,37.32779],[-122.011967,37.327761],[-122.011991,37.32774],[-122.012025,37.32773],[-122.012383,37.327725],[-122.012418,37.327734],[-122.012443,37.327755],[-122.012453,37.327784],[-122.012464,37.328439],[-122.012456,37.328466]]]]}
  }
 ]
}
