{
 "type": "FeatureCollection",
 "properties": {
  "project": "moffett-park",
  "summary": "The Moffett Park Specific Plan's ten zoning districts and its ecological combining district (11 zones, 1,158 of the plan area's ~1,270 acres), taken as published from the City of Sunnyvale's zoning GIS layers and clipped to the plan boundary. The ecological combining district is drawn as its own open-space zone over the office and employment districts it overlays. Streets aren't zoned in the source, so they're left out. The plan's FAR, density and height limits (adopted plan Table 2 and Figure 30) aren't shown.",
  "note": "Zoning districts of the adopted 2023 Moffett Park Specific Plan, from Sunnyvale GIS; zones, not buildings.",
  "sourceUrl": "https://gis.sunnyvale.ca.gov/arcgis/rest/services/ZoningLegend/MapServer/2",
  "sourceLabel": "Sunnyvale zoning districts (GIS)",
  "georeference": "GIS as published (Sunnyvale ZoningLegend layers 1 and 2, requested in WGS84); 100.0% of the layer's MP- district area lies inside the plan boundary. Checked by eye against Ordinance 3218-23 Exhibit B, Figure 26 (p. 26).",
  "license": "City of Sunnyvale GIS (no license stated)",
  "documents": [
   "https://gis.sunnyvale.ca.gov/arcgis/rest/services/ZoningLegend/MapServer/2",
   "https://gis.sunnyvale.ca.gov/arcgis/rest/services/ZoningLegend/MapServer/2/query?where=Zoning+LIKE+%27MP-%25%27&outFields=OBJECTID%2CZoning&orderByFields=OBJECTID&outSR=4326&f=geojson",
   "https://gis.sunnyvale.ca.gov/arcgis/rest/services/ZoningLegend/MapServer/1",
   "https://gis.sunnyvale.ca.gov/arcgis/rest/services/ZoningLegend/MapServer/1/query?where=CombiningD+%3D+%27ECD%27&outFields=OBJECTID%2CCombiningD&orderByFields=OBJECTID&outSR=4326&f=geojson",
   "https://legistar.granicus.com/Sunnyvale/attachments/898afbde-8963-4d24-bc5c-90e388ebed42.PDF",
   "https://sunnyvaleca.legistar.com/LegislationDetail.aspx?ID=13874&GUID=69D247EA-029D-4192-99E3-DA5579E0A8EF",
   "https://legistar.granicus.com/Sunnyvale/meetings/2023/7/3762_M_City_Council_23-07-11_Meeting_Minutes.pdf",
   "https://gis.sunnyvale.ca.gov/arcgis/rest/services/GeneralPlan/MapServer/8/query?where=SP_Code+%3D+%27LCC%27&outFields=%2A&outSR=4326&f=geojson"
  ]
 },
 "features": [
  {
   "type": "Feature",
   "properties": {
    "kind": "zone",
    "category": "residential",
    "label": "MP-R residential",
    "district": "MP-R",
    "source": "GIS: Sunnyvale GIS ZoningLegend layer 2 “Zoning District”, query Zoning = 'MP-R'",
    "note": "Very high-density housing (Ordinance 3218-23, Exhibit A, SMC 19.29.050, p. 11–12). Category: residential. 141.5 acres in the plan area as drawn.",
    "stage": "entitled",
    "acres": 141.5
   },
   "geometry": {
    "type": "MultiPolygon",
    "coordinates": [
     [
      [
       [
        -122.0272334,
        37.4069361
       ],
       [
        -122.0272303,
        37.4069312
       ],
       [
        -122.0271058,
        37.4069681
       ],
       [
        -122.0269742,
        37.4069823
       ],
       [
        -122.0268856,
        37.4069787
       ],
       [
        -122.0268883,
        37.4069675
       ],
       [
        -122.0268398,
        37.4069601
       ],
       [
        -122.0268375,
        37.4069718
       ],
       [
        -122.0267467,
        37.4069529
       ],
       [
        -122.0267064,
        37.406875
       ],
       [
        -122.0265581,
        37.4065311
       ],
       [
        -122.0265619,
        37.4065196
       ],
       [
        -122.0264853,
        37.406323
       ],
       [
        -122.0264255,
        37.4061077
       ],
       [
        -122.0275777,
        37.406329
       ],
       [
        -122.0274371,
        37.406744
       ],
       [
        -122.0273981,
        37.4068105
       ],
       [
        -122.0273425,
        37.4068689
       ],
       [
        -122.0272334,
        37.4069361
       ]
      ]
     ],
     [
      [
       [
        -122.0189198,
        37.4081952
       ],
       [
        -122.0167848,
        37.4077401
       ],
       [
        -122.0167211,
        37.4077125
       ],
       [
        -122.0166711,
        37.407662
       ],
       [
        -122.016633,
        37.407636
       ],
       [
        -122.016981,
        37.4065866
       ],
       [
        -122.0182188,
        37.4068506
       ],
       [
        -122.0181348,
        37.407104
       ],
       [
        -122.0193455,
        37.4073622
       ],
       [
        -122.0190959,
        37.4081138
       ],
       [
        -122.0190699,
        37.4081514
       ],
       [
        -122.0190293,
        37.4081797
       ],
       [
        -122.0189737,
        37.4081959
       ],
       [
        -122.0189198,
        37.4081952
       ]
      ]
     ],
     [
      [
       [
        -122.0265461,
        37.4075918
       ],
       [
        -122.0251533,
        37.4080901
       ],
       [
        -122.024863,
        37.4075703
       ],
       [
        -122.0257205,
        37.4073814
       ],
       [
        -122.0258307,
        37.4073494
       ],
       [
        -122.025934,
        37.4073048
       ],
       [
        -122.026028,
        37.4072488
       ],
       [
        -122.0260913,
        37.4071999
       ],
       [
        -122.0262467,
        37.4070365
       ],
       [
        -122.0265461,
        37.4075918
       ]
      ]
     ],
     [
      [
       [
        -122.0134696,
        37.4089645
       ],
       [
        -122.0137397,
        37.4081481
       ],
       [
        -122.0146317,
        37.4083362
       ],
       [
        -122.0145331,
        37.4086336
       ],
       [
        -122.0161925,
        37.4089836
       ],
       [
        -122.0165465,
        37.407918
       ],
       [
        -122.0166571,
        37.4078883
       ],
       [
        -122.016735,
        37.4078887
       ],
       [
        -122.0188659,
        37.4083433
       ],
       [
        -122.0189058,
        37.4083583
       ],
       [
        -122.0189387,
        37.4083816
       ],
       [
        -122.0189622,
        37.4084113
       ],
       [
        -122.0189742,
        37.4084451
       ],
       [
        -122.0189703,
        37.4084932
       ],
       [
        -122.0184661,
        37.4100105
       ],
       [
        -122.0184236,
        37.4100623
       ],
       [
        -122.0183528,
        37.4100875
       ],
       [
        -122.0182991,
        37.4100848
       ],
       [
        -122.0135479,
        37.4090811
       ],
       [
        -122.0135121,
        37.409062
       ],
       [
        -122.0134854,
        37.4090349
       ],
       [
        -122.0134697,
        37.4089989
       ],
       [
        -122.0134696,
        37.4089645
       ]
      ]
     ],
     [
      [
       [
        -122.0146532,
        37.4095
       ],
       [
        -122.0146957,
        37.4094911
       ],
       [
        -122.0147442,
        37.4094942
       ],
       [
        -122.0182542,
        37.4102345
       ],
       [
        -122.018293,
        37.4102495
       ],
       [
        -122.0183211,
        37.4102703
       ],
       [
        -122.018341,
        37.4102965
       ],
       [
        -122.0183515,
        37.4103298
       ],
       [
        -122.0183475,
        37.4103678
       ],
       [
        -122.0180044,
        37.4114006
       ],
       [
        -122.0179893,
        37.4113861
       ],
       [
        -122.0179382,
        37.4114156
       ],
       [
        -122.0178774,
        37.4114292
       ],
       [
        -122.0178268,
        37.4114274
       ],
       [
        -122.017727,
        37.4114067
       ],
       [
        -122.0177323,
        37.4113907
       ],
       [
        -122.0176657,
        37.4113767
       ],
       [
        -122.0176604,
        37.4113926
       ],
       [
        -122.0176447,
        37.4113893
       ],
       [
        -122.0176393,
        37.4114057
       ],
       [
        -122.0172896,
        37.411354
       ],
       [
        -122.0143608,
        37.4107361
       ],
       [
        -122.014317,
        37.4107214
       ],
       [
        -122.0142797,
        37.4106975
       ],
       [
        -122.0142521,
        37.4106663
       ],
       [
        -122.0142365,
        37.4106319
       ],
       [
        -122.0142387,
        37.4105675
       ],
       [
        -122.0145775,
        37.409568
       ],
       [
        -122.0146201,
        37.4095166
       ],
       [
        -122.0146532,
        37.4095
       ]
      ]
     ],
     [
      [
       [
        -122.0220221,
        37.4124423
       ],
       [
        -122.0217901,
        37.4123457
       ],
       [
        -122.0215914,
        37.4122748
       ],
       [
        -122.0213457,
        37.4122065
       ],
       [
        -122.0208741,
        37.4121059
       ],
       [
        -122.0213904,
        37.4105059
       ],
       [
        -122.0227316,
        37.4107904
       ],
       [
        -122.0222053,
        37.4123668
       ],
       [
        -122.0221737,
        37.4124071
       ],
       [
        -122.02213,
        37.4124331
       ],
       [
        -122.0220771,
        37.4124455
       ],
       [
        -122.0220221,
        37.4124423
       ]
      ]
     ],
     [
      [
       [
        -122.0232793,
        37.4132511
       ],
       [
        -122.0236903,
        37.4120187
       ],
       [
        -122.0225988,
        37.4117873
       ],
       [
        -122.0232798,
        37.4097441
       ],
       [
        -122.0251733,
        37.4101468
       ],
       [
        -122.0239721,
        37.4137504
       ],
       [
        -122.0236743,
        37.4136439
       ],
       [
        -122.0236704,
        37.4136484
       ],
       [
        -122.0235668,
        37.4135899
       ],
       [
        -122.0233687,
        37.4134631
       ],
       [
        -122.0231335,
        37.4132744
       ],
       [
        -122.0231571,
        37.4132893
       ],
       [
        -122.023192,
        37.4132974
       ],
       [
        -122.0232279,
        37.4132932
       ],
       [
        -122.0232584,
        37.4132776
       ],
       [
        -122.0232793,
        37.4132511
       ]
      ]
     ],
     [
      [
       [
        -122.0219539,
        37.4128293
       ],
       [
        -122.0219912,
        37.4128723
       ],
       [
        -122.0220069,
        37.4129131
       ],
       [
        -122.0219924,
        37.412915
       ],
       [
        -122.0218118,
        37.4134582
       ],
       [
        -122.0205336,
        37.4131884
       ],
       [
        -122.0207943,
        37.4123996
       ],
       [
        -122.0210908,
        37.4124684
       ],
       [
        -122.0213006,
        37.4125289
       ],
       [
        -122.0216039,
        37.4126413
       ],
       [
        -122.0218908,
        37.4127784
       ],
       [
        -122.0218831,
        37.4127875
       ],
       [
        -122.0219539,
        37.4128293
       ]
      ]
     ],
     [
      [
       [
        -122.0269558,
        37.4181689
       ],
       [
        -122.0268493,
        37.4179567
       ],
       [
        -122.0266272,
        37.417324
       ],
       [
        -122.0265583,
        37.4171639
       ],
       [
        -122.0264405,
        37.416975
       ],
       [
        -122.0263493,
        37.4168638
       ],
       [
        -122.0262437,
        37.4167575
       ],
       [
        -122.0269944,
        37.4162631
       ],
       [
        -122.0271624,
        37.4157283
       ],
       [
        -122.0292047,
        37.4161682
       ],
       [
        -122.0282227,
        37.4190689
       ],
       [
        -122.0279713,
        37.4189897
       ],
       [
        -122.0277426,
        37.4188897
       ],
       [
        -122.0275026,
        37.4187488
       ],
       [
        -122.027332,
        37.4186173
       ],
       [
        -122.0272227,
        37.4185138
       ],
       [
        -122.0271232,
        37.4184042
       ],
       [
        -122.0270341,
        37.418289
       ],
       [
        -122.0269558,
        37.4181689
       ]
      ]
     ],
     [
      [
       [
        -122.0131276,
        37.4090901
       ],
       [
        -122.0131259,
        37.4091324
       ],
       [
        -122.0131416,
        37.4091783
       ],
       [
        -122.0131745,
        37.409218
       ],
       [
        -122.0132159,
        37.4092451
       ],
       [
        -122.0132657,
        37.409262
       ],
       [
        -122.0133195,
        37.409267
       ],
       [
        -122.0133728,
        37.4092596
       ],
       [
        -122.0134511,
        37.4092336
       ],
       [
        -122.0135147,
        37.4092349
       ],
       [
        -122.0143008,
        37.409401
       ],
       [
        -122.0143536,
        37.4094271
       ],
       [
        -122.0143866,
        37.4094692
       ],
       [
        -122.0143941,
        37.4095032
       ],
       [
        -122.0143893,
        37.4095336
       ],
       [
        -122.0140637,
        37.4104945
       ],
       [
        -122.0140328,
        37.4105486
       ],
       [
        -122.0139607,
        37.4105777
       ],
       [
        -122.0138884,
        37.410585
       ],
       [
        -122.0138064,
        37.410569
       ],
       [
        -122.0137213,
        37.410547
       ],
       [
        -122.0137246,
        37.4105392
       ],
       [
        -122.0136925,
        37.41053
       ],
       [
        -122.0136995,
        37.4105145
       ],
       [
        -122.0136283,
        37.4104938
       ],
       [
        -122.0136213,
        37.4105093
       ],
       [
        -122.0135892,
        37.4105
       ],
       [
        -122.0135805,
        37.410518
       ],
       [
        -122.0132735,
        37.4104312
       ],
       [
        -122.0130637,
        37.4103348
       ],
       [
        -122.0128634,
        37.4102263
       ],
       [
        -122.0125956,
        37.4100515
       ],
       [
        -122.0123523,
        37.4098551
       ],
       [
        -122.012142,
        37.4096452
       ],
       [
        -122.0125211,
        37.4085264
       ],
       [
        -122.0133551,
        37.4087062
       ],
       [
        -122.0132765,
        37.4089361
       ],
       [
        -122.0132478,
        37.4089682
       ],
       [
        -122.0131651,
        37.4090228
       ],
       [
        -122.0131411,
        37.4090546
       ],
       [
        -122.0131276,
        37.4090901
       ]
      ]
     ],
     [
      [
       [
        -122.0054943,
        37.4093092
       ],
       [
        -122.0048053,
        37.4114092
       ],
       [
        -122.0039473,
        37.4112294
       ],
       [
        -122.0046398,
        37.4091301
       ],
       [
        -122.0054943,
        37.4093092
       ]
      ]
     ],
     [
      [
       [
        -122.0008401,
        37.4116584
       ],
       [
        -122.0008084,
        37.4115906
       ],
       [
        -122.0007582,
        37.41154
       ],
       [
        -122.000512,
        37.4114092
       ],
       [
        -122.0004095,
        37.4113353
       ],
       [
        -122.0003175,
        37.411253
       ],
       [
        -122.000213,
        37.4111321
       ],
       [
        -122.0001311,
        37.4110005
       ],
       [
        -122.0000735,
        37.4108609
       ],
       [
        -122.0000375,
        37.4106796
       ],
       [
        -122.0000423,
        37.4104961
       ],
       [
        -122.0000756,
        37.4103516
       ],
       [
        -122.0001343,
        37.4102124
       ],
       [
        -122.0002354,
        37.4100507
       ],
       [
        -122.0014758,
        37.4097565
       ],
       [
        -122.0018325,
        37.409832
       ],
       [
        -122.001859,
        37.4098509
       ],
       [
        -122.0018639,
        37.409879
       ],
       [
        -122.0019116,
        37.4098346
       ],
       [
        -122.0019817,
        37.4098018
       ],
       [
        -122.0020536,
        37.4097902
       ],
       [
        -122.0021264,
        37.4097969
       ],
       [
        -122.0021861,
        37.4098177
       ],
       [
        -122.0022307,
        37.4098462
       ],
       [
        -122.0022653,
        37.4098823
       ],
       [
        -122.0022892,
        37.4099273
       ],
       [
        -122.00274,
        37.4100219
       ],
       [
        -122.0029431,
        37.4094061
       ],
       [
        -122.0044692,
        37.409043
       ],
       [
        -122.0037609,
        37.4111901
       ],
       [
        -122.0024462,
        37.4109126
       ],
       [
        -122.0022091,
        37.4116313
       ],
       [
        -122.0019109,
        37.4115691
       ],
       [
        -122.0017642,
        37.4115465
       ],
       [
        -122.0015293,
        37.4115333
       ],
       [
        -122.0012927,
        37.4115477
       ],
       [
        -122.0010613,
        37.4115897
       ],
       [
        -122.0008401,
        37.4116584
       ]
      ]
     ],
     [
      [
       [
        -122.0075791,
        37.4086686
       ],
       [
        -122.0062942,
        37.4125292
       ],
       [
        -122.0053553,
        37.4123304
       ],
       [
        -122.0059935,
        37.4104128
       ],
       [
        -122.0060297,
        37.4101351
       ],
       [
        -122.0065834,
        37.4084577
       ],
       [
        -122.0075791,
        37.4086686
       ]
      ]
     ],
     [
      [
       [
        -122.013798,
        37.410915
       ],
       [
        -122.0138341,
        37.4109453
       ],
       [
        -122.0138639,
        37.4109975
       ],
       [
        -122.0138632,
        37.411067
       ],
       [
        -122.013576,
        37.4119213
       ],
       [
        -122.0117385,
        37.4115271
       ],
       [
        -122.0116485,
        37.4114267
       ],
       [
        -122.0126377,
        37.4104478
       ],
       [
        -122.0129444,
        37.4106047
       ],
       [
        -122.0132084,
        37.410715
       ],
       [
        -122.0134819,
        37.4108094
       ],
       [
        -122.0137635,
        37.4108873
       ],
       [
        -122.0137592,
        37.4108979
       ],
       [
        -122.013798,
        37.410915
       ]
      ]
     ],
     [
      [
       [
        -122.0144201,
        37.4110879
       ],
       [
        -122.014559,
        37.41112
       ],
       [
        -122.0145698,
        37.4110905
       ],
       [
        -122.0149078,
        37.4111469
       ],
       [
        -122.0153732,
        37.4112539
       ],
       [
        -122.0165162,
        37.4114947
       ],
       [
        -122.0162979,
        37.412153
       ],
       [
        -122.0161291,
        37.4121175
       ],
       [
        -122.015678,
        37.4134797
       ],
       [
        -122.0135456,
        37.4130308
       ],
       [
        -122.0135072,
        37.4130154
       ],
       [
        -122.0134801,
        37.4129888
       ],
       [
        -122.0134694,
        37.4129615
       ],
       [
        -122.013472,
        37.4129301
       ],
       [
        -122.0140755,
        37.4111078
       ],
       [
        -122.0141135,
        37.4110514
       ],
       [
        -122.0141252,
        37.411066
       ],
       [
        -122.0142115,
        37.4110417
       ],
       [
        -122.0142576,
        37.4110429
       ],
       [
        -122.014423,
        37.41108
       ],
       [
        -122.0144201,
        37.4110879
       ]
      ]
     ],
     [
      [
       [
        -122.0065801,
        37.4122697
       ],
       [
        -122.0078666,
        37.4125455
       ],
       [
        -122.0080494,
        37.4120038
       ],
       [
        -122.0096068,
        37.4123376
       ],
       [
        -122.009186,
        37.4136043
       ],
       [
        -122.009165,
        37.4136418
       ],
       [
        -122.009133,
        37.413674
       ],
       [
        -122.0090517,
        37.4137133
       ],
       [
        -122.0089938,
        37.4137212
       ],
       [
        -122.0089354,
        37.4137157
       ],
       [
        -122.0063915,
        37.4131757
       ],
       [
        -122.0063565,
        37.4131556
       ],
       [
        -122.0063311,
        37.4131278
       ],
       [
        -122.0063177,
        37.4130952
       ],
       [
        -122.0063176,
        37.4130608
       ],
       [
        -122.0065801,
        37.4122697
       ]
      ]
     ],
     [
      [
       [
        -122.0021824,
        37.4140409
       ],
       [
        -122.0021204,
        37.4139725
       ],
       [
        -122.0021017,
        37.4139287
       ],
       [
        -122.002095,
        37.4138827
       ],
       [
        -122.0021183,
        37.4137766
       ],
       [
        -122.0020749,
        37.4137444
       ],
       [
        -122.0024528,
        37.4125698
       ],
       [
        -122.0042977,
        37.4129565
       ],
       [
        -122.0039824,
        37.4139173
       ],
       [
        -122.0035371,
        37.4144676
       ],
       [
        -122.0029007,
        37.4143356
       ],
       [
        -122.0026793,
        37.4142728
       ],
       [
        -122.002537,
        37.4142206
       ],
       [
        -122.0023331,
        37.4141274
       ],
       [
        -122.0021824,
        37.4140409
       ]
      ]
     ]
    ]
   }
  },
  {
   "type": "Feature",
   "properties": {
    "kind": "zone",
    "category": "mixed-use",
    "label": "MP-MU mixed use",
    "district": "MP-MU",
    "source": "GIS: Sunnyvale GIS ZoningLegend layer 2 “Zoning District”, query Zoning = 'MP-MU'",
    "note": "Standalone residential, standalone office, or mixed-use development (Ordinance 3218-23, Exhibit A, SMC 19.29.050, p. 11–12). Housing here must be built to at least 36 units/acre (City Council motion of July 11, 2023, item 12, minutes p. 12). Category: mixed-use. 142.0 acres in the plan area as drawn.",
    "stage": "entitled",
    "acres": 142.0
   },
   "geometry": {
    "type": "MultiPolygon",
    "coordinates": [
     [
      [
       [
        -122.0232546,
        37.406517
       ],
       [
        -122.0232683,
        37.4063493
       ],
       [
        -122.0233193,
        37.4061374
       ],
       [
        -122.023536,
        37.4054874
       ],
       [
        -122.0243637,
        37.4056534
       ],
       [
        -122.0242119,
        37.4062003
       ],
       [
        -122.0246181,
        37.4074789
       ],
       [
        -122.0235747,
        37.4076918
       ],
       [
        -122.0233166,
        37.4069125
       ],
       [
        -122.0232739,
        37.4067447
       ],
       [
        -122.0232588,
        37.4066312
       ],
       [
        -122.0232546,
        37.406517
       ]
      ]
     ],
     [
      [
       [
        -122.023141,
        37.4069414
       ],
       [
        -122.023387,
        37.4077313
       ],
       [
        -122.0224489,
        37.4079216
       ],
       [
        -122.0222045,
        37.407126
       ],
       [
        -122.023141,
        37.4069414
       ]
      ]
     ],
     [
      [
       [
        -122.0233686,
        37.4088793
       ],
       [
        -122.0219752,
        37.4085838
       ],
       [
        -122.0220316,
        37.4083981
       ],
       [
        -122.0220636,
        37.4083382
       ],
       [
        -122.022106,
        37.4082827
       ],
       [
        -122.0221724,
        37.4082209
       ],
       [
        -122.0222347,
        37.408179
       ],
       [
        -122.022304,
        37.4081446
       ],
       [
        -122.0223787,
        37.4081185
       ],
       [
        -122.0234363,
        37.4078844
       ],
       [
        -122.0234835,
        37.4080496
       ],
       [
        -122.0235052,
        37.4081947
       ],
       [
        -122.0235071,
        37.4083409
       ],
       [
        -122.0234893,
        37.4084864
       ],
       [
        -122.0234518,
        37.4086295
       ],
       [
        -122.0233686,
        37.4088793
       ]
      ]
     ],
     [
      [
       [
        -122.0236976,
        37.4081848
       ],
       [
        -122.0236735,
        37.4080231
       ],
       [
        -122.0236223,
        37.4078435
       ],
       [
        -122.024863,
        37.4075703
       ],
       [
        -122.0251533,
        37.4080901
       ],
       [
        -122.0265402,
        37.4075939
       ],
       [
        -122.0267008,
        37.4079245
       ],
       [
        -122.0267523,
        37.4080575
       ],
       [
        -122.0267914,
        37.4081932
       ],
       [
        -122.0268178,
        37.4083309
       ],
       [
        -122.0268314,
        37.4084697
       ],
       [
        -122.0268322,
        37.4086089
       ],
       [
        -122.0268201,
        37.4087479
       ],
       [
        -122.0267952,
        37.4088857
       ],
       [
        -122.0267576,
        37.4090217
       ],
       [
        -122.0263791,
        37.4101847
       ],
       [
        -122.0263603,
        37.4102156
       ],
       [
        -122.0263303,
        37.4102401
       ],
       [
        -122.0262921,
        37.4102559
       ],
       [
        -122.0262496,
        37.4102612
       ],
       [
        -122.0262493,
        37.4102903
       ],
       [
        -122.026298,
        37.4102949
       ],
       [
        -122.0263521,
        37.4102868
       ],
       [
        -122.0264141,
        37.4102558
       ],
       [
        -122.0264564,
        37.4102025
       ],
       [
        -122.0262835,
        37.4106667
       ],
       [
        -122.0262913,
        37.4106262
       ],
       [
        -122.0262865,
        37.4105784
       ],
       [
        -122.0262707,
        37.4105394
       ],
       [
        -122.0262396,
        37.4104984
       ],
       [
        -122.0261829,
        37.4104569
       ],
       [
        -122.0261125,
        37.4104318
       ],
       [
        -122.0260981,
        37.4104751
       ],
       [
        -122.0261497,
        37.4104886
       ],
       [
        -122.0261907,
        37.4105145
       ],
       [
        -122.0262162,
        37.410551
       ],
       [
        -122.0262222,
        37.4105925
       ],
       [
        -122.0260762,
        37.411052
       ],
       [
        -122.0259835,
        37.4114763
       ],
       [
        -122.0248129,
        37.411228
       ],
       [
        -122.0251733,
        37.4101468
       ],
       [
        -122.0232798,
        37.4097441
       ],
       [
        -122.0236382,
        37.4086691
       ],
       [
        -122.0236799,
        37.4085097
       ],
       [
        -122.0236998,
        37.4083476
       ],
       [
        -122.0236976,
        37.4081848
       ]
      ]
     ],
     [
      [
       [
        -122.0227316,
        37.4107904
       ],
       [
        -122.0213904,
        37.4105059
       ],
       [
        -122.0217059,
        37.4095285
       ],
       [
        -122.0218071,
        37.4091733
       ],
       [
        -122.023174,
        37.4094632
       ],
       [
        -122.0227316,
        37.4107904
       ]
      ]
     ],
     [
      [
       [
        -122.0218118,
        37.4134582
       ],
       [
        -122.0214123,
        37.4146597
       ],
       [
        -122.0201618,
        37.414396
       ],
       [
        -122.0205336,
        37.4131884
       ],
       [
        -122.0218118,
        37.4134582
       ]
      ]
     ],
     [
      [
       [
        -122.0253491,
        37.4163094
       ],
       [
        -122.0248725,
        37.4162156
       ],
       [
        -122.0254172,
        37.4144818
       ],
       [
        -122.0274186,
        37.4149129
       ],
       [
        -122.0269944,
        37.4162631
       ],
       [
        -122.0262437,
        37.4167575
       ],
       [
        -122.0261489,
        37.4166773
       ],
       [
        -122.0259932,
        37.4165681
       ],
       [
        -122.0258364,
        37.4164803
       ],
       [
        -122.0255971,
        37.4163795
       ],
       [
        -122.0253491,
        37.4163094
       ]
      ]
     ],
     [
      [
       [
        -122.0075842,
        37.4092523
       ],
       [
        -122.0079182,
        37.4082489
       ],
       [
        -122.0090819,
        37.4084984
       ],
       [
        -122.0087481,
        37.4095018
       ],
       [
        -122.0075842,
        37.4092523
       ]
      ]
     ],
     [
      [
       [
        -122.021818,
        37.4083513
       ],
       [
        -122.020907,
        37.4111006
       ],
       [
        -122.0184742,
        37.4105869
       ],
       [
        -122.0186605,
        37.4100273
       ],
       [
        -122.0186984,
        37.4099793
       ],
       [
        -122.0187592,
        37.4099498
       ],
       [
        -122.0188026,
        37.4099438
       ],
       [
        -122.0188463,
        37.4099478
       ],
       [
        -122.0196831,
        37.4101228
       ],
       [
        -122.0197394,
        37.4101498
       ],
       [
        -122.019819,
        37.4102238
       ],
       [
        -122.0199034,
        37.4102532
       ],
       [
        -122.0199738,
        37.4102533
       ],
       [
        -122.0200459,
        37.410231
       ],
       [
        -122.0200978,
        37.410193
       ],
       [
        -122.0201318,
        37.4101377
       ],
       [
        -122.0201371,
        37.4100765
       ],
       [
        -122.0201163,
        37.4100232
       ],
       [
        -122.0200738,
        37.4099789
       ],
       [
        -122.0200081,
        37.409947
       ],
       [
        -122.0199182,
        37.409938
       ],
       [
        -122.0197978,
        37.4099719
       ],
       [
        -122.0197321,
        37.4099734
       ],
       [
        -122.0188923,
        37.4097983
       ],
       [
        -122.0188398,
        37.4097764
       ],
       [
        -122.018799,
        37.4097365
       ],
       [
        -122.0187824,
        37.4096912
       ],
       [
        -122.0187869,
        37.4096483
       ],
       [
        -122.0191374,
        37.4085913
       ],
       [
        -122.0223736,
        37.4079368
       ],
       [
        -122.0222152,
        37.407985
       ],
       [
        -122.022073,
        37.4080585
       ],
       [
        -122.0219714,
        37.408137
       ],
       [
        -122.0218747,
        37.4082481
       ],
       [
        -122.021818,
        37.4083513
       ]
      ]
     ],
     [
      [
       [
        -122.0153732,
        37.4112539
       ],
       [
        -122.0149078,
        37.4111469
       ],
       [
        -122.0145698,
        37.4110905
       ],
       [
        -122.014559,
        37.41112
       ],
       [
        -122.0144201,
        37.4110879
       ],
       [
        -122.014423,
        37.41108
       ],
       [
        -122.0142576,
        37.4110429
       ],
       [
        -122.0141855,
        37.4110451
       ],
       [
        -122.0141252,
        37.411066
       ],
       [
        -122.0141135,
        37.4110514
       ],
       [
        -122.0141406,
        37.4110318
       ],
       [
        -122.0142013,
        37.4110094
       ],
       [
        -122.0142741,
        37.4110079
       ],
       [
        -122.0153776,
        37.4112406
       ],
       [
        -122.0153732,
        37.4112539
       ]
      ]
     ],
     [
      [
       [
        -122.0109039,
        37.4092563
       ],
       [
        -122.0109376,
        37.409197
       ],
       [
        -122.0109766,
        37.4091497
       ],
       [
        -122.0110115,
        37.4091214
       ],
       [
        -122.0110509,
        37.4091085
       ],
       [
        -122.0110865,
        37.4091086
       ],
       [
        -122.0111229,
        37.4091201
       ],
       [
        -122.0112629,
        37.4092189
       ],
       [
        -122.0113103,
        37.4092622
       ],
       [
        -122.0114287,
        37.4094205
       ],
       [
        -122.0114202,
        37.4094255
       ],
       [
        -122.0114566,
        37.4094649
       ],
       [
        -122.0114399,
        37.4094748
       ],
       [
        -122.0114858,
        37.4095242
       ],
       [
        -122.0115025,
        37.4095143
       ],
       [
        -122.0115389,
        37.4095536
       ],
       [
        -122.011559,
        37.4095417
       ],
       [
        -122.011769,
        37.4097347
       ],
       [
        -122.0120073,
        37.4099856
       ],
       [
        -122.0122226,
        37.4101726
       ],
       [
        -122.0124092,
        37.4103076
       ],
       [
        -122.0126377,
        37.4104478
       ],
       [
        -122.0116485,
        37.4114267
       ],
       [
        -122.0117385,
        37.4115271
       ],
       [
        -122.013576,
        37.4119213
       ],
       [
        -122.0123995,
        37.4154259
       ],
       [
        -122.0107945,
        37.4150849
       ],
       [
        -122.0108861,
        37.4148077
       ],
       [
        -122.0092021,
        37.4144495
       ],
       [
        -122.0109039,
        37.4092563
       ]
      ]
     ],
     [
      [
       [
        -122.0018621,
        37.4137826
       ],
       [
        -122.0018136,
        37.4137534
       ],
       [
        -122.0016813,
        37.4136069
       ],
       [
        -122.0015542,
        37.4134274
       ],
       [
        -122.000818,
        37.4122272
       ],
       [
        -122.0024528,
        37.4125698
       ],
       [
        -122.0020749,
        37.4137444
       ],
       [
        -122.0020315,
        37.4137123
       ],
       [
        -122.0020025,
        37.4137576
       ],
       [
        -122.0019602,
        37.413782
       ],
       [
        -122.0019134,
        37.4137903
       ],
       [
        -122.0018621,
        37.4137826
       ]
      ]
     ],
     [
      [
       [
        -122.0090328,
        37.4140659
       ],
       [
        -122.0085961,
        37.4153794
       ],
       [
        -122.0085736,
        37.4154161
       ],
       [
        -122.0085404,
        37.4154473
       ],
       [
        -122.0084986,
        37.4154711
       ],
       [
        -122.0084508,
        37.4154858
       ],
       [
        -122.0083999,
        37.4154908
       ],
       [
        -122.0083491,
        37.4154856
       ],
       [
        -122.0050385,
        37.4148048
       ],
       [
        -122.0045684,
        37.4146947
       ],
       [
        -122.0053553,
        37.4123304
       ],
       [
        -122.0062942,
        37.4125292
       ],
       [
        -122.0061303,
        37.4130219
       ],
       [
        -122.0060909,
        37.4130656
       ],
       [
        -122.0060105,
        37.413125
       ],
       [
        -122.0059776,
        37.4131836
       ],
       [
        -122.0059752,
        37.4132373
       ],
       [
        -122.005993,
        37.4132835
       ],
       [
        -122.0060279,
        37.413323
       ],
       [
        -122.0060764,
        37.413352
       ],
       [
        -122.0061271,
        37.4133665
       ],
       [
        -122.006181,
        37.4133692
       ],
       [
        -122.0062272,
        37.4133617
       ],
       [
        -122.0063051,
        37.4133351
       ],
       [
        -122.006363,
        37.4133313
       ],
       [
        -122.0089199,
        37.4138742
       ],
       [
        -122.0089788,
        37.4139069
       ],
       [
        -122.0090201,
        37.4139537
       ],
       [
        -122.0090389,
        37.4140089
       ],
       [
        -122.0090328,
        37.4140659
       ]
      ]
     ],
     [
      [
       [
        -122.0165511,
        37.4157827
       ],
       [
        -122.0127887,
        37.4149889
       ],
       [
        -122.0133579,
        37.4132746
       ],
       [
        -122.0133888,
        37.4132339
       ],
       [
        -122.0134403,
        37.41321
       ],
       [
        -122.013504,
        37.4132096
       ],
       [
        -122.0170636,
        37.4139597
       ],
       [
        -122.0171138,
        37.4139954
       ],
       [
        -122.0171256,
        37.4140225
       ],
       [
        -122.0171251,
        37.4140511
       ],
       [
        -122.0165511,
        37.4157827
       ]
      ]
     ]
    ]
   }
  },
  {
   "type": "Feature",
   "properties": {
    "kind": "zone",
    "category": "mixed-use",
    "label": "MP-AC activity center",
    "district": "MP-AC",
    "source": "GIS: Sunnyvale GIS ZoningLegend layer 2 “Zoning District”, query Zoning = 'MP-AC'",
    "note": "A mix of office, residential and commercial uses, with neighborhood-serving shops, services and entertainment in ground-floor storefronts (Ordinance 3218-23, Exhibit A, SMC 19.29.050, p. 11–12). Category: mixed-use. 74.9 acres in the plan area as drawn.",
    "stage": "entitled",
    "acres": 74.9
   },
   "geometry": {
    "type": "MultiPolygon",
    "coordinates": [
     [
      [
       [
        -122.0094353,
        37.4074068
       ],
       [
        -122.0096287,
        37.4076687
       ],
       [
        -122.0097782,
        37.4078326
       ],
       [
        -122.0099431,
        37.4079869
       ],
       [
        -122.0100316,
        37.4080549
       ],
       [
        -122.0104903,
        37.4083312
       ],
       [
        -122.010555,
        37.4084019
       ],
       [
        -122.0106977,
        37.4086163
       ],
       [
        -122.0107255,
        37.4086713
       ],
       [
        -122.0107398,
        37.4087332
       ],
       [
        -122.0107186,
        37.4089893
       ],
       [
        -122.0096068,
        37.4123376
       ],
       [
        -122.0080494,
        37.4120038
       ],
       [
        -122.0078666,
        37.4125455
       ],
       [
        -122.0065801,
        37.4122697
       ],
       [
        -122.0075842,
        37.4092523
       ],
       [
        -122.0087481,
        37.4095018
       ],
       [
        -122.0093872,
        37.4075695
       ],
       [
        -122.0092278,
        37.4072458
       ],
       [
        -122.0093281,
        37.407223
       ],
       [
        -122.0094353,
        37.4074068
       ]
      ]
     ],
     [
      [
       [
        -122.0184742,
        37.4105869
       ],
       [
        -122.020907,
        37.4111006
       ],
       [
        -122.020593,
        37.4120465
       ],
       [
        -122.0183044,
        37.4115631
       ],
       [
        -122.0182421,
        37.411534
       ],
       [
        -122.0182016,
        37.4114819
       ],
       [
        -122.0181945,
        37.4114477
       ],
       [
        -122.0181996,
        37.4114132
       ],
       [
        -122.0184742,
        37.4105869
       ]
      ]
     ],
     [
      [
       [
        -122.0034371,
        37.4118736
       ],
       [
        -122.0033761,
        37.411875
       ],
       [
        -122.0022091,
        37.4116313
       ],
       [
        -122.0024462,
        37.4109126
       ],
       [
        -122.0037609,
        37.4111901
       ],
       [
        -122.0035647,
        37.4117836
       ],
       [
        -122.003535,
        37.4118262
       ],
       [
        -122.0034938,
        37.4118553
       ],
       [
        -122.0034371,
        37.4118736
       ]
      ]
     ],
     [
      [
       [
        -122.0014889,
        37.4116877
       ],
       [
        -122.0017438,
        37.4116996
       ],
       [
        -122.0018939,
        37.4117242
       ],
       [
        -122.0033423,
        37.4120279
       ],
       [
        -122.0034009,
        37.4120526
       ],
       [
        -122.0034621,
        37.4121094
       ],
       [
        -122.0035042,
        37.4121348
       ],
       [
        -122.0035598,
        37.4121511
       ],
       [
        -122.003619,
        37.4121528
       ],
       [
        -122.00367,
        37.412142
       ],
       [
        -122.0037203,
        37.412117
       ],
       [
        -122.0037549,
        37.4120854
       ],
       [
        -122.0037791,
        37.4120422
       ],
       [
        -122.0037841,
        37.4119832
       ],
       [
        -122.003748,
        37.4118997
       ],
       [
        -122.0037449,
        37.4118462
       ],
       [
        -122.0039473,
        37.4112294
       ],
       [
        -122.0048053,
        37.4114092
       ],
       [
        -122.0042977,
        37.4129565
       ],
       [
        -122.000818,
        37.4122272
       ],
       [
        -122.0007199,
        37.4120672
       ],
       [
        -122.0008488,
        37.4118267
       ],
       [
        -122.0010875,
        37.4117445
       ],
       [
        -122.0012856,
        37.4117045
       ],
       [
        -122.0014889,
        37.4116877
       ]
      ]
     ],
     [
      [
       [
        -122.0171354,
        37.4137788
       ],
       [
        -122.0170987,
        37.4137786
       ],
       [
        -122.015678,
        37.4134797
       ],
       [
        -122.0161291,
        37.4121175
       ],
       [
        -122.0162979,
        37.412153
       ],
       [
        -122.0165162,
        37.4114947
       ],
       [
        -122.0177219,
        37.4117496
       ],
       [
        -122.017786,
        37.4117831
       ],
       [
        -122.0178221,
        37.4118371
       ],
       [
        -122.0178214,
        37.4118982
       ],
       [
        -122.017213,
        37.4137298
       ],
       [
        -122.0171954,
        37.4137521
       ],
       [
        -122.0171667,
        37.4137702
       ],
       [
        -122.0171354,
        37.4137788
       ]
      ]
     ],
     [
      [
       [
        -122.0190561,
        37.4141335
       ],
       [
        -122.0189918,
        37.4141043
       ],
       [
        -122.0189039,
        37.4140952
       ],
       [
        -122.0188531,
        37.4141037
       ],
       [
        -122.0187827,
        37.4141268
       ],
       [
        -122.0187196,
        37.4141258
       ],
       [
        -122.0175528,
        37.4138795
       ],
       [
        -122.0174857,
        37.4138459
       ],
       [
        -122.0174446,
        37.4137919
       ],
       [
        -122.0174362,
        37.4137533
       ],
       [
        -122.0174417,
        37.4137145
       ],
       [
        -122.0180292,
        37.4119179
       ],
       [
        -122.0180714,
        37.4118704
       ],
       [
        -122.0181344,
        37.4118412
       ],
       [
        -122.0181825,
        37.4118346
       ],
       [
        -122.0182309,
        37.411839
       ],
       [
        -122.0204688,
        37.4123062
       ],
       [
        -122.0197377,
        37.4144341
       ],
       [
        -122.0191246,
        37.4143049
       ],
       [
        -122.0191309,
        37.4142757
       ],
       [
        -122.0191256,
        37.4142227
       ],
       [
        -122.0190998,
        37.4141736
       ],
       [
        -122.0190561,
        37.4141335
       ]
      ]
     ],
     [
      [
       [
        -122.0292047,
        37.4161682
       ],
       [
        -122.0271624,
        37.4157283
       ],
       [
        -122.0274186,
        37.4149129
       ],
       [
        -122.0301707,
        37.4155057
       ],
       [
        -122.0289215,
        37.4192132
       ],
       [
        -122.0282227,
        37.4190689
       ],
       [
        -122.0292047,
        37.4161682
       ]
      ]
     ]
    ]
   }
  },
  {
   "type": "Feature",
   "properties": {
    "kind": "zone",
    "category": "office",
    "label": "MP-O1 office 1",
    "district": "MP-O1",
    "source": "GIS: Sunnyvale GIS ZoningLegend layer 2 “Zoning District”, query Zoning = 'MP-O1'",
    "note": "Densification of existing office campuses in the Posolmi and Onizuka neighborhoods; no housing (Ordinance 3218-23, Exhibit A, SMC 19.29.050, p. 11–12). Category: office. In the city's GIS the ecological combining district covers 3.2 of the district's 226.5 acres; that part is drawn as the open-space zone, the rest here. 223.3 acres in the plan area as drawn.",
    "stage": "entitled",
    "acres": 223.3
   },
   "geometry": {
    "type": "MultiPolygon",
    "coordinates": [
     [
      [
       [
        -122.0314877,
        37.4115965
       ],
       [
        -122.0314583,
        37.4116836
       ],
       [
        -122.0266239,
        37.4106423
       ],
       [
        -122.0267147,
        37.4103794
       ],
       [
        -122.0267496,
        37.4104171
       ],
       [
        -122.0267898,
        37.4104426
       ],
       [
        -122.0269079,
        37.410475
       ],
       [
        -122.0273134,
        37.4092266
       ],
       [
        -122.0272782,
        37.409219
       ],
       [
        -122.0273459,
        37.4089919
       ],
       [
        -122.0273748,
        37.4088065
       ],
       [
        -122.0273797,
        37.4086819
       ],
       [
        -122.027373,
        37.4085574
       ],
       [
        -122.0273549,
        37.4084336
       ],
       [
        -122.0273062,
        37.4082508
       ],
       [
        -122.0268636,
        37.4072103
       ],
       [
        -122.026933,
        37.4071882
       ],
       [
        -122.0271258,
        37.407169
       ],
       [
        -122.0271221,
        37.4071561
       ],
       [
        -122.0272643,
        37.4071173
       ],
       [
        -122.0273702,
        37.4070719
       ],
       [
        -122.0274669,
        37.4070145
       ],
       [
        -122.0275321,
        37.4069645
       ],
       [
        -122.0275901,
        37.4069091
       ],
       [
        -122.027655,
        37.4068281
       ],
       [
        -122.0276818,
        37.406785
       ],
       [
        -122.0274557,
        37.4066846
       ],
       [
        -122.0274828,
        37.4066211
       ],
       [
        -122.0277595,
        37.4057693
       ],
       [
        -122.0277896,
        37.4057565
       ],
       [
        -122.0279097,
        37.4056698
       ],
       [
        -122.0279922,
        37.4056311
       ],
       [
        -122.0280812,
        37.4056031
       ],
       [
        -122.0280492,
        37.4057017
       ],
       [
        -122.0281553,
        37.4056736
       ],
       [
        -122.0282852,
        37.405665
       ],
       [
        -122.0283957,
        37.4056786
       ],
       [
        -122.0287036,
        37.4057422
       ],
       [
        -122.0287776,
        37.405747
       ],
       [
        -122.02887,
        37.4057411
       ],
       [
        -122.0289597,
        37.4057219
       ],
       [
        -122.0290742,
        37.4056744
       ],
       [
        -122.0291576,
        37.4056169
       ],
       [
        -122.0292239,
        37.4055465
       ],
       [
        -122.0292803,
        37.4054383
       ],
       [
        -122.0296482,
        37.4043045
       ],
       [
        -122.0297232,
        37.4043202
       ],
       [
        -122.0302448,
        37.4026785
       ],
       [
        -122.0303995,
        37.4027705
       ],
       [
        -122.0307678,
        37.4026958
       ],
       [
        -122.0311397,
        37.4026329
       ],
       [
        -122.0315144,
        37.4025821
       ],
       [
        -122.03227,
        37.4025167
       ],
       [
        -122.0332476,
        37.4024852
       ],
       [
        -122.0332489,
        37.4025123
       ],
       [
        -122.0340382,
        37.4024866
       ],
       [
        -122.0340746,
        37.4033483
       ],
       [
        -122.0340572,
        37.4035368
       ],
       [
        -122.0340358,
        37.4036299
       ],
       [
        -122.0339405,
        37.4038961
       ],
       [
        -122.0339113,
        37.4039443
       ],
       [
        -122.0338539,
        37.4039981
       ],
       [
        -122.0338389,
        37.4040239
       ],
       [
        -122.0337324,
        37.4044751
       ],
       [
        -122.0335326,
        37.4050508
       ],
       [
        -122.0335096,
        37.4050795
       ],
       [
        -122.0334724,
        37.4051029
       ],
       [
        -122.0334274,
        37.4051147
       ],
       [
        -122.0333801,
        37.4051135
       ],
       [
        -122.0331137,
        37.4050189
       ],
       [
        -122.0329447,
        37.4049901
       ],
       [
        -122.0326419,
        37.4049126
       ],
       [
        -122.0325884,
        37.4050775
       ],
       [
        -122.0348335,
        37.4055584
       ],
       [
        -122.0348702,
        37.4054484
       ],
       [
        -122.0348095,
        37.4054284
       ],
       [
        -122.0346882,
        37.405363
       ],
       [
        -122.0346243,
        37.4053373
       ],
       [
        -122.0339972,
        37.4051904
       ],
       [
        -122.0339724,
        37.4051484
       ],
       [
        -122.0339596,
        37.4051031
       ],
       [
        -122.033966,
        37.4050261
       ],
       [
        -122.034121,
        37.4045634
       ],
       [
        -122.0342354,
        37.4043177
       ],
       [
        -122.0343204,
        37.4041686
       ],
       [
        -122.0343374,
        37.4040308
       ],
       [
        -122.0344302,
        37.4037792
       ],
       [
        -122.034478,
        37.4036011
       ],
       [
        -122.0345012,
        37.4034147
       ],
       [
        -122.0345018,
        37.4032897
       ],
       [
        -122.0344756,
        37.4026805
       ],
       [
        -122.0346913,
        37.4026737
       ],
       [
        -122.0347452,
        37.402516
       ],
       [
        -122.035293,
        37.4024959
       ],
       [
        -122.0357753,
        37.4024517
       ],
       [
        -122.0361749,
        37.402379
       ],
       [
        -122.0365616,
        37.4022706
       ],
       [
        -122.0364713,
        37.4020432
       ],
       [
        -122.0364474,
        37.4020124
       ],
       [
        -122.0364064,
        37.4019835
       ],
       [
        -122.0363562,
        37.4019664
       ],
       [
        -122.0363018,
        37.4019627
       ],
       [
        -122.0362486,
        37.4019728
       ],
       [
        -122.0367645,
        37.4016936
       ],
       [
        -122.0367271,
        37.4017316
       ],
       [
        -122.0367229,
        37.40178
       ],
       [
        -122.0368393,
        37.4019918
       ],
       [
        -122.0368949,
        37.4021253
       ],
       [
        -122.0371871,
        37.402032
       ],
       [
        -122.0372067,
        37.4128222
       ],
       [
        -122.0314877,
        37.4115965
       ]
      ]
     ],
     [
      [
       [
        -122.0255713,
        37.4163707
       ],
       [
        -122.0257191,
        37.4164263
       ],
       [
        -122.0259485,
        37.416541
       ],
       [
        -122.026152,
        37.4166797
       ],
       [
        -122.0262647,
        37.4167773
       ],
       [
        -122.0263659,
        37.4168825
       ],
       [
        -122.0265061,
        37.4170718
       ],
       [
        -122.0265838,
        37.4172166
       ],
       [
        -122.0268493,
        37.4179567
       ],
       [
        -122.0269558,
        37.4181689
       ],
       [
        -122.0270341,
        37.418289
       ],
       [
        -122.0271717,
        37.4184597
       ],
       [
        -122.0273925,
        37.4186685
       ],
       [
        -122.0266427,
        37.4192596
       ],
       [
        -122.0263707,
        37.4200968
       ],
       [
        -122.0234834,
        37.4195072
       ],
       [
        -122.0239469,
        37.4181867
       ],
       [
        -122.0240577,
        37.4180931
       ],
       [
        -122.0241553,
        37.4179905
       ],
       [
        -122.0242629,
        37.4178419
       ],
       [
        -122.0243256,
        37.4177232
       ],
       [
        -122.0248558,
        37.4162124
       ],
       [
        -122.0254154,
        37.416325
       ],
       [
        -122.0255713,
        37.4163707
       ]
      ]
     ]
    ]
   }
  },
  {
   "type": "Feature",
   "properties": {
    "kind": "zone",
    "category": "office",
    "label": "MP-O2 office 2",
    "district": "MP-O2",
    "source": "GIS: Sunnyvale GIS ZoningLegend layer 2 “Zoning District”, query Zoning = 'MP-O2'",
    "note": "Higher-intensity corporate and professional office near the activity center, residential and mixed-use districts and transit; no housing (Ordinance 3218-23, Exhibit A, SMC 19.29.050, p. 11–12). Category: office. 177.1 acres in the plan area as drawn.",
    "stage": "entitled",
    "acres": 177.1
   },
   "geometry": {
    "type": "MultiPolygon",
    "coordinates": [
     [
      [
       [
        -122.0246181,
        37.4074789
       ],
       [
        -122.0242119,
        37.4062003
       ],
       [
        -122.0243637,
        37.4056534
       ],
       [
        -122.0244054,
        37.405536
       ],
       [
        -122.0246036,
        37.4054625
       ],
       [
        -122.0245927,
        37.4053296
       ],
       [
        -122.0246773,
        37.4052469
       ],
       [
        -122.0247073,
        37.4051093
       ],
       [
        -122.0248095,
        37.4050649
       ],
       [
        -122.0249185,
        37.4050853
       ],
       [
        -122.0250422,
        37.4051614
       ],
       [
        -122.0251734,
        37.4052871
       ],
       [
        -122.0252892,
        37.40528
       ],
       [
        -122.0253309,
        37.4050178
       ],
       [
        -122.0255216,
        37.4049128
       ],
       [
        -122.0255478,
        37.4048201
       ],
       [
        -122.0258733,
        37.4048752
       ],
       [
        -122.0258576,
        37.4049483
       ],
       [
        -122.0259035,
        37.4049697
       ],
       [
        -122.025926,
        37.4050081
       ],
       [
        -122.0259092,
        37.4051033
       ],
       [
        -122.0258921,
        37.4051014
       ],
       [
        -122.0258812,
        37.4051561
       ],
       [
        -122.0258982,
        37.405158
       ],
       [
        -122.0258643,
        37.4053912
       ],
       [
        -122.025852,
        37.4057431
       ],
       [
        -122.0258391,
        37.4058199
       ],
       [
        -122.0258512,
        37.4059793
       ],
       [
        -122.0258897,
        37.406209
       ],
       [
        -122.025908,
        37.4062064
       ],
       [
        -122.0259213,
        37.4062659
       ],
       [
        -122.02588,
        37.4062566
       ],
       [
        -122.0258817,
        37.4062809
       ],
       [
        -122.0259404,
        37.4062897
       ],
       [
        -122.0259823,
        37.4063271
       ],
       [
        -122.0260772,
        37.4066063
       ],
       [
        -122.0261912,
        37.4068869
       ],
       [
        -122.0259935,
        37.4071017
       ],
       [
        -122.0259118,
        37.4071652
       ],
       [
        -122.0257974,
        37.407225
       ],
       [
        -122.0256698,
        37.4072643
       ],
       [
        -122.0246181,
        37.4074789
       ]
      ]
     ],
     [
      [
       [
        -122.0204855,
        37.4046817
       ],
       [
        -122.0205358,
        37.404663
       ],
       [
        -122.0224784,
        37.4042235
       ],
       [
        -122.0227805,
        37.4041778
       ],
       [
        -122.0235424,
        37.4040909
       ],
       [
        -122.0236032,
        37.404094
       ],
       [
        -122.0236736,
        37.4041224
       ],
       [
        -122.023721,
        37.4041729
       ],
       [
        -122.0237356,
        37.404225
       ],
       [
        -122.0237256,
        37.4043258
       ],
       [
        -122.0236819,
        37.4045049
       ],
       [
        -122.023133,
        37.4061034
       ],
       [
        -122.0231011,
        37.4062311
       ],
       [
        -122.0230813,
        37.4063603
       ],
       [
        -122.0230741,
        37.4065554
       ],
       [
        -122.0230941,
        37.4067499
       ],
       [
        -122.023141,
        37.4069414
       ],
       [
        -122.0222045,
        37.407126
       ],
       [
        -122.0224489,
        37.4079216
       ],
       [
        -122.0191374,
        37.4085913
       ],
       [
        -122.0204152,
        37.4047606
       ],
       [
        -122.0204451,
        37.4047121
       ],
       [
        -122.0204855,
        37.4046817
       ]
      ]
     ],
     [
      [
       [
        -122.0163391,
        37.4077333
       ],
       [
        -122.0163411,
        37.4078034
       ],
       [
        -122.0163819,
        37.4078655
       ],
       [
        -122.0164531,
        37.4079067
       ],
       [
        -122.0164989,
        37.407917
       ],
       [
        -122.0165465,
        37.407918
       ],
       [
        -122.0161925,
        37.4089836
       ],
       [
        -122.0145331,
        37.4086336
       ],
       [
        -122.0146317,
        37.4083362
       ],
       [
        -122.0137397,
        37.4081481
       ],
       [
        -122.0144083,
        37.4061327
       ],
       [
        -122.0144289,
        37.4060974
       ],
       [
        -122.0144678,
        37.4060679
       ],
       [
        -122.0199198,
        37.4048177
       ],
       [
        -122.0199675,
        37.4048124
       ],
       [
        -122.0200094,
        37.4048166
       ],
       [
        -122.0200541,
        37.4048312
       ],
       [
        -122.0200876,
        37.4048517
       ],
       [
        -122.0201139,
        37.404878
       ],
       [
        -122.0201331,
        37.4049133
       ],
       [
        -122.0201393,
        37.4049515
       ],
       [
        -122.0201336,
        37.4049848
       ],
       [
        -122.0193455,
        37.4073622
       ],
       [
        -122.0181348,
        37.407104
       ],
       [
        -122.0182188,
        37.4068506
       ],
       [
        -122.016981,
        37.4065866
       ],
       [
        -122.016633,
        37.407636
       ],
       [
        -122.0166092,
        37.4076255
       ],
       [
        -122.0165234,
        37.4076111
       ],
       [
        -122.0164385,
        37.4076286
       ],
       [
        -122.0163721,
        37.4076742
       ],
       [
        -122.0163391,
        37.4077333
       ]
      ]
     ],
     [
      [
       [
        -122.0248308,
        37.4140367
       ],
       [
        -122.0248033,
        37.4140347
       ],
       [
        -122.0242041,
        37.4138361
       ],
       [
        -122.0242201,
        37.4138057
       ],
       [
        -122.0240176,
        37.4137306
       ],
       [
        -122.0239988,
        37.41376
       ],
       [
        -122.0239721,
        37.4137504
       ],
       [
        -122.0248129,
        37.411228
       ],
       [
        -122.0259835,
        37.4114763
       ],
       [
        -122.0252195,
        37.4138356
       ],
       [
        -122.025158,
        37.4139209
       ],
       [
        -122.0250663,
        37.4139868
       ],
       [
        -122.0249535,
        37.4140267
       ],
       [
        -122.0248308,
        37.4140367
       ]
      ]
     ],
     [
      [
       [
        -122.0222646,
        37.4130961
       ],
       [
        -122.0223176,
        37.4130965
       ],
       [
        -122.0223969,
        37.4131221
       ],
       [
        -122.0224222,
        37.4131393
       ],
       [
        -122.0225925,
        37.4133133
       ],
       [
        -122.0225843,
        37.4133195
       ],
       [
        -122.0226081,
        37.4133395
       ],
       [
        -122.0225931,
        37.4133509
       ],
       [
        -122.0226453,
        37.4133948
       ],
       [
        -122.0226603,
        37.4133834
       ],
       [
        -122.0226839,
        37.4134033
       ],
       [
        -122.0227019,
        37.4133896
       ],
       [
        -122.0230719,
        37.4136621
       ],
       [
        -122.0232724,
        37.4137939
       ],
       [
        -122.0234842,
        37.4139142
       ],
       [
        -122.0237061,
        37.4140221
       ],
       [
        -122.0239371,
        37.4141173
       ],
       [
        -122.0241759,
        37.4141992
       ],
       [
        -122.0245462,
        37.4142962
       ],
       [
        -122.0248905,
        37.414369
       ],
       [
        -122.0249381,
        37.4143891
       ],
       [
        -122.0249789,
        37.4144239
       ],
       [
        -122.0250046,
        37.4144771
       ],
       [
        -122.0250008,
        37.4145341
       ],
       [
        -122.0245324,
        37.4159267
       ],
       [
        -122.0245044,
        37.41597
       ],
       [
        -122.0244592,
        37.4160028
       ],
       [
        -122.0243966,
        37.4160219
       ],
       [
        -122.0243235,
        37.4160193
       ],
       [
        -122.0222249,
        37.4155751
       ],
       [
        -122.0220767,
        37.4155226
       ],
       [
        -122.0219679,
        37.4154661
       ],
       [
        -122.0218478,
        37.4153792
       ],
       [
        -122.0217487,
        37.4152768
       ],
       [
        -122.0216738,
        37.415162
       ],
       [
        -122.0216255,
        37.4150386
       ],
       [
        -122.0216052,
        37.4149102
       ],
       [
        -122.0216135,
        37.414781
       ],
       [
        -122.0216354,
        37.4146951
       ],
       [
        -122.0221514,
        37.4131433
       ],
       [
        -122.0221724,
        37.413114
       ],
       [
        -122.0222019,
        37.4130999
       ],
       [
        -122.0222077,
        37.4131099
       ],
       [
        -122.0222646,
        37.4130961
       ]
      ]
     ],
     [
      [
       [
        -122.0164645,
        37.4166975
       ],
       [
        -122.0172973,
        37.4141554
       ],
       [
        -122.0173157,
        37.4141202
       ],
       [
        -122.0173457,
        37.4140904
       ],
       [
        -122.0174182,
        37.414058
       ],
       [
        -122.0174956,
        37.4140556
       ],
       [
        -122.018662,
        37.414301
       ],
       [
        -122.0187175,
        37.414325
       ],
       [
        -122.0188022,
        37.4143997
       ],
       [
        -122.0188826,
        37.4144266
       ],
       [
        -122.0189627,
        37.4144264
       ],
       [
        -122.0190306,
        37.4144053
       ],
       [
        -122.0190898,
        37.4143624
       ],
       [
        -122.0191246,
        37.4143049
       ],
       [
        -122.0197377,
        37.4144341
       ],
       [
        -122.0187545,
        37.4173204
       ],
       [
        -122.0165697,
        37.41686
       ],
       [
        -122.0165176,
        37.4168349
       ],
       [
        -122.0164796,
        37.4167969
       ],
       [
        -122.0164607,
        37.4167508
       ],
       [
        -122.0164645,
        37.4166975
       ]
      ]
     ],
     [
      [
       [
        -122.0214971,
        37.4152893
       ],
       [
        -122.0215793,
        37.4154006
       ],
       [
        -122.0216805,
        37.4155016
       ],
       [
        -122.0217985,
        37.4155901
       ],
       [
        -122.0219311,
        37.4156644
       ],
       [
        -122.0220754,
        37.4157231
       ],
       [
        -122.0222287,
        37.4157649
       ],
       [
        -122.0242706,
        37.4161953
       ],
       [
        -122.0243331,
        37.4162227
       ],
       [
        -122.0243761,
        37.416268
       ],
       [
        -122.0243916,
        37.4163139
       ],
       [
        -122.0243864,
        37.4163613
       ],
       [
        -122.0239795,
        37.4175712
       ],
       [
        -122.0239281,
        37.4176891
       ],
       [
        -122.0238353,
        37.4178264
       ],
       [
        -122.0237134,
        37.4179484
       ],
       [
        -122.0235665,
        37.4180513
       ],
       [
        -122.023399,
        37.4181318
       ],
       [
        -122.0232163,
        37.4181874
       ],
       [
        -122.023063,
        37.4182128
       ],
       [
        -122.0229068,
        37.4182205
       ],
       [
        -122.0227122,
        37.4182053
       ],
       [
        -122.0200319,
        37.4176439
       ],
       [
        -122.0198321,
        37.4175953
       ],
       [
        -122.0195109,
        37.4174936
       ],
       [
        -122.0192516,
        37.4174247
       ],
       [
        -122.019444,
        37.4167239
       ],
       [
        -122.0201618,
        37.414396
       ],
       [
        -122.0214123,
        37.4146597
       ],
       [
        -122.0213803,
        37.4148191
       ],
       [
        -122.0213782,
        37.4149161
       ],
       [
        -122.0213955,
        37.4150446
       ],
       [
        -122.0214354,
        37.4151698
       ],
       [
        -122.0214971,
        37.4152893
       ]
      ]
     ],
     [
      [
       [
        -122.0119197,
        37.4093592
       ],
       [
        -122.0119402,
        37.4093481
       ],
       [
        -122.0119064,
        37.4093083
       ],
       [
        -122.0119235,
        37.4092991
       ],
       [
        -122.0118811,
        37.409249
       ],
       [
        -122.011864,
        37.4092582
       ],
       [
        -122.0118302,
        37.4092184
       ],
       [
        -122.0118213,
        37.4092232
       ],
       [
        -122.011591,
        37.4089942
       ],
       [
        -122.0114963,
        37.4088754
       ],
       [
        -122.0114161,
        37.4087351
       ],
       [
        -122.0113522,
        37.4085493
       ],
       [
        -122.0113322,
        37.4085522
       ],
       [
        -122.0113242,
        37.4085133
       ],
       [
        -122.0113098,
        37.4083563
       ],
       [
        -122.011324,
        37.4081992
       ],
       [
        -122.0113534,
        37.4080834
       ],
       [
        -122.0114823,
        37.4077524
       ],
       [
        -122.0115234,
        37.4076009
       ],
       [
        -122.0115577,
        37.4073701
       ],
       [
        -122.0115594,
        37.407118
       ],
       [
        -122.0115756,
        37.4070709
       ],
       [
        -122.0116072,
        37.4070348
       ],
       [
        -122.0116514,
        37.4070085
       ],
       [
        -122.0118188,
        37.4069652
       ],
       [
        -122.0119098,
        37.4069324
       ],
       [
        -122.0128517,
        37.4065433
       ],
       [
        -122.0131408,
        37.4064352
       ],
       [
        -122.0134398,
        37.4063458
       ],
       [
        -122.0139091,
        37.406222
       ],
       [
        -122.0139691,
        37.4062168
       ],
       [
        -122.0140331,
        37.4062305
       ],
       [
        -122.0140775,
        37.4062555
       ],
       [
        -122.01411,
        37.4062903
       ],
       [
        -122.0141272,
        37.4063314
       ],
       [
        -122.0141265,
        37.4063796
       ],
       [
        -122.0133551,
        37.4087062
       ],
       [
        -122.0125211,
        37.4085264
       ],
       [
        -122.012142,
        37.4096452
       ],
       [
        -122.0120537,
        37.4095467
       ],
       [
        -122.0120512,
        37.4095326
       ],
       [
        -122.012041,
        37.4095336
       ],
       [
        -122.0119197,
        37.4093592
       ]
      ]
     ],
     [
      [
       [
        -122.0078694,
        37.4077818
       ],
       [
        -122.0075791,
        37.4086686
       ],
       [
        -122.0065834,
        37.4084577
       ],
       [
        -122.0066866,
        37.4081474
       ],
       [
        -122.006679,
        37.4078283
       ],
       [
        -122.0076272,
        37.4076115
       ],
       [
        -122.0077207,
        37.4076156
       ],
       [
        -122.0078023,
        37.4076521
       ],
       [
        -122.0078526,
        37.4077083
       ],
       [
        -122.0078694,
        37.4077818
       ]
      ]
     ],
     [
      [
       [
        -122.0054943,
        37.4093092
       ],
       [
        -122.0046398,
        37.4091301
       ],
       [
        -122.0049142,
        37.408312
       ],
       [
        -122.0049775,
        37.4082429
       ],
       [
        -122.0050691,
        37.4081984
       ],
       [
        -122.0059232,
        37.4080017
       ],
       [
        -122.0054943,
        37.4093092
       ]
      ]
     ],
     [
      [
       [
        -122.0032451,
        37.408644
       ],
       [
        -122.0043934,
        37.4083708
       ],
       [
        -122.0044661,
        37.4083653
       ],
       [
        -122.0045419,
        37.4083847
       ],
       [
        -122.004597,
        37.408423
       ],
       [
        -122.0046298,
        37.4084751
       ],
       [
        -122.0046334,
        37.4085437
       ],
       [
        -122.0044692,
        37.409043
       ],
       [
        -122.0029431,
        37.4094061
       ],
       [
        -122.0031211,
        37.4088665
       ],
       [
        -122.0030935,
        37.4088361
       ],
       [
        -122.0031516,
        37.4087742
       ],
       [
        -122.0031844,
        37.4086874
       ],
       [
        -122.0032089,
        37.4086633
       ],
       [
        -122.0032451,
        37.408644
       ]
      ]
     ],
     [
      [
       [
        -122.0010935,
        37.4090992
       ],
       [
        -122.0012585,
        37.4090303
       ],
       [
        -122.0017643,
        37.4088887
       ],
       [
        -122.0014758,
        37.4097565
       ],
       [
        -122.0002354,
        37.4100507
       ],
       [
        -122.0006951,
        37.4094073
       ],
       [
        -122.0007785,
        37.4093178
       ],
       [
        -122.0009074,
        37.4092107
       ],
       [
        -122.0010935,
        37.4090992
       ]
      ]
     ],
     [
      [
       [
        -122.0120322,
        37.4161637
       ],
       [
        -122.0117277,
        37.4161473
       ],
       [
        -122.0114434,
        37.4161142
       ],
       [
        -122.0111629,
        37.4160649
       ],
       [
        -122.008998,
        37.4156183
       ],
       [
        -122.0089436,
        37.4155988
       ],
       [
        -122.0089081,
        37.4155732
       ],
       [
        -122.008883,
        37.4155408
       ],
       [
        -122.0088692,
        37.4154993
       ],
       [
        -122.0088711,
        37.4154612
       ],
       [
        -122.0092021,
        37.4144495
       ],
       [
        -122.0108861,
        37.4148077
       ],
       [
        -122.0107945,
        37.4150849
       ],
       [
        -122.0123995,
        37.4154259
       ],
       [
        -122.0121836,
        37.4160686
       ],
       [
        -122.0121596,
        37.4161071
       ],
       [
        -122.0121264,
        37.4161349
       ],
       [
        -122.0120849,
        37.4161541
       ],
       [
        -122.0120322,
        37.4161637
       ]
      ]
     ],
     [
      [
       [
        -122.0124555,
        37.4159981
       ],
       [
        -122.0127887,
        37.4149889
       ],
       [
        -122.0165511,
        37.4157827
       ],
       [
        -122.0162615,
        37.4166547
       ],
       [
        -122.0162399,
        37.4166889
       ],
       [
        -122.0162073,
        37.4167169
       ],
       [
        -122.0161663,
        37.4167367
       ],
       [
        -122.01612,
        37.4167467
       ],
       [
        -122.0160545,
        37.4167432
       ],
       [
        -122.0136241,
        37.4162323
       ],
       [
        -122.0132854,
        37.4161835
       ],
       [
        -122.0131221,
        37.4161679
       ],
       [
        -122.0129581,
        37.4161574
       ],
       [
        -122.0126109,
        37.4161508
       ],
       [
        -122.0125468,
        37.4161358
       ],
       [
        -122.0124909,
        37.4160987
       ],
       [
        -122.0124607,
        37.4160512
       ],
       [
        -122.0124555,
        37.4159981
       ]
      ]
     ]
    ]
   }
  },
  {
   "type": "Feature",
   "properties": {
    "kind": "zone",
    "category": "office",
    "label": "MP-E1 mixed employment 1",
    "district": "MP-E1",
    "source": "GIS: Sunnyvale GIS ZoningLegend layer 2 “Zoning District”, query Zoning = 'MP-E1'",
    "note": "Corporate and professional office, light industrial and other non-residential uses in an urban pattern with integrated open space; no housing (Ordinance 3218-23, Exhibit A, SMC 19.29.050, p. 11–12). Category: office, the district's first-named use. 44.1 acres in the plan area as drawn.",
    "stage": "entitled",
    "acres": 44.1
   },
   "geometry": {
    "type": "MultiPolygon",
    "coordinates": [
     [
      [
       [
        -122.0314583,
        37.4116836
       ],
       [
        -122.030269,
        37.4152139
       ],
       [
        -122.0254958,
        37.4141858
       ],
       [
        -122.026068,
        37.4124213
       ],
       [
        -122.0266239,
        37.4106423
       ],
       [
        -122.0314583,
        37.4116836
       ]
      ]
     ]
    ]
   }
  },
  {
   "type": "Feature",
   "properties": {
    "kind": "zone",
    "category": "industrial",
    "label": "MP-E2 mixed employment 2",
    "district": "MP-E2",
    "source": "GIS: Sunnyvale GIS ZoningLegend layer 2 “Zoning District”, query Zoning = 'MP-E2'",
    "note": "A mix of office, R&D and industrial uses; no housing (Ordinance 3218-23, Exhibit A, SMC 19.29.050, p. 11–12). This district is the Lockheed Martin core campus (outlined on Ordinance 3218-23 Figure 26, p. 26; Sunnyvale GIS GeneralPlan layer 8, 'Lockheed Core Campus'). Category: industrial, the closest fit for an office/R&D/industrial employment district. 143.7 acres in the plan area as drawn.",
    "stage": "entitled",
    "acres": 143.7
   },
   "geometry": {
    "type": "MultiPolygon",
    "coordinates": [
     [
      [
       [
        -122.0372305,
        37.4187289
       ],
       [
        -122.0357821,
        37.4230227
       ],
       [
        -122.0344589,
        37.4227614
       ],
       [
        -122.0349732,
        37.4212361
       ],
       [
        -122.0352515,
        37.4212917
       ],
       [
        -122.0354979,
        37.420561
       ],
       [
        -122.0327361,
        37.4200002
       ],
       [
        -122.0289215,
        37.4192132
       ],
       [
        -122.0314877,
        37.4115965
       ],
       [
        -122.0372067,
        37.4128222
       ],
       [
        -122.0372256,
        37.4160407
       ],
       [
        -122.0372305,
        37.4187289
       ]
      ]
     ]
    ]
   }
  },
  {
   "type": "Feature",
   "properties": {
    "kind": "zone",
    "category": "industrial",
    "label": "MP-E3 mixed employment 3",
    "district": "MP-E3",
    "source": "GIS: Sunnyvale GIS ZoningLegend layer 2 “Zoning District”, query Zoning = 'MP-E3'",
    "note": "A mix of office, R&D and light industrial; no housing; the ordinance says MP-E3 shall be combined with the ecological combining district (Ordinance 3218-23, Exhibit A, SMC 19.29.050, p. 11–12). Category: industrial, as for MP-E2. In the city's GIS the ecological combining district covers 96.4 of the district's 147.5 acres; that part is drawn as the open-space zone, the rest here. 51.1 acres in the plan area as drawn.",
    "stage": "entitled",
    "acres": 51.1
   },
   "geometry": {
    "type": "MultiPolygon",
    "coordinates": [
     [
      [
       [
        -122.0276179,
        37.4038808
       ],
       [
        -122.0282161,
        37.4035144
       ],
       [
        -122.0283429,
        37.4034444
       ],
       [
        -122.028476,
        37.4033823
       ],
       [
        -122.0289485,
        37.403198
       ],
       [
        -122.0289985,
        37.4030455
       ],
       [
        -122.0296101,
        37.4028426
       ],
       [
        -122.0302448,
        37.4026785
       ],
       [
        -122.0297232,
        37.4043202
       ],
       [
        -122.0276179,
        37.4038808
       ]
      ]
     ],
     [
      [
       [
        -122.0327361,
        37.4200002
       ],
       [
        -122.0354979,
        37.420561
       ],
       [
        -122.0352515,
        37.4212917
       ],
       [
        -122.0349732,
        37.4212361
       ],
       [
        -122.0344589,
        37.4227614
       ],
       [
        -122.0357821,
        37.4230227
       ],
       [
        -122.0355993,
        37.4235652
       ],
       [
        -122.0285917,
        37.4221988
       ],
       [
        -122.0291538,
        37.4206791
       ],
       [
        -122.0284817,
        37.4205222
       ],
       [
        -122.0289215,
        37.4192132
       ],
       [
        -122.0327361,
        37.4200002
       ]
      ]
     ]
    ]
   }
  },
  {
   "type": "Feature",
   "properties": {
    "kind": "zone",
    "category": "commercial",
    "label": "MP-H hospitality",
    "district": "MP-H",
    "source": "GIS: Sunnyvale GIS ZoningLegend layer 2 “Zoning District”, query Zoning = 'MP-H'",
    "note": "Hotel and hospitality uses; no housing (Ordinance 3218-23, Exhibit A, SMC 19.29.050, p. 11–12). Category: commercial. 18.1 acres in the plan area as drawn.",
    "stage": "entitled",
    "acres": 18.1
   },
   "geometry": {
    "type": "MultiPolygon",
    "coordinates": [
     [
      [
       [
        -122.0239119,
        37.4041644
       ],
       [
        -122.0239306,
        37.4041231
       ],
       [
        -122.0239646,
        37.4040887
       ],
       [
        -122.0240394,
        37.4040566
       ],
       [
        -122.0245016,
        37.4039962
       ],
       [
        -122.0246554,
        37.4039887
       ],
       [
        -122.0248862,
        37.4039946
       ],
       [
        -122.0259773,
        37.404133
       ],
       [
        -122.0260276,
        37.404151
       ],
       [
        -122.026072,
        37.4041846
       ],
       [
        -122.0260971,
        37.4042238
       ],
       [
        -122.0261095,
        37.404278
       ],
       [
        -122.0259815,
        37.4047552
       ],
       [
        -122.0259444,
        37.4047963
       ],
       [
        -122.0258846,
        37.4048135
       ],
       [
        -122.0258733,
        37.4048752
       ],
       [
        -122.0255478,
        37.4048201
       ],
       [
        -122.0255216,
        37.4049128
       ],
       [
        -122.0253309,
        37.4050178
       ],
       [
        -122.0252892,
        37.40528
       ],
       [
        -122.0251734,
        37.4052871
       ],
       [
        -122.0250422,
        37.4051614
       ],
       [
        -122.0249185,
        37.4050853
       ],
       [
        -122.0248095,
        37.4050649
       ],
       [
        -122.0247073,
        37.4051093
       ],
       [
        -122.0246773,
        37.4052469
       ],
       [
        -122.0245927,
        37.4053296
       ],
       [
        -122.0246036,
        37.4054625
       ],
       [
        -122.0244054,
        37.405536
       ],
       [
        -122.0243637,
        37.4056534
       ],
       [
        -122.023536,
        37.4054874
       ],
       [
        -122.0238799,
        37.4044385
       ],
       [
        -122.0238959,
        37.4043547
       ],
       [
        -122.0239119,
        37.4041644
       ]
      ]
     ],
     [
      [
       [
        -122.0109583,
        37.4070795
       ],
       [
        -122.0112296,
        37.4070784
       ],
       [
        -122.0112655,
        37.4070871
       ],
       [
        -122.0112929,
        37.4071076
       ],
       [
        -122.0113128,
        37.4071763
       ],
       [
        -122.0113209,
        37.4073404
       ],
       [
        -122.0113076,
        37.4074632
       ],
       [
        -122.0112778,
        37.4075841
       ],
       [
        -122.0112024,
        37.4078218
       ],
       [
        -122.0111919,
        37.4078197
       ],
       [
        -122.0110735,
        37.4080397
       ],
       [
        -122.0110228,
        37.4081032
       ],
       [
        -122.0109725,
        37.4081179
       ],
       [
        -122.010919,
        37.4081193
       ],
       [
        -122.0107026,
        37.4079481
       ],
       [
        -122.0104815,
        37.407625
       ],
       [
        -122.010366,
        37.4074346
       ],
       [
        -122.0101645,
        37.4070434
       ],
       [
        -122.0103666,
        37.4070364
       ],
       [
        -122.0109583,
        37.4070795
       ]
      ]
     ],
     [
      [
       [
        -122.0082711,
        37.4074636
       ],
       [
        -122.0092278,
        37.4072458
       ],
       [
        -122.0093872,
        37.4075695
       ],
       [
        -122.0090819,
        37.4084984
       ],
       [
        -122.0079182,
        37.4082489
       ],
       [
        -122.0081488,
        37.4075594
       ],
       [
        -122.0081969,
        37.4075009
       ],
       [
        -122.0082711,
        37.4074636
       ]
      ]
     ],
     [
      [
       [
        -122.0027786,
        37.4087653
       ],
       [
        -122.002817,
        37.4088178
       ],
       [
        -122.0028651,
        37.4088497
       ],
       [
        -122.0029299,
        37.4088693
       ],
       [
        -122.0030197,
        37.4088664
       ],
       [
        -122.0030935,
        37.4088361
       ],
       [
        -122.0031211,
        37.4088665
       ],
       [
        -122.00274,
        37.4100219
       ],
       [
        -122.0022892,
        37.4099273
       ],
       [
        -122.0022653,
        37.4098823
       ],
       [
        -122.0022307,
        37.4098462
       ],
       [
        -122.0021861,
        37.4098177
       ],
       [
        -122.0021264,
        37.4097969
       ],
       [
        -122.0020536,
        37.4097902
       ],
       [
        -122.0019817,
        37.4098018
       ],
       [
        -122.0019116,
        37.4098346
       ],
       [
        -122.0018639,
        37.409879
       ],
       [
        -122.001859,
        37.4098509
       ],
       [
        -122.0018325,
        37.409832
       ],
       [
        -122.0014758,
        37.4097565
       ],
       [
        -122.0017643,
        37.4088887
       ],
       [
        -122.0028463,
        37.408586
       ],
       [
        -122.0027858,
        37.4086461
       ],
       [
        -122.0027677,
        37.4087051
       ],
       [
        -122.0027786,
        37.4087653
       ]
      ]
     ],
     [
      [
       [
        -122.0223872,
        37.4126436
       ],
       [
        -122.0223586,
        37.4126128
       ],
       [
        -122.0223472,
        37.4125793
       ],
       [
        -122.0223497,
        37.4125347
       ],
       [
        -122.0225988,
        37.4117873
       ],
       [
        -122.0236903,
        37.4120187
       ],
       [
        -122.0232811,
        37.4132465
       ],
       [
        -122.0232646,
        37.4132723
       ],
       [
        -122.0232389,
        37.4132892
       ],
       [
        -122.0232041,
        37.4132973
       ],
       [
        -122.0231711,
        37.4132941
       ],
       [
        -122.0231421,
        37.4132811
       ],
       [
        -122.0227804,
        37.4129492
       ],
       [
        -122.0225165,
        37.4127405
       ],
       [
        -122.022521,
        37.4127365
       ],
       [
        -122.0223872,
        37.4126436
       ]
      ]
     ]
    ]
   }
  },
  {
   "type": "Feature",
   "properties": {
    "kind": "zone",
    "category": "civic",
    "label": "MP-PF public facilities",
    "district": "MP-PF",
    "source": "GIS: Sunnyvale GIS ZoningLegend layer 2 “Zoning District”, query Zoning = 'MP-PF'",
    "note": "Governmental, public utility and educational buildings and facilities; no housing (Ordinance 3218-23, Exhibit A, SMC 19.29.050, p. 11–12). Category: civic. 42.2 acres in the plan area as drawn.",
    "stage": "entitled",
    "acres": 42.2
   },
   "geometry": {
    "type": "MultiPolygon",
    "coordinates": [
     [
      [
       [
        -122.0347943,
        37.4020915
       ],
       [
        -122.034809,
        37.4021282
       ],
       [
        -122.0348111,
        37.402182
       ],
       [
        -122.0322812,
        37.4022439
       ],
       [
        -122.0316814,
        37.4022755
       ],
       [
        -122.0310858,
        37.4023406
       ],
       [
        -122.0307905,
        37.4023856
       ],
       [
        -122.0302069,
        37.4025004
       ],
       [
        -122.0304536,
        37.4024204
       ],
       [
        -122.0315088,
        37.4021543
       ],
       [
        -122.0333944,
        37.4018619
       ],
       [
        -122.0336228,
        37.4018483
       ],
       [
        -122.0338633,
        37.4018625
       ],
       [
        -122.0340403,
        37.4018922
       ],
       [
        -122.0347225,
        37.4020403
       ],
       [
        -122.034764,
        37.4020606
       ],
       [
        -122.0347943,
        37.4020915
       ]
      ]
     ],
     [
      [
       [
        -122.0262192,
        37.4056515
       ],
       [
        -122.0262265,
        37.4054285
       ],
       [
        -122.0262542,
        37.4052065
       ],
       [
        -122.0263024,
        37.4049868
       ],
       [
        -122.0265308,
        37.4041357
       ],
       [
        -122.0267256,
        37.4041014
       ],
       [
        -122.0268747,
        37.4040654
       ],
       [
        -122.0270202,
        37.4040209
       ],
       [
        -122.027249,
        37.4039298
       ],
       [
        -122.0274992,
        37.4037978
       ],
       [
        -122.028122,
        37.4034164
       ],
       [
        -122.0282597,
        37.4033402
       ],
       [
        -122.0284044,
        37.4032727
       ],
       [
        -122.0289985,
        37.4030455
       ],
       [
        -122.0289485,
        37.403198
       ],
       [
        -122.028476,
        37.4033823
       ],
       [
        -122.0283429,
        37.4034444
       ],
       [
        -122.0282161,
        37.4035144
       ],
       [
        -122.0276179,
        37.4038808
       ],
       [
        -122.0296482,
        37.4043045
       ],
       [
        -122.0292803,
        37.4054383
       ],
       [
        -122.029257,
        37.405494
       ],
       [
        -122.0292142,
        37.405559
       ],
       [
        -122.0291316,
        37.4056376
       ],
       [
        -122.0290431,
        37.4056902
       ],
       [
        -122.0289422,
        37.4057268
       ],
       [
        -122.0288332,
        37.4057451
       ],
       [
        -122.0286853,
        37.4057396
       ],
       [
        -122.0283957,
        37.4056786
       ],
       [
        -122.0283038,
        37.4056659
       ],
       [
        -122.0281736,
        37.4056708
       ],
       [
        -122.0280492,
        37.4057017
       ],
       [
        -122.0280812,
        37.4056031
       ],
       [
        -122.02795,
        37.4056491
       ],
       [
        -122.0278587,
        37.4057015
       ],
       [
        -122.0277874,
        37.4057579
       ],
       [
        -122.0277595,
        37.4057693
       ],
       [
        -122.0275777,
        37.406329
       ],
       [
        -122.0264255,
        37.4061077
       ],
       [
        -122.0264853,
        37.406323
       ],
       [
        -122.0265619,
        37.4065196
       ],
       [
        -122.0264886,
        37.4067399
       ],
       [
        -122.0263948,
        37.4065297
       ],
       [
        -122.0263206,
        37.4063147
       ],
       [
        -122.0262664,
        37.4060958
       ],
       [
        -122.0262326,
        37.4058744
       ],
       [
        -122.0262192,
        37.4056515
       ]
      ]
     ],
     [
      [
       [
        -122.0258755,
        37.4071873
       ],
       [
        -122.0259625,
        37.4071285
       ],
       [
        -122.026022,
        37.4070732
       ],
       [
        -122.0261856,
        37.4068931
       ],
       [
        -122.0262467,
        37.4070365
       ],
       [
        -122.0261108,
        37.4071824
       ],
       [
        -122.0260499,
        37.4072331
       ],
       [
        -122.0259585,
        37.4072918
       ],
       [
        -122.0258307,
        37.4073494
       ],
       [
        -122.0257205,
        37.4073814
       ],
       [
        -122.0236223,
        37.4078435
       ],
       [
        -122.0235747,
        37.4076918
       ],
       [
        -122.0256698,
        37.4072643
       ],
       [
        -122.0257769,
        37.407233
       ],
       [
        -122.0258755,
        37.4071873
       ]
      ]
     ],
     [
      [
       [
        -122.0222026,
        37.4081991
       ],
       [
        -122.0221442,
        37.4082445
       ],
       [
        -122.0220945,
        37.4082961
       ],
       [
        -122.0220316,
        37.4083981
       ],
       [
        -122.0219752,
        37.4085838
       ],
       [
        -122.0233686,
        37.4088793
       ],
       [
        -122.023174,
        37.4094632
       ],
       [
        -122.0218071,
        37.4091733
       ],
       [
        -122.0217059,
        37.4095285
       ],
       [
        -122.0208896,
        37.412058
       ],
       [
        -122.0206091,
        37.4119987
       ],
       [
        -122.0218018,
        37.4083946
       ],
       [
        -122.0218615,
        37.408268
       ],
       [
        -122.0219359,
        37.4081722
       ],
       [
        -122.0220303,
        37.4080882
       ],
       [
        -122.0221416,
        37.4080187
       ],
       [
        -122.0222665,
        37.4079659
       ],
       [
        -122.0223736,
        37.4079368
       ],
       [
        -122.0234083,
        37.4077268
       ],
       [
        -122.0234571,
        37.4078798
       ],
       [
        -122.0223407,
        37.4081305
       ],
       [
        -122.0222686,
        37.4081608
       ],
       [
        -122.0222026,
        37.4081991
       ]
      ]
     ],
     [
      [
       [
        -122.0059935,
        37.4104128
       ],
       [
        -122.0045684,
        37.4146947
       ],
       [
        -122.0043868,
        37.4146522
       ],
       [
        -122.00438,
        37.4146737
       ],
       [
        -122.0042072,
        37.4146386
       ],
       [
        -122.0042273,
        37.414576
       ],
       [
        -122.0038937,
        37.414508
       ],
       [
        -122.0038721,
        37.4145753
       ],
       [
        -122.0036978,
        37.4145424
       ],
       [
        -122.0037267,
        37.4145066
       ],
       [
        -122.0035371,
        37.4144676
       ],
       [
        -122.0039824,
        37.4139173
       ],
       [
        -122.0059232,
        37.4080017
       ],
       [
        -122.006679,
        37.4078283
       ],
       [
        -122.0066866,
        37.4081474
       ],
       [
        -122.0060297,
        37.4101351
       ],
       [
        -122.0059935,
        37.4104128
       ]
      ]
     ],
     [
      [
       [
        -122.0205336,
        37.4131884
       ],
       [
        -122.019444,
        37.4167239
       ],
       [
        -122.0192516,
        37.4174247
       ],
       [
        -122.0187545,
        37.4173204
       ],
       [
        -122.020454,
        37.4123493
       ],
       [
        -122.0207879,
        37.4124198
       ],
       [
        -122.0205336,
        37.4131884
       ]
      ]
     ]
    ]
   }
  },
  {
   "type": "Feature",
   "properties": {
    "kind": "zone",
    "category": "open-space",
    "label": "Ecological combining district",
    "district": "ECD",
    "source": "GIS: Sunnyvale GIS ZoningLegend layer 1 “Combining District”, query CombiningD = 'ECD'",
    "note": "Preserves, expands and enhances green space and biological resources in the plan area's northwest corner, with public access and passive recreation; new commercial, industrial, office and residential uses aren't allowed (Ordinance 3218-23, Exhibit A, SMC 19.29.050(k) and 19.29.060(b), p. 12–13). Overlays MP-O1 (3.2 acres), MP-E3 (96.4 acres). Category: open-space. 99.6 acres in the plan area as drawn.",
    "stage": "entitled",
    "acres": 99.6
   },
   "geometry": {
    "type": "MultiPolygon",
    "coordinates": [
     [
      [
       [
        -122.0234834,
        37.4195072
       ],
       [
        -122.0263707,
        37.4200968
       ],
       [
        -122.0266427,
        37.4192596
       ],
       [
        -122.0273925,
        37.4186685
       ],
       [
        -122.0274693,
        37.4187291
       ],
       [
        -122.0276803,
        37.418857
       ],
       [
        -122.0278279,
        37.4189305
       ],
       [
        -122.0280052,
        37.4190022
       ],
       [
        -122.0281432,
        37.4190472
       ],
       [
        -122.0283089,
        37.4190896
       ],
       [
        -122.0289215,
        37.4192132
       ],
       [
        -122.0284817,
        37.4205222
       ],
       [
        -122.0291538,
        37.4206791
       ],
       [
        -122.0285917,
        37.4221988
       ],
       [
        -122.0355997,
        37.4235638
       ],
       [
        -122.0346705,
        37.426322
       ],
       [
        -122.0270276,
        37.4248335
       ],
       [
        -122.0274856,
        37.4234744
       ],
       [
        -122.0242524,
        37.4225069
       ],
       [
        -122.022661,
        37.4220032
       ],
       [
        -122.0233317,
        37.4199394
       ],
       [
        -122.0234834,
        37.4195072
       ]
      ]
     ]
    ]
   }
  }
 ]
}
