{
 "type": "FeatureCollection",
 "properties": {
  "project": "north-bayshore",
  "summary": "Land-use zones traced from the land use plans in Google's North Bayshore Master Plan (April 2023), approved by the Mountain View City Council in June 2023: office, residential, hotel, public use, open space, parking, the district central plant and two flex classes, clipped to the project area line as the plan draws it. The plan calls these general depictions, so every edge is approximate. Ground-floor active uses, streets, the green loop trail, the Shoreline Amphitheatre and the city's separate Gateway plan are left out. Zones, not buildings.",
  "note": "Land uses from the approved 2023 master plan, approximate; zones, not buildings.",
  "sourceUrl": "https://mountainview.legistar.com/gateway.aspx?M=F&ID=c8cc29fa-61b5-4936-bb9a-6705a30d063c.pdf",
  "sourceLabel": "Master plan land use, 2023 (PDF)",
  "georeference": {
   "plan_4_1_2": {
    "scale_m_per_unit": 0.47124,
    "rotation_deg": 0.402,
    "rms_m": 2.84,
    "controls": [
     {
      "label": "North Shoreline Boulevard / Charleston Road",
      "residual_m": 4.31
     },
     {
      "label": "North Shoreline Boulevard / Space Park Way",
      "residual_m": 1.08
     },
     {
      "label": "North Shoreline Boulevard / Pear Avenue",
      "residual_m": 1.89
     },
     {
      "label": "Huff Avenue / Charleston Road",
      "residual_m": 3.0
     }
    ]
   },
   "plan_4_1_1": {
    "scale_m_per_unit": 1.05836,
    "rotation_deg": 0.377,
    "rms_m": 4.85,
    "controls": [
     {
      "label": "North Shoreline Boulevard / Amphitheatre Parkway",
      "residual_m": 5.7
     },
     {
      "label": "North Shoreline Boulevard / Charleston Road",
      "residual_m": 5.61
     },
     {
      "label": "Marine Way / Casey Avenue",
      "residual_m": 3.66
     },
     {
      "label": "Marine Way / Coast Avenue",
      "residual_m": 4.1
     }
    ]
   }
  },
  "license": "Zones: traced from a public City of Mountain View record (council attachment). Georeference: OpenStreetMap contributors (ODbL 1.0), via Overture Maps.",
  "documents": [
   "https://mountainview.legistar.com/gateway.aspx?M=F&ID=c8cc29fa-61b5-4936-bb9a-6705a30d063c.pdf",
   "https://www.mountainview.gov/our-city/departments/community-development/planning/active-projects/google-projects/north-bayshore-master-plan",
   "https://www.mountainview.gov/home/showpublisheddocument/7175/638254594938830000",
   "https://webapi.legistar.com/v1/mountainview/events/2504/eventitems",
   "https://mountainview.legistar.com/gateway.aspx?M=F&ID=c5d191b7-b2bd-4e61-a167-15b425bc8c98.pdf",
   "https://www.mountainview.gov/home/showpublisheddocument/4406/638214110650830000"
  ]
 },
 "features": [
  {
   "type": "Feature",
   "properties": {
    "kind": "zone",
    "category": "office",
    "label": "Office",
    "stage": "entitled",
    "source": "traced: North Bayshore Master Plan (April 2023), Plan 4.1.2, Land use (core master plan area), p. 33",
    "note": "Office campus blocks; the plan allows 3,117,931 sq ft of office, including 1,814,681 sq ft rebuilt (Table 4.1.1, p. 34). Office buildings 4 to 8 stories (council report, June 13, 2023, p. 4). Approximate: the plan calls its land use parcels general depictions."
   },
   "geometry": {
    "type": "MultiPolygon",
    "coordinates": [
     [
      [
       [
        -122.0792333,
        37.4139133
       ],
       [
        -122.0791534,
        37.4139132
       ],
       [
        -122.0791428,
        37.4139046
       ],
       [
        -122.0791431,
        37.4138197
       ],
       [
        -122.0791165,
        37.4138069
       ],
       [
        -122.0784563,
        37.4138012
       ],
       [
        -122.0784617,
        37.4137545
       ],
       [
        -122.0784777,
        37.413746
       ],
       [
        -122.0785376,
        37.4133682
       ],
       [
        -122.0785537,
        37.4133385
       ],
       [
        -122.0785486,
        37.4132705
       ],
       [
        -122.0785646,
        37.4132705
       ],
       [
        -122.0785859,
        37.4132536
       ],
       [
        -122.0785861,
        37.4132026
       ],
       [
        -122.0786128,
        37.4131984
       ],
       [
        -122.0786129,
        37.4131687
       ],
       [
        -122.0786395,
        37.4131688
       ],
       [
        -122.0786609,
        37.4131348
       ],
       [
        -122.0787356,
        37.4130798
       ],
       [
        -122.078741,
        37.4130543
       ],
       [
        -122.0787837,
        37.4130501
       ],
       [
        -122.078805,
        37.4130332
       ],
       [
        -122.0788051,
        37.4130162
       ],
       [
        -122.0788583,
        37.4130163
       ],
       [
        -122.0788637,
        37.4129951
       ],
       [
        -122.0789223,
        37.4129952
       ],
       [
        -122.0789703,
        37.4129741
       ],
       [
        -122.0790449,
        37.41297
       ],
       [
        -122.0790715,
        37.4129616
       ],
       [
        -122.0790769,
        37.4129488
       ],
       [
        -122.0791141,
        37.4129489
       ],
       [
        -122.0791407,
        37.4129617
       ],
       [
        -122.0791886,
        37.4129618
       ],
       [
        -122.079194,
        37.4129491
       ],
       [
        -122.0792419,
        37.4129535
       ],
       [
        -122.0792333,
        37.4139133
       ]
      ]
     ],
     [
      [
       [
        -122.0742948,
        37.42066
       ],
       [
        -122.0740978,
        37.4206468
       ],
       [
        -122.0739967,
        37.4206211
       ],
       [
        -122.0739755,
        37.420604
       ],
       [
        -122.0739063,
        37.4205911
       ],
       [
        -122.0738797,
        37.4205698
       ],
       [
        -122.0738584,
        37.4205698
       ],
       [
        -122.0738372,
        37.42054
       ],
       [
        -122.073816,
        37.4205315
       ],
       [
        -122.073763,
        37.4204422
       ],
       [
        -122.0737588,
        37.4201321
       ],
       [
        -122.0737695,
        37.4201236
       ],
       [
        -122.0737704,
        37.4198518
       ],
       [
        -122.0737598,
        37.419839
       ],
       [
        -122.0737619,
        37.4192571
       ],
       [
        -122.0750026,
        37.4192599
       ],
       [
        -122.075024,
        37.4192515
       ],
       [
        -122.075078,
        37.4190137
       ],
       [
        -122.0754134,
        37.4190527
       ],
       [
        -122.075424,
        37.4190612
       ],
       [
        -122.0755039,
        37.4190656
       ],
       [
        -122.0755145,
        37.4190742
       ],
       [
        -122.0756582,
        37.4190957
       ],
       [
        -122.075802,
        37.4191045
       ],
       [
        -122.0758127,
        37.4190748
       ],
       [
        -122.0758196,
        37.4186331
       ],
       [
        -122.0768793,
        37.4186397
       ],
       [
        -122.0768806,
        37.4198035
       ],
       [
        -122.0769018,
        37.4198078
       ],
       [
        -122.0769814,
        37.4199099
       ],
       [
        -122.0769813,
        37.4199269
       ],
       [
        -122.0770026,
        37.4199354
       ],
       [
        -122.0770078,
        37.4199652
       ],
       [
        -122.0770397,
        37.4199822
       ],
       [
        -122.0771033,
        37.4200631
       ],
       [
        -122.0771086,
        37.4200886
       ],
       [
        -122.0771404,
        37.4201099
       ],
       [
        -122.0771404,
        37.4201269
       ],
       [
        -122.0771563,
        37.4201311
       ],
       [
        -122.0771722,
        37.4201524
       ],
       [
        -122.0771722,
        37.4201694
       ],
       [
        -122.0771987,
        37.4201865
       ],
       [
        -122.0771987,
        37.4202077
       ],
       [
        -122.0772253,
        37.4202162
       ],
       [
        -122.0772411,
        37.4202503
       ],
       [
        -122.077273,
        37.4202758
       ],
       [
        -122.0772782,
        37.4203013
       ],
       [
        -122.0772942,
        37.4203056
       ],
       [
        -122.0773207,
        37.4203396
       ],
       [
        -122.0773206,
        37.4203651
       ],
       [
        -122.0771449,
        37.420352
       ],
       [
        -122.0767668,
        37.4203511
       ],
       [
        -122.0764685,
        37.4203675
       ],
       [
        -122.0761755,
        37.4204008
       ],
       [
        -122.0761542,
        37.4204093
       ],
       [
        -122.0760903,
        37.4204091
       ],
       [
        -122.0760849,
        37.4204176
       ],
       [
        -122.076037,
        37.420426
       ],
       [
        -122.0756587,
        37.4204719
       ],
       [
        -122.0756161,
        37.4204845
       ],
       [
        -122.0755149,
        37.4204885
       ],
       [
        -122.0755095,
        37.420497
       ],
       [
        -122.0754509,
        37.4205011
       ],
       [
        -122.0754349,
        37.4205096
       ],
       [
        -122.0752059,
        37.4205346
       ],
       [
        -122.0751312,
        37.4205514
       ],
       [
        -122.0750833,
        37.4205513
       ],
       [
        -122.0750673,
        37.4205597
       ],
       [
        -122.0749661,
        37.4205553
       ],
       [
        -122.0749608,
        37.420568
       ],
       [
        -122.0748862,
        37.4205678
       ],
       [
        -122.0748809,
        37.4205806
       ],
       [
        -122.0748169,
        37.4205847
       ],
       [
        -122.0747956,
        37.4205974
       ],
       [
        -122.0746518,
        37.420597
       ],
       [
        -122.0746305,
        37.4206012
       ],
       [
        -122.0746091,
        37.4206224
       ],
       [
        -122.0742948,
        37.42066
       ]
      ]
     ],
     [
      [
       [
        -122.0826075,
        37.420691
       ],
       [
        -122.082533,
        37.4206865
       ],
       [
        -122.0825011,
        37.4206695
       ],
       [
        -122.0824266,
        37.4206608
       ],
       [
        -122.0823574,
        37.4206437
       ],
       [
        -122.0823521,
        37.4206352
       ],
       [
        -122.0821818,
        37.4206178
       ],
       [
        -122.0820806,
        37.4206176
       ],
       [
        -122.0813352,
        37.4205693
       ],
       [
        -122.0810263,
        37.4205941
       ],
       [
        -122.0806322,
        37.4205762
       ],
       [
        -122.0806163,
        37.420555
       ],
       [
        -122.0806216,
        37.4190302
       ],
       [
        -122.0815481,
        37.4190322
       ],
       [
        -122.0815583,
        37.4191894
       ],
       [
        -122.0825594,
        37.4191915
       ],
       [
        -122.0827564,
        37.4192005
       ],
       [
        -122.0827518,
        37.4205638
       ],
       [
        -122.0827463,
        37.4206021
       ],
       [
        -122.0827303,
        37.4206105
       ],
       [
        -122.0827195,
        37.4206445
       ],
       [
        -122.0826822,
        37.4206741
       ],
       [
        -122.0826075,
        37.420691
       ]
      ]
     ],
     [
      [
       [
        -122.0734532,
        37.4207218
       ],
       [
        -122.0730911,
        37.4206912
       ],
       [
        -122.0727133,
        37.4206224
       ],
       [
        -122.0723249,
        37.4205196
       ],
       [
        -122.0718568,
        37.4203572
       ],
       [
        -122.071857,
        37.4203274
       ],
       [
        -122.0720122,
        37.4200942
       ],
       [
        -122.0721462,
        37.4198651
       ],
       [
        -122.0723871,
        37.4194962
       ],
       [
        -122.0725639,
        37.4192035
       ],
       [
        -122.0734958,
        37.4192056
       ],
       [
        -122.0734794,
        37.419316
       ],
       [
        -122.0734787,
        37.4195241
       ],
       [
        -122.0734946,
        37.4195454
       ],
       [
        -122.0734914,
        37.4204373
       ],
       [
        -122.0735072,
        37.4204968
       ],
       [
        -122.0735337,
        37.4205393
       ],
       [
        -122.0735336,
        37.4205606
       ],
       [
        -122.0735495,
        37.4205776
       ],
       [
        -122.0735547,
        37.4206328
       ],
       [
        -122.0735012,
        37.4206964
       ],
       [
        -122.0734746,
        37.4206964
       ],
       [
        -122.0734532,
        37.4207218
       ]
      ]
     ],
     [
      [
       [
        -122.0803499,
        37.4206011
       ],
       [
        -122.079317,
        37.4205351
       ],
       [
        -122.0791893,
        37.4205179
       ],
       [
        -122.0790455,
        37.4205133
       ],
       [
        -122.0785717,
        37.420474
       ],
       [
        -122.0784865,
        37.4204739
       ],
       [
        -122.0783321,
        37.4204608
       ],
       [
        -122.0783108,
        37.420448
       ],
       [
        -122.0782523,
        37.4204436
       ],
       [
        -122.0782097,
        37.4204223
       ],
       [
        -122.0781939,
        37.4203883
       ],
       [
        -122.0781956,
        37.4198913
       ],
       [
        -122.0782065,
        37.4198107
       ],
       [
        -122.0782172,
        37.4197937
       ],
       [
        -122.0782598,
        37.4197938
       ],
       [
        -122.0792661,
        37.4198512
       ],
       [
        -122.0792771,
        37.4197408
       ],
       [
        -122.0803369,
        37.4197431
       ],
       [
        -122.0803528,
        37.4197644
       ],
       [
        -122.0803527,
        37.4197984
       ],
       [
        -122.0803366,
        37.4198196
       ],
       [
        -122.0803349,
        37.4203123
       ],
       [
        -122.0803508,
        37.4203335
       ],
       [
        -122.0803499,
        37.4206011
       ]
      ]
     ]
    ]
   }
  },
  {
   "type": "Feature",
   "properties": {
    "kind": "zone",
    "category": "residential",
    "label": "Residential",
    "stage": "entitled",
    "source": "traced: North Bayshore Master Plan (April 2023), Plan 4.1.2, Land use (core master plan area), p. 33",
    "note": "Up to 7,000 homes across the plan (Table 4.1.1, p. 34), 5 to 15 stories (council report, p. 4). Hatched block edges in the figure mark ground-floor active uses. Approximate: the plan calls its land use parcels general depictions."
   },
   "geometry": {
    "type": "MultiPolygon",
    "coordinates": [
     [
      [
       [
        -122.0783982,
        37.4152027
       ],
       [
        -122.0783609,
        37.4152026
       ],
       [
        -122.0783503,
        37.4151729
       ],
       [
        -122.0783563,
        37.4149945
       ],
       [
        -122.0783457,
        37.4149817
       ],
       [
        -122.0783364,
        37.4145994
       ],
       [
        -122.078347,
        37.414591
       ],
       [
        -122.0783422,
        37.4144338
       ],
       [
        -122.0783533,
        37.4143192
       ],
       [
        -122.0791201,
        37.4143208
       ],
       [
        -122.079124,
        37.4147159
       ],
       [
        -122.0790226,
        37.4147878
       ],
       [
        -122.078996,
        37.4147878
       ],
       [
        -122.0789853,
        37.414809
       ],
       [
        -122.078964,
        37.4148089
       ],
       [
        -122.0789586,
        37.4148259
       ],
       [
        -122.0789319,
        37.4148471
       ],
       [
        -122.0788305,
        37.4149148
       ],
       [
        -122.0788145,
        37.4149148
       ],
       [
        -122.0787985,
        37.414936
       ],
       [
        -122.0787772,
        37.414936
       ],
       [
        -122.0787558,
        37.4149656
       ],
       [
        -122.0786544,
        37.4150334
       ],
       [
        -122.0786224,
        37.4150333
       ],
       [
        -122.0786117,
        37.4150588
       ],
       [
        -122.0785904,
        37.4150587
       ],
       [
        -122.078585,
        37.4150757
       ],
       [
        -122.0785529,
        37.4151011
       ],
       [
        -122.0784569,
        37.4151646
       ],
       [
        -122.0784356,
        37.4151646
       ],
       [
        -122.0784195,
        37.4151858
       ],
       [
        -122.0783982,
        37.41519
       ],
       [
        -122.0783982,
        37.4152027
       ]
      ]
     ],
     [
      [
       [
        -122.0820518,
        37.4165571
       ],
       [
        -122.0817537,
        37.4165394
       ],
       [
        -122.0817486,
        37.4164502
       ],
       [
        -122.0817593,
        37.4164503
       ],
       [
        -122.08177,
        37.4164333
       ],
       [
        -122.0817658,
        37.4160935
       ],
       [
        -122.0817499,
        37.416085
       ],
       [
        -122.0817501,
        37.416017
       ],
       [
        -122.0816809,
        37.4160126
       ],
       [
        -122.0816756,
        37.4160027
       ],
       [
        -122.0816806,
        37.4145345
       ],
       [
        -122.0817179,
        37.4145346
       ],
       [
        -122.0817816,
        37.4145942
       ],
       [
        -122.0817815,
        37.414607
       ],
       [
        -122.0818081,
        37.4146198
       ],
       [
        -122.0818559,
        37.4146666
       ],
       [
        -122.0818665,
        37.4146878
       ],
       [
        -122.0818931,
        37.4147006
       ],
       [
        -122.0819674,
        37.4147688
       ],
       [
        -122.0820365,
        37.4148114
       ],
       [
        -122.0820577,
        37.4148369
       ],
       [
        -122.0821586,
        37.4148966
       ],
       [
        -122.0821054,
        37.4164553
       ],
       [
        -122.0820998,
        37.4165359
       ],
       [
        -122.0820518,
        37.4165571
       ]
      ]
     ],
     [
      [
       [
        -122.0795067,
        37.4164836
       ],
       [
        -122.0791766,
        37.4164744
       ],
       [
        -122.0791606,
        37.4164658
       ],
       [
        -122.0789689,
        37.4164569
       ],
       [
        -122.0789477,
        37.4164484
       ],
       [
        -122.0789478,
        37.4164187
       ],
       [
        -122.0789105,
        37.4164101
       ],
       [
        -122.0783941,
        37.4163835
       ],
       [
        -122.0783728,
        37.4163707
       ],
       [
        -122.0783732,
        37.4162602
       ],
       [
        -122.0783839,
        37.4162518
       ],
       [
        -122.078384,
        37.4162305
       ],
       [
        -122.0783738,
        37.4160903
       ],
       [
        -122.0783846,
        37.4160352
       ],
       [
        -122.0783743,
        37.4159587
       ],
       [
        -122.0783902,
        37.4159545
       ],
       [
        -122.0783956,
        37.4159417
       ],
       [
        -122.0786139,
        37.4159422
       ],
       [
        -122.0792103,
        37.415952
       ],
       [
        -122.0792156,
        37.415969
       ],
       [
        -122.0792422,
        37.4159733
       ],
       [
        -122.0792954,
        37.4159734
       ],
       [
        -122.0793061,
        37.4159565
       ],
       [
        -122.0798013,
        37.4159661
       ],
       [
        -122.0798013,
        37.4159788
       ],
       [
        -122.0798172,
        37.4159873
       ],
       [
        -122.079816,
        37.4163483
       ],
       [
        -122.0798053,
        37.4163526
       ],
       [
        -122.0798051,
        37.4164248
       ],
       [
        -122.0796186,
        37.4164499
       ],
       [
        -122.0795067,
        37.4164836
       ]
      ]
     ],
     [
      [
       [
        -122.080328,
        37.4176746
       ],
       [
        -122.078395,
        37.4176747
       ],
       [
        -122.0783577,
        37.4176576
       ],
       [
        -122.0783259,
        37.4176278
       ],
       [
        -122.0783271,
        37.417288
       ],
       [
        -122.0783378,
        37.4172668
       ],
       [
        -122.0783698,
        37.4172456
       ],
       [
        -122.0785509,
        37.4172248
       ],
       [
        -122.0786948,
        37.4171954
       ],
       [
        -122.0787322,
        37.4171785
       ],
       [
        -122.0787322,
        37.4171615
       ],
       [
        -122.0787855,
        37.4171616
       ],
       [
        -122.0788014,
        37.4171786
       ],
       [
        -122.0789079,
        37.4171703
       ],
       [
        -122.0789132,
        37.4171831
       ],
       [
        -122.0789505,
        37.4171874
       ],
       [
        -122.0792699,
        37.4172009
       ],
       [
        -122.0792764,
        37.4168696
       ],
       [
        -122.0794258,
        37.4167765
       ],
       [
        -122.0796231,
        37.4166962
       ],
       [
        -122.079767,
        37.4166668
       ],
       [
        -122.0798469,
        37.4166585
       ],
       [
        -122.0800759,
        37.416659
       ],
       [
        -122.0803101,
        37.4166722
       ],
       [
        -122.0803473,
        37.4166893
       ],
       [
        -122.0803579,
        37.4167106
       ],
       [
        -122.0803547,
        37.4176365
       ],
       [
        -122.080328,
        37.4176746
       ]
      ]
     ],
     [
      [
       [
        -122.0827349,
        37.4176799
       ],
       [
        -122.0816486,
        37.4176818
       ],
       [
        -122.0816487,
        37.4176563
       ],
       [
        -122.0816753,
        37.4176521
       ],
       [
        -122.0816754,
        37.4176351
       ],
       [
        -122.0816914,
        37.4176181
       ],
       [
        -122.0816925,
        37.4172996
       ],
       [
        -122.0816824,
        37.4171382
       ],
       [
        -122.0816878,
        37.4171254
       ],
       [
        -122.0817038,
        37.4171212
       ],
       [
        -122.0816987,
        37.4170533
       ],
       [
        -122.0816881,
        37.4170405
       ],
       [
        -122.0816886,
        37.4168833
       ],
       [
        -122.0816886,
        37.4168706
       ],
       [
        -122.0817047,
        37.4168579
       ],
       [
        -122.0817048,
        37.4168239
       ],
       [
        -122.0816889,
        37.4167984
       ],
       [
        -122.0816676,
        37.4167983
       ],
       [
        -122.081641,
        37.4167771
       ],
       [
        -122.0816411,
        37.4167516
       ],
       [
        -122.0826633,
        37.4168132
       ],
       [
        -122.0827112,
        37.4168218
       ],
       [
        -122.0827165,
        37.4168346
       ],
       [
        -122.0827431,
        37.4168431
       ],
       [
        -122.0827643,
        37.4168729
       ],
       [
        -122.0827616,
        37.4176544
       ],
       [
        -122.0827349,
        37.4176799
       ]
      ]
     ],
     [
      [
       [
        -122.0792121,
        37.4185387
       ],
       [
        -122.0783015,
        37.4185324
       ],
       [
        -122.0783022,
        37.4183285
       ],
       [
        -122.0783128,
        37.4183243
       ],
       [
        -122.0783132,
        37.4182266
       ],
       [
        -122.078324,
        37.4181757
       ],
       [
        -122.0783249,
        37.4179039
       ],
       [
        -122.0783464,
        37.4178657
       ],
       [
        -122.0783677,
        37.417853
       ],
       [
        -122.0784157,
        37.4178488
       ],
       [
        -122.0792304,
        37.4178506
       ],
       [
        -122.0792281,
        37.4185302
       ],
       [
        -122.0792121,
        37.4185387
       ]
      ]
     ],
     [
      [
       [
        -122.0827523,
        37.4188394
       ],
       [
        -122.0818044,
        37.4188374
       ],
       [
        -122.0817997,
        37.4186632
       ],
       [
        -122.0817891,
        37.4186547
       ],
       [
        -122.0808944,
        37.4186528
       ],
       [
        -122.0808626,
        37.418623
       ],
       [
        -122.0808361,
        37.4185719
       ],
       [
        -122.0808257,
        37.4185209
       ],
       [
        -122.0808262,
        37.4183553
       ],
       [
        -122.0808157,
        37.4183213
       ],
       [
        -122.080768,
        37.4182575
       ],
       [
        -122.0807681,
        37.4182278
       ],
       [
        -122.0806883,
        37.4181894
       ],
       [
        -122.0806244,
        37.418185
       ],
       [
        -122.0806255,
        37.4178792
       ],
       [
        -122.0806522,
        37.417858
       ],
       [
        -122.0806788,
        37.4178538
       ],
       [
        -122.0827077,
        37.4178582
       ],
       [
        -122.0827396,
        37.4178668
       ],
       [
        -122.0827608,
        37.417905
       ],
       [
        -122.0827523,
        37.4188394
       ]
      ]
     ],
     [
      [
       [
        -122.0803538,
        37.4194628
       ],
       [
        -122.0792675,
        37.4194605
       ],
       [
        -122.0792409,
        37.4194477
       ],
       [
        -122.0792415,
        37.4192693
       ],
       [
        -122.0792575,
        37.4192651
       ],
       [
        -122.0792575,
        37.4192481
       ],
       [
        -122.0792577,
        37.4192013
       ],
       [
        -122.0792417,
        37.4191971
       ],
       [
        -122.0792427,
        37.4189295
       ],
       [
        -122.0792587,
        37.4189253
       ],
       [
        -122.079275,
        37.4188191
       ],
       [
        -122.0793123,
        37.4188022
       ],
       [
        -122.0803507,
        37.4188045
       ],
       [
        -122.0803538,
        37.4194628
       ]
      ]
     ],
     [
      [
       [
        -122.0777703,
        37.4196823
       ],
       [
        -122.0770088,
        37.4196848
       ],
       [
        -122.0770124,
        37.4186358
       ],
       [
        -122.0777792,
        37.4186374
       ],
       [
        -122.0778324,
        37.4186588
       ],
       [
        -122.0778427,
        37.418765
       ],
       [
        -122.0778413,
        37.4191558
       ],
       [
        -122.0778249,
        37.4192959
       ],
       [
        -122.077814,
        37.4193511
       ],
       [
        -122.0778034,
        37.4193596
       ],
       [
        -122.0778085,
        37.4194233
       ],
       [
        -122.0777923,
        37.4194827
       ],
       [
        -122.0777703,
        37.4196823
       ]
      ]
     ],
     [
      [
       [
        -122.0740798,
        37.416684
       ],
       [
        -122.0739413,
        37.4166837
       ],
       [
        -122.0739253,
        37.4166794
       ],
       [
        -122.0739201,
        37.4166666
       ],
       [
        -122.0738402,
        37.4166664
       ],
       [
        -122.0738295,
        37.4166834
       ],
       [
        -122.0736804,
        37.4166831
       ],
       [
        -122.0736698,
        37.4166661
       ],
       [
        -122.07351,
        37.4166657
       ],
       [
        -122.0734888,
        37.4166444
       ],
       [
        -122.0734899,
        37.4163429
       ],
       [
        -122.0734686,
        37.4163343
       ],
       [
        -122.0734708,
        37.4157015
       ],
       [
        -122.0734922,
        37.415693
       ],
       [
        -122.0734923,
        37.415659
       ],
       [
        -122.073471,
        37.4156462
       ],
       [
        -122.0734769,
        37.4154976
       ],
       [
        -122.0741797,
        37.4155247
       ],
       [
        -122.0742542,
        37.4155291
       ],
       [
        -122.0742648,
        37.4155376
       ],
       [
        -122.0742645,
        37.4156268
       ],
       [
        -122.0742911,
        37.4156481
       ],
       [
        -122.0742906,
        37.4157925
       ],
       [
        -122.0742639,
        37.4158137
       ],
       [
        -122.0742628,
        37.4161195
       ],
       [
        -122.0742893,
        37.4161408
       ],
       [
        -122.0742884,
        37.4164168
       ],
       [
        -122.0742724,
        37.4164253
       ],
       [
        -122.0742722,
        37.4164593
       ],
       [
        -122.0742882,
        37.4164678
       ],
       [
        -122.0742821,
        37.4166717
       ],
       [
        -122.0741065,
        37.4166628
       ],
       [
        -122.0740798,
        37.416684
       ]
      ]
     ],
     [
      [
       [
        -122.0778764,
        37.4167136
       ],
       [
        -122.0778232,
        37.4167135
       ],
       [
        -122.0778179,
        37.4167007
       ],
       [
        -122.0777966,
        37.4166964
       ],
       [
        -122.0776262,
        37.4167003
       ],
       [
        -122.0776208,
        37.4167131
       ],
       [
        -122.0773812,
        37.4167125
       ],
       [
        -122.07736,
        37.4166955
       ],
       [
        -122.0773174,
        37.4166954
       ],
       [
        -122.077312,
        37.4167081
       ],
       [
        -122.0772853,
        37.4167123
       ],
       [
        -122.0772481,
        37.4167122
       ],
       [
        -122.0772375,
        37.4166952
       ],
       [
        -122.0771416,
        37.416695
       ],
       [
        -122.0771363,
        37.4167077
       ],
       [
        -122.0769605,
        37.4167073
       ],
       [
        -122.0769553,
        37.4166946
       ],
       [
        -122.0768594,
        37.4166944
       ],
       [
        -122.0768434,
        37.4167071
       ],
       [
        -122.0767795,
        37.4167069
       ],
       [
        -122.0767689,
        37.4166942
       ],
       [
        -122.0767263,
        37.4166941
       ],
       [
        -122.0766996,
        37.4167068
       ],
       [
        -122.0765718,
        37.4167022
       ],
       [
        -122.0765718,
        37.4166937
       ],
       [
        -122.0765506,
        37.4166895
       ],
       [
        -122.0765453,
        37.4166767
       ],
       [
        -122.0765462,
        37.4164219
       ],
       [
        -122.0765675,
        37.4164177
       ],
       [
        -122.0765677,
        37.416354
       ],
       [
        -122.0765464,
        37.4163497
       ],
       [
        -122.0765527,
        37.4160863
       ],
       [
        -122.0765686,
        37.4160864
       ],
       [
        -122.076574,
        37.4160736
       ],
       [
        -122.076606,
        37.4160737
       ],
       [
        -122.0766059,
        37.4160822
       ],
       [
        -122.0766272,
        37.4160907
       ],
       [
        -122.076771,
        37.4160911
       ],
       [
        -122.0767817,
        37.4160783
       ],
       [
        -122.0768136,
        37.4160784
       ],
       [
        -122.0768242,
        37.4160954
       ],
       [
        -122.0768828,
        37.4160998
       ],
       [
        -122.076952,
        37.4161
       ],
       [
        -122.0769574,
        37.4160872
       ],
       [
        -122.0770213,
        37.4160874
       ],
       [
        -122.0770372,
        37.4161044
       ],
       [
        -122.0770798,
        37.4161045
       ],
       [
        -122.0770905,
        37.4160918
       ],
       [
        -122.0771224,
        37.4160918
       ],
       [
        -122.0771277,
        37.4161088
       ],
       [
        -122.0771703,
        37.4161089
       ],
       [
        -122.077181,
        37.4160962
       ],
       [
        -122.0772396,
        37.4160963
       ],
       [
        -122.0772501,
        37.4161176
       ],
       [
        -122.0773566,
        37.4161178
       ],
       [
        -122.077362,
        37.4161094
       ],
       [
        -122.0773939,
        37.4161094
       ],
       [
        -122.0773992,
        37.4161222
       ],
       [
        -122.0774844,
        37.4161266
       ],
       [
        -122.0774898,
        37.4161139
       ],
       [
        -122.0775217,
        37.416114
       ],
       [
        -122.077527,
        37.4161267
       ],
       [
        -122.0775696,
        37.4161311
       ],
       [
        -122.0776069,
        37.4161311
       ],
       [
        -122.0776122,
        37.4161184
       ],
       [
        -122.0776548,
        37.4161185
       ],
       [
        -122.0776601,
        37.4161313
       ],
       [
        -122.0776814,
        37.4161355
       ],
       [
        -122.0777346,
        37.4161357
       ],
       [
        -122.07774,
        37.4161229
       ],
       [
        -122.0778092,
        37.4161231
       ],
       [
        -122.0778198,
        37.4161401
       ],
       [
        -122.0778358,
        37.4161444
       ],
       [
        -122.0778944,
        37.4161445
       ],
       [
        -122.0778924,
        37.4167009
       ],
       [
        -122.0778765,
        37.4167051
       ],
       [
        -122.0778764,
        37.4167136
       ]
      ]
     ],
     [
      [
       [
        -122.0767592,
        37.4179344
       ],
       [
        -122.076051,
        37.4179286
       ],
       [
        -122.0760533,
        37.4172787
       ],
       [
        -122.07608,
        37.4172533
       ],
       [
        -122.0763463,
        37.4172497
       ],
       [
        -122.0763569,
        37.4172582
       ],
       [
        -122.0767829,
        37.4172591
       ],
       [
        -122.0767806,
        37.4179217
       ],
       [
        -122.0767592,
        37.4179344
       ]
      ]
     ],
     [
      [
       [
        -122.0752682,
        37.4179311
       ],
       [
        -122.0746931,
        37.4179298
       ],
       [
        -122.0744535,
        37.417908
       ],
       [
        -122.0742301,
        37.4178481
       ],
       [
        -122.0742142,
        37.4178268
       ],
       [
        -122.0741291,
        37.4178096
       ],
       [
        -122.0740812,
        37.4177883
       ],
       [
        -122.0740759,
        37.4177755
       ],
       [
        -122.0740227,
        37.4177669
       ],
       [
        -122.073927,
        37.4177285
       ],
       [
        -122.0739164,
        37.4177157
       ],
       [
        -122.0738898,
        37.4177156
       ],
       [
        -122.073794,
        37.4176772
       ],
       [
        -122.0737888,
        37.4176644
       ],
       [
        -122.0737675,
        37.4176559
       ],
       [
        -122.0737689,
        37.4172524
       ],
       [
        -122.0738009,
        37.4172312
       ],
       [
        -122.074211,
        37.4172322
       ],
       [
        -122.0742213,
        37.4173086
       ],
       [
        -122.0742373,
        37.4173129
       ],
       [
        -122.0742418,
        37.4175593
       ],
       [
        -122.074524,
        37.4175599
       ],
       [
        -122.0745399,
        37.4175769
       ],
       [
        -122.0746091,
        37.4175813
       ],
       [
        -122.074657,
        37.4175814
       ],
       [
        -122.0746624,
        37.4175645
       ],
       [
        -122.0748275,
        37.4175648
       ],
       [
        -122.0748275,
        37.4175776
       ],
       [
        -122.0748434,
        37.4175819
       ],
       [
        -122.074902,
        37.417582
       ],
       [
        -122.0749074,
        37.417565
       ],
       [
        -122.0752003,
        37.4175657
       ],
       [
        -122.0752109,
        37.4175827
       ],
       [
        -122.0752747,
        37.4175871
       ],
       [
        -122.0752682,
        37.4179311
       ]
      ]
     ],
     [
      [
       [
        -122.077764,
        37.4184335
       ],
       [
        -122.0770025,
        37.4184276
       ],
       [
        -122.0770065,
        37.4172596
       ],
       [
        -122.0776775,
        37.4172611
       ],
       [
        -122.0776881,
        37.4172696
       ],
       [
        -122.0778372,
        37.4172699
       ],
       [
        -122.0778691,
        37.4172955
       ],
       [
        -122.0778716,
        37.4181067
       ],
       [
        -122.0778499,
        37.4182086
       ],
       [
        -122.0778494,
        37.4183743
       ],
       [
        -122.0778333,
        37.4184125
       ],
       [
        -122.077764,
        37.4184335
       ]
      ]
     ],
     [
      [
       [
        -122.073455,
        37.4186916
       ],
       [
        -122.0725444,
        37.4186895
       ],
       [
        -122.0725477,
        37.4177424
       ],
       [
        -122.0727767,
        37.4177429
       ],
       [
        -122.0727873,
        37.4177514
       ],
       [
        -122.0733678,
        37.4177485
       ],
       [
        -122.0733784,
        37.417757
       ],
       [
        -122.0734583,
        37.4177572
       ],
       [
        -122.0734902,
        37.4177742
       ],
       [
        -122.0734924,
        37.4186534
       ],
       [
        -122.0734817,
        37.4186789
       ],
       [
        -122.073455,
        37.4186916
       ]
      ]
     ],
     [
      [
       [
        -122.0767469,
        37.4184313
       ],
       [
        -122.0761132,
        37.4184299
       ],
       [
        -122.0761026,
        37.4184171
       ],
       [
        -122.0760653,
        37.418417
       ],
       [
        -122.0760494,
        37.4183958
       ],
       [
        -122.0760503,
        37.4181197
       ],
       [
        -122.0760717,
        37.418107
       ],
       [
        -122.0767746,
        37.4181086
       ],
       [
        -122.0767789,
        37.4184101
       ],
       [
        -122.0767469,
        37.4184313
       ]
      ]
     ],
     [
      [
       [
        -122.0742804,
        37.4186892
       ],
       [
        -122.0738118,
        37.4186881
       ],
       [
        -122.0738065,
        37.4186796
       ],
       [
        -122.0737799,
        37.4186795
       ],
       [
        -122.0737693,
        37.4186668
       ],
       [
        -122.0737666,
        37.4179107
       ],
       [
        -122.0737773,
        37.417898
       ],
       [
        -122.0738039,
        37.4178896
       ],
       [
        -122.0738625,
        37.4178982
       ],
       [
        -122.0739103,
        37.4179238
       ],
       [
        -122.0740273,
        37.4179623
       ],
       [
        -122.0740486,
        37.4179793
       ],
       [
        -122.0740699,
        37.4179794
       ],
       [
        -122.0740858,
        37.4179922
       ],
       [
        -122.0742135,
        37.4180307
       ],
       [
        -122.0742188,
        37.4180392
       ],
       [
        -122.0742614,
        37.4180435
       ],
       [
        -122.0742826,
        37.4180606
       ],
       [
        -122.0742804,
        37.4186892
       ]
      ]
     ],
     [
      [
       [
        -122.0746532,
        37.4186815
       ],
       [
        -122.074536,
        37.4186855
       ],
       [
        -122.0745254,
        37.4186727
       ],
       [
        -122.0745041,
        37.4186727
       ],
       [
        -122.0745061,
        37.418095
       ],
       [
        -122.074586,
        37.4181037
       ],
       [
        -122.0754593,
        37.4181056
       ],
       [
        -122.0754579,
        37.4185134
       ],
       [
        -122.0754259,
        37.4185218
       ],
       [
        -122.0753673,
        37.4185217
       ],
       [
        -122.0753566,
        37.4185344
       ],
       [
        -122.07533,
        37.4185428
       ],
       [
        -122.0752661,
        37.4185427
       ],
       [
        -122.0752394,
        37.4185639
       ],
       [
        -122.0751861,
        37.4185765
       ],
       [
        -122.0751328,
        37.4185764
       ],
       [
        -122.0750742,
        37.4186017
       ],
       [
        -122.0750102,
        37.4186058
       ],
       [
        -122.0749782,
        37.4186228
       ],
       [
        -122.074909,
        37.4186311
       ],
       [
        -122.0749036,
        37.4186396
       ],
       [
        -122.0748557,
        37.4186437
       ],
       [
        -122.074845,
        37.4186522
       ],
       [
        -122.0747704,
        37.4186563
       ],
       [
        -122.0747491,
        37.418669
       ],
       [
        -122.0746692,
        37.418673
       ],
       [
        -122.0746532,
        37.4186815
       ]
      ]
     ]
    ]
   }
  },
  {
   "type": "Feature",
   "properties": {
    "kind": "zone",
    "category": "commercial",
    "label": "Hotel",
    "stage": "entitled",
    "source": "traced: North Bayshore Master Plan (April 2023), Plan 4.1.2, Land use (core master plan area), p. 33",
    "note": "Up to 525 hotel rooms in two locations, 10 to 13 stories (Table 4.1.1, p. 34; council report, p. 4). Approximate: the plan calls its land use parcels general depictions."
   },
   "geometry": {
    "type": "MultiPolygon",
    "coordinates": [
     [
      [
       [
        -122.0801279,
        37.4139153
       ],
       [
        -122.0792439,
        37.4139134
       ],
       [
        -122.0792472,
        37.412979
       ],
       [
        -122.0793004,
        37.4129791
       ],
       [
        -122.079327,
        37.4129961
       ],
       [
        -122.0793802,
        37.4130047
       ],
       [
        -122.0794388,
        37.4130049
       ],
       [
        -122.07946,
        37.4130134
       ],
       [
        -122.0794653,
        37.4130304
       ],
       [
        -122.0795612,
        37.4130221
       ],
       [
        -122.0795718,
        37.4130391
       ],
       [
        -122.0795931,
        37.4130434
       ],
       [
        -122.0797368,
        37.4130395
       ],
       [
        -122.0797421,
        37.4130522
       ],
       [
        -122.0797847,
        37.4130523
       ],
       [
        -122.07979,
        37.4130693
       ],
       [
        -122.0798059,
        37.4130779
       ],
       [
        -122.0798751,
        37.4130993
       ],
       [
        -122.0799177,
        37.4130993
       ],
       [
        -122.0799442,
        37.4131334
       ],
       [
        -122.0800293,
        37.4131591
       ],
       [
        -122.0801356,
        37.413206
       ],
       [
        -122.0801279,
        37.4139153
       ]
      ]
     ],
     [
      [
       [
        -122.0776933,
        37.4203829
       ],
       [
        -122.0775229,
        37.4203783
       ],
       [
        -122.077491,
        37.4203612
       ],
       [
        -122.0774805,
        37.4203315
       ],
       [
        -122.0774645,
        37.420323
       ],
       [
        -122.0774328,
        37.4202719
       ],
       [
        -122.0774062,
        37.4202549
       ],
       [
        -122.0773956,
        37.4202251
       ],
       [
        -122.0773426,
        37.420174
       ],
       [
        -122.0773426,
        37.420157
       ],
       [
        -122.0773161,
        37.42014
       ],
       [
        -122.0772789,
        37.4200932
       ],
       [
        -122.077279,
        37.4200762
       ],
       [
        -122.0772524,
        37.4200592
       ],
       [
        -122.0772419,
        37.4200294
       ],
       [
        -122.0772047,
        37.4199996
       ],
       [
        -122.0771783,
        37.4199486
       ],
       [
        -122.0771464,
        37.4199272
       ],
       [
        -122.0771359,
        37.4198932
       ],
       [
        -122.0771146,
        37.4198847
       ],
       [
        -122.0770987,
        37.4198464
       ],
       [
        -122.0770775,
        37.4198379
       ],
       [
        -122.077051,
        37.4197911
       ],
       [
        -122.0770138,
        37.4197571
       ],
       [
        -122.0770088,
        37.4196891
       ],
       [
        -122.0777596,
        37.4196907
       ],
       [
        -122.0777648,
        37.4197375
       ],
       [
        -122.0777486,
        37.4197842
       ],
       [
        -122.0777473,
        37.4201579
       ],
       [
        -122.0777367,
        37.4201706
       ],
       [
        -122.0777414,
        37.420349
       ],
       [
        -122.0776933,
        37.4203829
       ]
      ]
     ]
    ]
   }
  },
  {
   "type": "Feature",
   "properties": {
    "kind": "zone",
    "category": "civic",
    "label": "Public use",
    "stage": "entitled",
    "source": "traced: North Bayshore Master Plan (April 2023), Plan 4.1.2, Land use (core master plan area), p. 33",
    "note": "Public use, as the figure's legend labels it; the figure doesn't name the use. Approximate: the plan calls its land use parcels general depictions."
   },
   "geometry": {
    "type": "MultiPolygon",
    "coordinates": [
     [
      [
       [
        -122.0725337,
        37.4186895
       ],
       [
        -122.0719906,
        37.4186883
       ],
       [
        -122.0719267,
        37.4186796
       ],
       [
        -122.0718628,
        37.4186625
       ],
       [
        -122.0718203,
        37.4186369
       ],
       [
        -122.0717937,
        37.4186369
       ],
       [
        -122.0717884,
        37.4186241
       ],
       [
        -122.0717619,
        37.4186113
       ],
       [
        -122.071698,
        37.4185942
       ],
       [
        -122.0716236,
        37.41856
       ],
       [
        -122.0716077,
        37.418543
       ],
       [
        -122.0715864,
        37.418543
       ],
       [
        -122.0714481,
        37.4184832
       ],
       [
        -122.0714322,
        37.4184662
       ],
       [
        -122.0714056,
        37.4184661
       ],
       [
        -122.0713311,
        37.4184404
       ],
       [
        -122.0713258,
        37.4184319
       ],
       [
        -122.0712779,
        37.4184276
       ],
       [
        -122.071262,
        37.4184148
       ],
       [
        -122.0711981,
        37.4184147
       ],
       [
        -122.0711662,
        37.4184061
       ],
       [
        -122.0704632,
        37.4184087
       ],
       [
        -122.0704366,
        37.4184002
       ],
       [
        -122.0704154,
        37.4183662
       ],
       [
        -122.0704176,
        37.4177546
       ],
       [
        -122.0704283,
        37.4177376
       ],
       [
        -122.070455,
        37.4177249
       ],
       [
        -122.0706201,
        37.4177253
       ],
       [
        -122.0707426,
        37.4177256
       ],
       [
        -122.0707532,
        37.4177341
       ],
       [
        -122.071339,
        37.4177312
       ],
       [
        -122.0725371,
        37.4177423
       ],
       [
        -122.0725337,
        37.4186895
       ]
      ]
     ]
    ]
   }
  },
  {
   "type": "Feature",
   "properties": {
    "kind": "zone",
    "category": "other",
    "label": "Parking",
    "stage": "entitled",
    "source": "traced: North Bayshore Master Plan (April 2023), Plan 4.1.1, p. 32 (garages outside Plan 4.1.2) and Plan 4.1.2, p. 33",
    "note": "Parking garages, including the Shoreline Amphitheatre Lot C garage (SA-P-1), which the plan notes is outside the precise plan area and needs its own development review permit (Plan 4.1.1, p. 32). Approximate: the plan calls its land use parcels general depictions."
   },
   "geometry": {
    "type": "MultiPolygon",
    "coordinates": [
     [
      [
       [
        -122.0809729,
        37.4139639
       ],
       [
        -122.0809639,
        37.4139171
       ],
       [
        -122.0801438,
        37.4139153
       ],
       [
        -122.080141,
        37.4131848
       ],
       [
        -122.080173,
        37.4131848
       ],
       [
        -122.0801835,
        37.4132061
       ],
       [
        -122.0802208,
        37.4132232
       ],
       [
        -122.0803538,
        37.413249
       ],
       [
        -122.0803591,
        37.4132617
       ],
       [
        -122.0803751,
        37.4132617
       ],
       [
        -122.0804122,
        37.4132916
       ],
       [
        -122.0805106,
        37.4133406
       ],
       [
        -122.0805239,
        37.41333
       ],
       [
        -122.0805665,
        37.4133386
       ],
       [
        -122.0805823,
        37.4133726
       ],
       [
        -122.0806156,
        37.4133727
       ],
       [
        -122.0807312,
        37.4134367
       ],
       [
        -122.0807525,
        37.4134325
       ],
       [
        -122.0807951,
        37.413441
       ],
       [
        -122.0808004,
        37.413458
       ],
       [
        -122.080819,
        37.4134581
       ],
       [
        -122.0808482,
        37.4134836
       ],
       [
        -122.0809492,
        37.4135348
       ],
       [
        -122.0809599,
        37.4135264
       ],
       [
        -122.0809758,
        37.4135278
       ],
       [
        -122.0809811,
        37.4135391
       ],
       [
        -122.0810078,
        37.4135392
       ],
       [
        -122.0810183,
        37.4135647
       ],
       [
        -122.0810396,
        37.4135648
       ],
       [
        -122.0810715,
        37.4135946
       ],
       [
        -122.0811565,
        37.4136415
       ],
       [
        -122.0811884,
        37.4136462
       ],
       [
        -122.0811937,
        37.4136585
       ],
       [
        -122.081215,
        37.4136586
       ],
       [
        -122.0812309,
        37.4136883
       ],
       [
        -122.0812522,
        37.4136884
       ],
       [
        -122.081268,
        37.4137266
       ],
       [
        -122.0812599,
        37.4137585
       ],
       [
        -122.0812306,
        37.4137775
       ],
       [
        -122.0812305,
        37.4138097
       ],
       [
        -122.0811291,
        37.413858
       ],
       [
        -122.0810679,
        37.4139173
       ],
       [
        -122.0810437,
        37.4139215
       ],
       [
        -122.0810383,
        37.4139428
       ],
       [
        -122.0810117,
        37.4139427
       ],
       [
        -122.0810063,
        37.4139554
       ],
       [
        -122.0809729,
        37.4139639
       ]
      ]
     ],
     [
      [
       [
        -122.0791595,
        37.4259374
       ],
       [
        -122.0789565,
        37.4258511
       ],
       [
        -122.0789087,
        37.4258509
       ],
       [
        -122.0788968,
        37.4258414
       ],
       [
        -122.0788131,
        37.4258316
       ],
       [
        -122.0788012,
        37.425822
       ],
       [
        -122.0783706,
        37.4258114
       ],
       [
        -122.0783587,
        37.4258018
       ],
       [
        -122.0780238,
        37.425801
       ],
       [
        -122.0780244,
        37.4256484
       ],
       [
        -122.0780484,
        37.4256198
       ],
       [
        -122.0780371,
        37.4254671
       ],
       [
        -122.0780611,
        37.4254386
       ],
       [
        -122.0780498,
        37.4252669
       ],
       [
        -122.0780619,
        37.4252478
       ],
       [
        -122.0780623,
        37.4251429
       ],
       [
        -122.0780504,
        37.4251333
       ],
       [
        -122.0780506,
        37.4250761
       ],
       [
        -122.0780626,
        37.4250666
       ],
       [
        -122.078063,
        37.4249807
       ],
       [
        -122.078093,
        37.4249569
       ],
       [
        -122.0780513,
        37.4249139
       ],
       [
        -122.0780639,
        37.4247422
       ],
       [
        -122.078052,
        37.4247327
       ],
       [
        -122.0780523,
        37.4246564
       ],
       [
        -122.0780823,
        37.4246326
       ],
       [
        -122.0780525,
        37.4246087
       ],
       [
        -122.0780411,
        37.424456
       ],
       [
        -122.0780711,
        37.4244322
       ],
       [
        -122.0780413,
        37.4244083
       ],
       [
        -122.0780416,
        37.4243415
       ],
       [
        -122.0780178,
        37.4243129
       ],
       [
        -122.0780303,
        37.4241698
       ],
       [
        -122.0780066,
        37.4241316
       ],
       [
        -122.0780073,
        37.4239599
       ],
       [
        -122.0779834,
        37.4239312
       ],
       [
        -122.0779837,
        37.4238644
       ],
       [
        -122.0780077,
        37.4238454
       ],
       [
        -122.0779839,
        37.4238263
       ],
       [
        -122.0779842,
        37.42375
       ],
       [
        -122.0779723,
        37.4237404
       ],
       [
        -122.0779732,
        37.4235115
       ],
       [
        -122.0780452,
        37.4234449
       ],
       [
        -122.0782008,
        37.4234071
       ],
       [
        -122.0783563,
        37.423417
       ],
       [
        -122.0783683,
        37.4234075
       ],
       [
        -122.0784521,
        37.4233982
       ],
       [
        -122.07847,
        37.423384
       ],
       [
        -122.0784879,
        37.4233983
       ],
       [
        -122.0786434,
        37.4233987
       ],
       [
        -122.0787033,
        37.4233798
       ],
       [
        -122.0787391,
        37.4233894
       ],
       [
        -122.0788946,
        37.4233898
       ],
       [
        -122.0789784,
        37.4233709
       ],
       [
        -122.0789904,
        37.4233805
       ],
       [
        -122.0791458,
        37.4233809
       ],
       [
        -122.0792057,
        37.423362
       ],
       [
        -122.0792416,
        37.4233716
       ],
       [
        -122.0793492,
        37.4233719
       ],
       [
        -122.079457,
        37.4233435
       ],
       [
        -122.0794928,
        37.4233532
       ],
       [
        -122.0796483,
        37.4233536
       ],
       [
        -122.0797082,
        37.4233346
       ],
       [
        -122.0797321,
        37.4233347
       ],
       [
        -122.0797619,
        37.4233586
       ],
       [
        -122.0797919,
        37.4233349
       ],
       [
        -122.0798756,
        37.4233351
       ],
       [
        -122.0799116,
        37.4233161
       ],
       [
        -122.080091,
        37.4233165
       ],
       [
        -122.0801987,
        37.4232882
       ],
       [
        -122.0802944,
        37.423298
       ],
       [
        -122.0803064,
        37.4232885
       ],
       [
        -122.0803901,
        37.4232887
       ],
       [
        -122.08045,
        37.4232697
       ],
       [
        -122.0805217,
        37.4232795
       ],
       [
        -122.080536,
        37.423289
       ],
       [
        -122.080414,
        37.4232887
       ],
       [
        -122.080402,
        37.4232982
       ],
       [
        -122.0803303,
        37.4232981
       ],
       [
        -122.0803063,
        37.4233171
       ],
       [
        -122.0803051,
        37.4236032
       ],
       [
        -122.0803171,
        37.4236128
       ],
       [
        -122.080316,
        37.4238895
       ],
       [
        -122.0803279,
        37.423899
       ],
       [
        -122.0803275,
        37.4239944
       ],
       [
        -122.0803394,
        37.424004
       ],
       [
        -122.0803392,
        37.4240517
       ],
       [
        -122.0803512,
        37.4240612
       ],
       [
        -122.0803508,
        37.4241471
       ],
       [
        -122.0803627,
        37.4241567
       ],
       [
        -122.0803625,
        37.4242139
       ],
       [
        -122.0803744,
        37.4242235
       ],
       [
        -122.0803742,
        37.4242712
       ],
       [
        -122.0803862,
        37.4242807
       ],
       [
        -122.080386,
        37.4243284
       ],
       [
        -122.0803979,
        37.424338
       ],
       [
        -122.0803977,
        37.4243762
       ],
       [
        -122.0804097,
        37.4243857
       ],
       [
        -122.0804095,
        37.4244239
       ],
       [
        -122.0804214,
        37.4244334
       ],
       [
        -122.0804212,
        37.4244907
       ],
       [
        -122.0805636,
        37.4247772
       ],
       [
        -122.0805753,
        37.424844
       ],
       [
        -122.0805872,
        37.4248536
       ],
       [
        -122.080587,
        37.4249013
       ],
       [
        -122.0806108,
        37.4249395
       ],
       [
        -122.0806225,
        37.4249968
       ],
       [
        -122.0806463,
        37.4250254
       ],
       [
        -122.0806581,
        37.4250827
       ],
       [
        -122.0807413,
        37.4252069
       ],
       [
        -122.0807412,
        37.425226
       ],
       [
        -122.0808126,
        37.425312
       ],
       [
        -122.0808126,
        37.4253311
       ],
       [
        -122.0808483,
        37.4253789
       ],
       [
        -122.0808477,
        37.4255315
       ],
       [
        -122.0808357,
        37.425541
       ],
       [
        -122.0808356,
        37.4255601
       ],
       [
        -122.0807874,
        37.4256363
       ],
       [
        -122.0807154,
        37.4256934
       ],
       [
        -122.0805836,
        37.4257503
       ],
       [
        -122.0804999,
        37.42575
       ],
       [
        -122.0804879,
        37.4257596
       ],
       [
        -122.0798899,
        37.425758
       ],
       [
        -122.0798779,
        37.4257675
       ],
       [
        -122.0796387,
        37.4257669
       ],
       [
        -122.0796267,
        37.4257764
       ],
       [
        -122.0796266,
        37.4257955
       ],
       [
        -122.0795189,
        37.4257953
       ],
       [
        -122.079459,
        37.4258142
       ],
       [
        -122.0793871,
        37.4258522
       ],
       [
        -122.0792672,
        37.4259377
       ],
       [
        -122.0791595,
        37.4259374
       ]
      ]
     ],
     [
      [
       [
        -122.1001834,
        37.4303962
       ],
       [
        -122.1001108,
        37.4303578
       ],
       [
        -122.1000391,
        37.4303386
       ],
       [
        -122.0999853,
        37.4303432
       ],
       [
        -122.0999674,
        37.4303289
       ],
       [
        -122.0999016,
        37.4303192
       ],
       [
        -122.0998718,
        37.4303
       ],
       [
        -122.0998001,
        37.4302903
       ],
       [
        -122.0997762,
        37.4302712
       ],
       [
        -122.0997522,
        37.4302902
       ],
       [
        -122.0997164,
        37.430271
       ],
       [
        -122.0996506,
        37.4302614
       ],
       [
        -122.0996208,
        37.4302422
       ],
       [
        -122.099573,
        37.4302326
       ],
       [
        -122.0995253,
        37.4302038
       ],
       [
        -122.0994415,
        37.4302036
       ],
       [
        -122.0994296,
        37.4301941
       ],
       [
        -122.0993967,
        37.430194
       ],
       [
        -122.0992623,
        37.430146
       ],
       [
        -122.0992503,
        37.4301555
       ],
       [
        -122.0992025,
        37.4301554
       ],
       [
        -122.099083,
        37.4301074
       ],
       [
        -122.0990472,
        37.4301073
       ],
       [
        -122.0990233,
        37.4300882
       ],
       [
        -122.0990113,
        37.4300977
       ],
       [
        -122.0989515,
        37.4300975
       ],
       [
        -122.0988799,
        37.4300592
       ],
       [
        -122.0988081,
        37.4300495
       ],
       [
        -122.0987843,
        37.4300304
       ],
       [
        -122.0987603,
        37.4300494
       ],
       [
        -122.0987484,
        37.4300398
       ],
       [
        -122.0987125,
        37.4300397
       ],
       [
        -122.0986289,
        37.4300014
       ],
       [
        -122.0985693,
        37.4299399
       ],
       [
        -122.0985694,
        37.4299154
       ],
       [
        -122.0985575,
        37.4299058
       ],
       [
        -122.0985576,
        37.4298677
       ],
       [
        -122.0985457,
        37.4298581
       ],
       [
        -122.0985697,
        37.4298391
       ],
       [
        -122.0985458,
        37.4298199
       ],
       [
        -122.0985459,
        37.4297913
       ],
       [
        -122.0985103,
        37.4297245
       ],
       [
        -122.0984988,
        37.42961
       ],
       [
        -122.098475,
        37.4295717
       ],
       [
        -122.0984752,
        37.4295145
       ],
       [
        -122.0984633,
        37.4295049
       ],
       [
        -122.0984634,
        37.4294763
       ],
       [
        -122.0984396,
        37.4294286
       ],
       [
        -122.0984398,
        37.4294
       ],
       [
        -122.0984159,
        37.4293713
       ],
       [
        -122.0984162,
        37.4293045
       ],
       [
        -122.0984043,
        37.4292949
       ],
       [
        -122.0983926,
        37.4292186
       ],
       [
        -122.0983688,
        37.4291899
       ],
       [
        -122.0983691,
        37.4291136
       ],
       [
        -122.0983811,
        37.4290946
       ],
       [
        -122.0984291,
        37.4290565
       ],
       [
        -122.0985248,
        37.4290567
       ],
       [
        -122.0985488,
        37.4290377
       ],
       [
        -122.0986445,
        37.4290284
       ],
       [
        -122.0987044,
        37.4289999
       ],
       [
        -122.0988121,
        37.4290002
       ],
       [
        -122.0989677,
        37.4289624
       ],
       [
        -122.0989797,
        37.4289529
       ],
       [
        -122.0990095,
        37.4289768
       ],
       [
        -122.0990395,
        37.428953
       ],
       [
        -122.0990994,
        37.4289436
       ],
       [
        -122.0991593,
        37.4289152
       ],
       [
        -122.099279,
        37.4288964
       ],
       [
        -122.0993652,
        37.4288584
       ],
       [
        -122.0993867,
        37.4288585
       ],
       [
        -122.0993988,
        37.4288469
       ],
       [
        -122.0995544,
        37.4288207
       ],
       [
        -122.0996263,
        37.4287827
       ],
       [
        -122.0996621,
        37.4287828
       ],
       [
        -122.0996861,
        37.4287638
       ],
       [
        -122.09971,
        37.4287829
       ],
       [
        -122.099734,
        37.4287639
       ],
       [
        -122.0997938,
        37.4287545
       ],
       [
        -122.0998388,
        37.428726
       ],
       [
        -122.0998897,
        37.4287166
       ],
       [
        -122.0999017,
        37.4287071
       ],
       [
        -122.0999972,
        37.4287359
       ],
       [
        -122.1000449,
        37.4287837
       ],
       [
        -122.1000447,
        37.428841
       ],
       [
        -122.1000803,
        37.4289269
       ],
       [
        -122.1001279,
        37.4289747
       ],
       [
        -122.1001395,
        37.4290701
       ],
       [
        -122.1001634,
        37.4290988
       ],
       [
        -122.1001633,
        37.4291179
       ],
       [
        -122.100211,
        37.4291657
       ],
       [
        -122.1002107,
        37.4292325
       ],
       [
        -122.1002463,
        37.4293184
       ],
       [
        -122.1002939,
        37.4293662
       ],
       [
        -122.1002937,
        37.4294234
       ],
       [
        -122.1003174,
        37.4294807
       ],
       [
        -122.1003651,
        37.4295285
       ],
       [
        -122.1003649,
        37.4295953
       ],
       [
        -122.1004005,
        37.4296526
       ],
       [
        -122.1004004,
        37.4296812
       ],
       [
        -122.1004481,
        37.4297291
       ],
       [
        -122.1004479,
        37.4297863
       ],
       [
        -122.1004834,
        37.4298913
       ],
       [
        -122.1004586,
        37.4301297
       ],
       [
        -122.1003985,
        37.4301964
       ],
       [
        -122.1003621,
        37.4303298
       ],
       [
        -122.1002901,
        37.4303869
       ],
       [
        -122.1002273,
        37.4304034
       ],
       [
        -122.1002183,
        37.4303962
       ],
       [
        -122.1001834,
        37.4303962
       ]
      ]
     ],
     [
      [
       [
        -122.1000439,
        37.4322655
       ],
       [
        -122.0999124,
        37.4322366
       ],
       [
        -122.0997928,
        37.4322458
       ],
       [
        -122.0996733,
        37.4322169
       ],
       [
        -122.0995776,
        37.4322167
       ],
       [
        -122.0995416,
        37.4322262
       ],
       [
        -122.099446,
        37.4321973
       ],
       [
        -122.0993204,
        37.4322018
       ],
       [
        -122.0992667,
        37.4321873
       ],
       [
        -122.0992068,
        37.4321872
       ],
       [
        -122.0991949,
        37.4321776
       ],
       [
        -122.0990753,
        37.4321774
       ],
       [
        -122.0990634,
        37.4321678
       ],
       [
        -122.0990275,
        37.4321677
       ],
       [
        -122.0989678,
        37.4321294
       ],
       [
        -122.098944,
        37.4320912
       ],
       [
        -122.0989378,
        37.4320295
       ],
       [
        -122.0989445,
        37.4319576
       ],
       [
        -122.0989686,
        37.4319195
       ],
       [
        -122.0989615,
        37.4318301
       ],
       [
        -122.098969,
        37.4318242
       ],
       [
        -122.0989692,
        37.4317621
       ],
       [
        -122.0989812,
        37.4317479
       ],
       [
        -122.0989814,
        37.4317002
       ],
       [
        -122.0989695,
        37.4316882
       ],
       [
        -122.09897,
        37.4315594
       ],
       [
        -122.098982,
        37.4315475
       ],
       [
        -122.0989823,
        37.4314617
       ],
       [
        -122.0989585,
        37.4314362
       ],
       [
        -122.0989587,
        37.4313758
       ],
       [
        -122.0989468,
        37.4313662
       ],
       [
        -122.0989767,
        37.4313424
       ],
       [
        -122.0989469,
        37.4313185
       ],
       [
        -122.0989471,
        37.4312804
       ],
       [
        -122.0989114,
        37.4312135
       ],
       [
        -122.0989117,
        37.4311467
       ],
       [
        -122.0988998,
        37.4311372
       ],
       [
        -122.0988881,
        37.4310608
       ],
       [
        -122.0988642,
        37.4310369
       ],
       [
        -122.0988524,
        37.431013
       ],
       [
        -122.0988525,
        37.4309749
       ],
       [
        -122.0988406,
        37.4309653
       ],
       [
        -122.0988646,
        37.4309368
       ],
       [
        -122.0988408,
        37.4309176
       ],
       [
        -122.0988409,
        37.430889
       ],
       [
        -122.0988171,
        37.4308508
       ],
       [
        -122.0988173,
        37.4307936
       ],
       [
        -122.0988653,
        37.430746
       ],
       [
        -122.0989731,
        37.4307272
       ],
       [
        -122.098985,
        37.4307367
       ],
       [
        -122.0990807,
        37.430737
       ],
       [
        -122.0991045,
        37.4307561
       ],
       [
        -122.0991285,
        37.4307371
       ],
       [
        -122.0992122,
        37.4307563
       ],
       [
        -122.0993318,
        37.4307566
       ],
       [
        -122.0993557,
        37.4307758
       ],
       [
        -122.0993797,
        37.4307567
       ],
       [
        -122.0994036,
        37.4307568
       ],
       [
        -122.0994633,
        37.430776
       ],
       [
        -122.0996188,
        37.4307859
       ],
       [
        -122.0996547,
        37.4307765
       ],
       [
        -122.0997144,
        37.4307957
       ],
       [
        -122.0997982,
        37.4307959
       ],
       [
        -122.0998101,
        37.4308055
       ],
       [
        -122.099852,
        37.4308008
       ],
       [
        -122.0999536,
        37.4308153
       ],
       [
        -122.1000493,
        37.4308156
       ],
       [
        -122.1000612,
        37.4308251
       ],
       [
        -122.100121,
        37.4308253
       ],
       [
        -122.100145,
        37.4308158
       ],
       [
        -122.1002047,
        37.430835
       ],
       [
        -122.1003243,
        37.4308448
       ],
       [
        -122.1003841,
        37.4308641
       ],
       [
        -122.1004198,
        37.4308928
       ],
       [
        -122.1004435,
        37.4309596
       ],
       [
        -122.1004674,
        37.4309787
       ],
       [
        -122.1004911,
        37.4310265
       ],
       [
        -122.1004909,
        37.4310837
       ],
       [
        -122.1004548,
        37.4311504
       ],
       [
        -122.1004662,
        37.4312935
       ],
       [
        -122.1004302,
        37.4313316
       ],
       [
        -122.1004416,
        37.4314747
       ],
       [
        -122.1004056,
        37.4315128
       ],
       [
        -122.1004049,
        37.4316845
       ],
       [
        -122.1003809,
        37.431713
       ],
       [
        -122.1003803,
        37.4318752
       ],
       [
        -122.1003563,
        37.4319038
       ],
       [
        -122.1003556,
        37.4320755
       ],
       [
        -122.1003316,
        37.432104
       ],
       [
        -122.1003313,
        37.4321803
       ],
       [
        -122.1002712,
        37.432247
       ],
       [
        -122.1001994,
        37.4322659
       ],
       [
        -122.1000798,
        37.4322561
       ],
       [
        -122.1000439,
        37.4322655
       ]
      ]
     ],
     [
      [
       [
        -122.0757475,
        37.4179321
       ],
       [
        -122.0752842,
        37.4179311
       ],
       [
        -122.07528,
        37.4175913
       ],
       [
        -122.0752321,
        37.417587
       ],
       [
        -122.0752215,
        37.41757
       ],
       [
        -122.0752109,
        37.4175699
       ],
       [
        -122.0752109,
        37.4175572
       ],
       [
        -122.0752429,
        37.4175573
       ],
       [
        -122.0752395,
        37.417519
       ],
       [
        -122.0752537,
        37.4175148
       ],
       [
        -122.0752538,
        37.4174723
       ],
       [
        -122.0752347,
        37.4174655
       ],
       [
        -122.0752326,
        37.4174426
       ],
       [
        -122.0752488,
        37.4173874
       ],
       [
        -122.075241,
        37.4172769
       ],
       [
        -122.0752599,
        37.4172727
       ],
       [
        -122.0752653,
        37.417243
       ],
       [
        -122.0757605,
        37.4172441
       ],
       [
        -122.0757978,
        37.4172484
       ],
       [
        -122.0758243,
        37.4172655
       ],
       [
        -122.0758342,
        37.4174821
       ],
       [
        -122.0758328,
        37.4178941
       ],
       [
        -122.0758114,
        37.4179238
       ],
       [
        -122.0757475,
        37.4179321
       ]
      ]
     ]
    ]
   }
  },
  {
   "type": "Feature",
   "properties": {
    "kind": "zone",
    "category": "other",
    "label": "District central plant",
    "stage": "entitled",
    "source": "traced: North Bayshore Master Plan (April 2023), Plan 4.1.2, Land use (core master plan area), p. 33",
    "note": "District central plant for the plan's district utility systems (130,000 sq ft, Table 4.1.1, p. 34). Approximate: the plan calls its land use parcels general depictions."
   },
   "geometry": {
    "type": "MultiPolygon",
    "coordinates": [
     [
      [
       [
        -122.0701809,
        37.4199244
       ],
       [
        -122.0699733,
        37.4199154
       ],
       [
        -122.0699626,
        37.4199069
       ],
       [
        -122.0697762,
        37.4199108
       ],
       [
        -122.069771,
        37.4198938
       ],
       [
        -122.0697444,
        37.4198809
       ],
       [
        -122.0697554,
        37.419779
       ],
       [
        -122.0697448,
        37.4197748
       ],
       [
        -122.0697517,
        37.4193288
       ],
       [
        -122.0697419,
        37.4190867
       ],
       [
        -122.0697421,
        37.4175407
       ],
       [
        -122.0699125,
        37.4175453
       ],
       [
        -122.0699285,
        37.4175411
       ],
       [
        -122.0699392,
        37.4175241
       ],
       [
        -122.0700297,
        37.4175243
       ],
       [
        -122.0700403,
        37.4175413
       ],
       [
        -122.0701575,
        37.4175416
       ],
       [
        -122.0701628,
        37.4175289
       ],
       [
        -122.0701948,
        37.4175289
       ],
       [
        -122.0701809,
        37.4199244
       ]
      ]
     ]
    ]
   }
  },
  {
   "type": "Feature",
   "properties": {
    "kind": "zone",
    "category": "open-space",
    "label": "Open space",
    "stage": "entitled",
    "source": "traced: North Bayshore Master Plan (April 2023), Plan 4.1.2, Land use (core master plan area), p. 33",
    "note": "Parks and open space; about 26.1 acres in the plan (Table 4.1.1, p. 34). Includes both dedicated public parks and privately owned, publicly accessible open space; the figure doesn't tell them apart. Approximate: the plan calls its land use parcels general depictions."
   },
   "geometry": {
    "type": "MultiPolygon",
    "coordinates": [
     [
      [
       [
        -122.0791254,
        37.4143209
       ],
       [
        -122.0783586,
        37.4143149
       ],
       [
        -122.0783751,
        37.4141705
       ],
       [
        -122.0784455,
        37.4138224
       ],
       [
        -122.0784615,
        37.4138097
       ],
       [
        -122.0791325,
        37.4138154
       ],
       [
        -122.0791375,
        37.4139046
       ],
       [
        -122.0791481,
        37.4139132
       ],
       [
        -122.0791467,
        37.4143124
       ],
       [
        -122.0791254,
        37.4143209
       ]
      ]
     ],
     [
      [
       [
        -122.0794016,
        37.4145296
       ],
       [
        -122.0793537,
        37.4145295
       ],
       [
        -122.079355,
        37.4141472
       ],
       [
        -122.0793817,
        37.414126
       ],
       [
        -122.0799727,
        37.4141231
       ],
       [
        -122.0799726,
        37.4141486
       ],
       [
        -122.0799566,
        37.4141613
       ],
       [
        -122.0799353,
        37.4141612
       ],
       [
        -122.0799193,
        37.4141867
       ],
       [
        -122.079898,
        37.4141866
       ],
       [
        -122.0798766,
        37.4142163
       ],
       [
        -122.0797698,
        37.4142883
       ],
       [
        -122.0797485,
        37.4142882
       ],
       [
        -122.0797378,
        37.4143094
       ],
       [
        -122.0797112,
        37.4143094
       ],
       [
        -122.0797058,
        37.4143264
       ],
       [
        -122.0796738,
        37.4143518
       ],
       [
        -122.079583,
        37.414411
       ],
       [
        -122.0795564,
        37.414411
       ],
       [
        -122.0795403,
        37.4144364
       ],
       [
        -122.0795244,
        37.4144364
       ],
       [
        -122.0794976,
        37.4144661
       ],
       [
        -122.0794016,
        37.4145296
       ]
      ]
     ],
     [
      [
       [
        -122.0755112,
        37.4185008
       ],
       [
        -122.0754686,
        37.4184964
       ],
       [
        -122.0754646,
        37.4181057
       ],
       [
        -122.0757682,
        37.4181063
       ],
       [
        -122.0758001,
        37.4181149
       ],
       [
        -122.0758319,
        37.4181489
       ],
       [
        -122.0758256,
        37.4184208
       ],
       [
        -122.0757723,
        37.4184461
       ],
       [
        -122.0756338,
        37.4184671
       ],
       [
        -122.0756284,
        37.4184755
       ],
       [
        -122.0755112,
        37.4185008
       ]
      ]
     ],
     [
      [
       [
        -122.0790564,
        37.4188993
       ],
       [
        -122.0790244,
        37.4188993
       ],
       [
        -122.0790192,
        37.4188865
       ],
       [
        -122.0789979,
        37.4188822
       ],
       [
        -122.0788222,
        37.4188776
       ],
       [
        -122.0788168,
        37.4188861
       ],
       [
        -122.0787529,
        37.4188859
       ],
       [
        -122.0787263,
        37.4188816
       ],
       [
        -122.078721,
        37.4188689
       ],
       [
        -122.0786092,
        37.4188601
       ],
       [
        -122.0784974,
        37.4188599
       ],
       [
        -122.078492,
        37.4188684
       ],
       [
        -122.0784601,
        37.4188683
       ],
       [
        -122.0784495,
        37.4188555
       ],
       [
        -122.0783004,
        37.4188425
       ],
       [
        -122.0783011,
        37.4186301
       ],
       [
        -122.0782905,
        37.4186258
       ],
       [
        -122.0782907,
        37.4185749
       ],
       [
        -122.0783014,
        37.4185664
       ],
       [
        -122.0783014,
        37.4185409
       ],
       [
        -122.0792174,
        37.4185429
       ],
       [
        -122.0792334,
        37.4185302
       ],
       [
        -122.0792357,
        37.4178506
       ],
       [
        -122.0803007,
        37.417853
       ],
       [
        -122.080338,
        37.4178658
       ],
       [
        -122.0803539,
        37.4178871
       ],
       [
        -122.0803528,
        37.4182014
       ],
       [
        -122.0803634,
        37.4182099
       ],
       [
        -122.0803633,
        37.4182608
       ],
       [
        -122.0803526,
        37.4182651
       ],
       [
        -122.0803508,
        37.4188002
       ],
       [
        -122.0793123,
        37.418798
       ],
       [
        -122.0792697,
        37.4188191
       ],
       [
        -122.0792589,
        37.4188446
       ],
       [
        -122.0792588,
        37.4188955
       ],
       [
        -122.0790671,
        37.4188909
       ],
       [
        -122.0790564,
        37.4188993
       ]
      ]
     ],
     [
      [
       [
        -122.0827511,
        37.419192
       ],
       [
        -122.0815583,
        37.4191851
       ],
       [
        -122.0815588,
        37.4190365
       ],
       [
        -122.0815482,
        37.4190279
       ],
       [
        -122.0806216,
        37.4190217
       ],
       [
        -122.0806242,
        37.4182657
       ],
       [
        -122.0806135,
        37.4182614
       ],
       [
        -122.0806137,
        37.4182104
       ],
       [
        -122.0806244,
        37.4182062
       ],
       [
        -122.0806244,
        37.4181892
       ],
       [
        -122.0806883,
        37.4181936
       ],
       [
        -122.0807628,
        37.4182277
       ],
       [
        -122.0807626,
        37.4182872
       ],
       [
        -122.0807997,
        37.4183298
       ],
       [
        -122.0808102,
        37.418368
       ],
       [
        -122.0808149,
        37.4185591
       ],
       [
        -122.0808307,
        37.4186059
       ],
       [
        -122.0808678,
        37.4186612
       ],
       [
        -122.081789,
        37.418659
       ],
       [
        -122.0817938,
        37.4188331
       ],
       [
        -122.0818044,
        37.4188416
       ],
       [
        -122.0827576,
        37.4188437
       ],
       [
        -122.0827511,
        37.419192
       ]
      ]
     ],
     [
      [
       [
        -122.0750186,
        37.4192515
       ],
       [
        -122.0737619,
        37.4192529
       ],
       [
        -122.0737631,
        37.4189131
       ],
       [
        -122.0737737,
        37.4189046
       ],
       [
        -122.0737738,
        37.4188749
       ],
       [
        -122.0738112,
        37.418858
       ],
       [
        -122.0743064,
        37.4188591
       ],
       [
        -122.0743277,
        37.4188804
       ],
       [
        -122.0744448,
        37.4188807
       ],
       [
        -122.0744662,
        37.4188637
       ],
       [
        -122.074594,
        37.418864
       ],
       [
        -122.0745993,
        37.4188555
       ],
       [
        -122.0747165,
        37.418843
       ],
       [
        -122.0748336,
        37.4188518
       ],
       [
        -122.0748603,
        37.4188434
       ],
       [
        -122.074887,
        37.4188179
       ],
       [
        -122.0749883,
        37.4187969
       ],
       [
        -122.0750948,
        37.4187972
       ],
       [
        -122.0751268,
        37.4187845
       ],
       [
        -122.0751322,
        37.4187633
       ],
       [
        -122.0752387,
        37.418755
       ],
       [
        -122.0752441,
        37.418738
       ],
       [
        -122.0752601,
        37.4187338
       ],
       [
        -122.0753613,
        37.418734
       ],
       [
        -122.075372,
        37.4187086
       ],
       [
        -122.0754678,
        37.418713
       ],
       [
        -122.0754892,
        37.4186834
       ],
       [
        -122.0755745,
        37.418675
       ],
       [
        -122.0755798,
        37.4186623
       ],
       [
        -122.0755958,
        37.4186581
       ],
       [
        -122.0757023,
        37.4186583
       ],
       [
        -122.0757237,
        37.4186456
       ],
       [
        -122.0757291,
        37.4186287
       ],
       [
        -122.075777,
        37.4186288
       ],
       [
        -122.0758036,
        37.4186416
       ],
       [
        -122.0758073,
        37.4191045
       ],
       [
        -122.0757487,
        37.4191044
       ],
       [
        -122.0752857,
        37.4190312
       ],
       [
        -122.0750781,
        37.4190095
       ],
       [
        -122.075062,
        37.4190434
       ],
       [
        -122.0750186,
        37.4192515
       ]
      ]
     ],
     [
      [
       [
        -122.0718409,
        37.4203402
       ],
       [
        -122.0718037,
        37.4203401
       ],
       [
        -122.0713835,
        37.4201947
       ],
       [
        -122.0713198,
        37.4201394
       ],
       [
        -122.0712293,
        37.4201264
       ],
       [
        -122.0712187,
        37.4201136
       ],
       [
        -122.0711122,
        37.4200922
       ],
       [
        -122.0710697,
        37.4200708
       ],
       [
        -122.0710378,
        37.4200708
       ],
       [
        -122.0709793,
        37.4200494
       ],
       [
        -122.0709526,
        37.4200493
       ],
       [
        -122.0708835,
        37.4200237
       ],
       [
        -122.0708196,
        37.4200193
       ],
       [
        -122.0707664,
        37.4200022
       ],
       [
        -122.0705429,
        37.4199635
       ],
       [
        -122.0703513,
        37.4199418
       ],
       [
        -122.0703247,
        37.419929
       ],
       [
        -122.0703256,
        37.4196657
       ],
       [
        -122.0708155,
        37.419671
       ],
       [
        -122.0712309,
        37.4196592
       ],
       [
        -122.0712346,
        37.4186186
       ],
       [
        -122.0712879,
        37.4186187
       ],
       [
        -122.0713251,
        37.4186401
       ],
       [
        -122.0713464,
        37.4186401
       ],
       [
        -122.0714421,
        37.4186913
       ],
       [
        -122.0715006,
        37.4187084
       ],
       [
        -122.071559,
        37.4187425
       ],
       [
        -122.071575,
        37.4187426
       ],
       [
        -122.0717452,
        37.4188151
       ],
       [
        -122.0717504,
        37.4188491
       ],
       [
        -122.0734544,
        37.4188572
       ],
       [
        -122.0734863,
        37.41887
       ],
       [
        -122.0734958,
        37.4192013
       ],
       [
        -122.0725585,
        37.4192035
       ],
       [
        -122.0722479,
        37.4197082
       ],
       [
        -122.0721408,
        37.4198651
       ],
       [
        -122.0720069,
        37.4200942
       ],
       [
        -122.0718409,
        37.4203402
       ]
      ]
     ],
     [
      [
       [
        -122.0792661,
        37.419847
       ],
       [
        -122.0791543,
        37.4198467
       ],
       [
        -122.0782279,
        37.4197895
       ],
       [
        -122.0782173,
        37.4197852
       ],
       [
        -122.0782175,
        37.41973
       ],
       [
        -122.0782282,
        37.4197045
       ],
       [
        -122.0782447,
        37.4195389
       ],
       [
        -122.0782555,
        37.4195219
       ],
       [
        -122.0785004,
        37.4195267
       ],
       [
        -122.0785217,
        37.4195353
       ],
       [
        -122.0786548,
        37.4195441
       ],
       [
        -122.0792351,
        37.4195708
       ],
       [
        -122.0792408,
        37.4194774
       ],
       [
        -122.0792568,
        37.4194732
       ],
       [
        -122.0792568,
        37.4194647
       ],
       [
        -122.0803485,
        37.4194671
       ],
       [
        -122.0803529,
        37.4197219
       ],
       [
        -122.0803369,
        37.4197389
       ],
       [
        -122.0792772,
        37.4197366
       ],
       [
        -122.0792665,
        37.4197493
       ],
       [
        -122.0792661,
        37.419847
       ]
      ]
     ],
     [
      [
       [
        -122.0705199,
        37.4219384
       ],
       [
        -122.0697903,
        37.4219368
       ],
       [
        -122.0697744,
        37.4219325
       ],
       [
        -122.0697585,
        37.4219112
       ],
       [
        -122.0697542,
        37.4201103
       ],
       [
        -122.0697702,
        37.4201019
       ],
       [
        -122.0700045,
        37.4201024
       ],
       [
        -122.0703027,
        37.4201243
       ],
       [
        -122.0707391,
        37.4201933
       ],
       [
        -122.0707497,
        37.4202018
       ],
       [
        -122.0708509,
        37.420219
       ],
       [
        -122.0710637,
        37.4202747
       ],
       [
        -122.0710849,
        37.4202875
       ],
       [
        -122.0712286,
        37.420326
       ],
       [
        -122.0712658,
        37.4203474
       ],
       [
        -122.0713137,
        37.420356
       ],
       [
        -122.0715956,
        37.4204543
       ],
       [
        -122.0716009,
        37.4204628
       ],
       [
        -122.0716328,
        37.4204671
       ],
       [
        -122.0716487,
        37.4204799
       ],
       [
        -122.0717073,
        37.4204928
       ],
       [
        -122.0717232,
        37.4205055
       ],
       [
        -122.0717551,
        37.4205099
       ],
       [
        -122.0717604,
        37.4205184
       ],
       [
        -122.0718402,
        37.4205398
       ],
       [
        -122.0718455,
        37.4205483
       ],
       [
        -122.0718668,
        37.4205483
       ],
       [
        -122.0718987,
        37.4205696
       ],
       [
        -122.0719732,
        37.4205868
       ],
       [
        -122.072303,
        37.4207022
       ],
       [
        -122.0727339,
        37.4208094
       ],
       [
        -122.0731384,
        37.420874
       ],
       [
        -122.0731275,
        37.4209419
       ],
       [
        -122.0730955,
        37.4209588
       ],
       [
        -122.07309,
        37.421014
       ],
       [
        -122.0730526,
        37.4210437
       ],
       [
        -122.0730312,
        37.4210819
       ],
       [
        -122.0730098,
        37.4210946
       ],
       [
        -122.0730098,
        37.4211158
       ],
       [
        -122.0729831,
        37.421137
       ],
       [
        -122.0729616,
        37.4211836
       ],
       [
        -122.0728921,
        37.4212557
       ],
       [
        -122.0728707,
        37.4212939
       ],
       [
        -122.0728547,
        37.4213023
       ],
       [
        -122.0728546,
        37.4213321
       ],
       [
        -122.0728119,
        37.4213405
       ],
       [
        -122.0727851,
        37.4213914
       ],
       [
        -122.0727638,
        37.4213998
       ],
       [
        -122.0727584,
        37.4214253
       ],
       [
        -122.0726943,
        37.4214761
       ],
       [
        -122.0726623,
        37.4214803
       ],
       [
        -122.0726303,
        37.4215099
       ],
       [
        -122.0726249,
        37.4215269
       ],
       [
        -122.0726089,
        37.4215269
       ],
       [
        -122.0725769,
        37.4215481
       ],
       [
        -122.0725715,
        37.4215693
       ],
       [
        -122.0725501,
        37.4215862
       ],
       [
        -122.0725021,
        37.4216116
       ],
       [
        -122.0724595,
        37.4216157
       ],
       [
        -122.0724381,
        37.4216369
       ],
       [
        -122.0724381,
        37.4216497
       ],
       [
        -122.0724114,
        37.4216496
       ],
       [
        -122.0724061,
        37.4216666
       ],
       [
        -122.072374,
        37.4216878
       ],
       [
        -122.072342,
        37.4217047
       ],
       [
        -122.0722994,
        37.4217046
       ],
       [
        -122.072294,
        37.4217258
       ],
       [
        -122.072278,
        37.4217343
       ],
       [
        -122.0722301,
        37.4217342
       ],
       [
        -122.0721874,
        37.4217553
       ],
       [
        -122.072182,
        37.4217723
       ],
       [
        -122.072166,
        37.4217807
       ],
       [
        -122.0721181,
        37.4217806
       ],
       [
        -122.072102,
        37.4218018
       ],
       [
        -122.0720754,
        37.4218145
       ],
       [
        -122.0720061,
        37.4218144
       ],
       [
        -122.0719794,
        37.421844
       ],
       [
        -122.0718888,
        37.4218481
       ],
       [
        -122.0718781,
        37.4218693
       ],
       [
        -122.0718301,
        37.4218819
       ],
       [
        -122.071729,
        37.4218774
       ],
       [
        -122.0716863,
        37.4218943
       ],
       [
        -122.0716171,
        37.4218942
       ],
       [
        -122.0715851,
        37.4219068
       ],
       [
        -122.0714839,
        37.4219109
       ],
       [
        -122.0714732,
        37.4219236
       ],
       [
        -122.0713241,
        37.421919
       ],
       [
        -122.0713187,
        37.4219275
       ],
       [
        -122.0711324,
        37.4219271
       ],
       [
        -122.0711271,
        37.4219186
       ],
       [
        -122.0710259,
        37.4219183
       ],
       [
        -122.0710152,
        37.4219353
       ],
       [
        -122.0707915,
        37.421922
       ],
       [
        -122.0707649,
        37.4219347
       ],
       [
        -122.0707223,
        37.4219346
       ],
       [
        -122.0706477,
        37.4219345
       ],
       [
        -122.0706371,
        37.4219217
       ],
       [
        -122.0705519,
        37.4219215
       ],
       [
        -122.0705199,
        37.4219384
       ]
      ]
     ]
    ]
   }
  },
  {
   "type": "Feature",
   "properties": {
    "kind": "zone",
    "category": "other",
    "label": "Flex: parking, residential",
    "stage": "entitled",
    "source": "traced: North Bayshore Master Plan (April 2023), Plan 4.1.2, Land use (core master plan area), p. 33",
    "note": "A flex block in the plan's legend: parking or residential. Approximate: the plan calls its land use parcels general depictions."
   },
   "geometry": {
    "type": "MultiPolygon",
    "coordinates": [
     [
      [
       [
        -122.0816166,
        37.4176817
       ],
       [
        -122.0815847,
        37.4176816
       ],
       [
        -122.0815688,
        37.4176646
       ],
       [
        -122.0814729,
        37.4176644
       ],
       [
        -122.0814622,
        37.4176814
       ],
       [
        -122.0814196,
        37.4176813
       ],
       [
        -122.081409,
        37.4176642
       ],
       [
        -122.0813078,
        37.417664
       ],
       [
        -122.0812971,
        37.417681
       ],
       [
        -122.0812545,
        37.4176809
       ],
       [
        -122.0812439,
        37.4176639
       ],
       [
        -122.0811321,
        37.4176636
       ],
       [
        -122.0811214,
        37.4176806
       ],
       [
        -122.0810895,
        37.4176805
       ],
       [
        -122.0810735,
        37.4176635
       ],
       [
        -122.0809777,
        37.4176633
       ],
       [
        -122.080967,
        37.417676
       ],
       [
        -122.0809244,
        37.4176759
       ],
       [
        -122.0809138,
        37.4176632
       ],
       [
        -122.0808126,
        37.417663
       ],
       [
        -122.0808073,
        37.4176714
       ],
       [
        -122.0807647,
        37.4176713
       ],
       [
        -122.0807487,
        37.4176628
       ],
       [
        -122.0807168,
        37.4176627
       ],
       [
        -122.0806902,
        37.4176457
       ],
       [
        -122.0806263,
        37.4176456
       ],
       [
        -122.0806272,
        37.4173737
       ],
       [
        -122.0806486,
        37.4173568
       ],
       [
        -122.0806489,
        37.4172676
       ],
       [
        -122.0806276,
        37.4172591
       ],
       [
        -122.080629,
        37.4168428
       ],
       [
        -122.0806451,
        37.4168301
       ],
       [
        -122.0806453,
        37.4167621
       ],
       [
        -122.0807201,
        37.4166986
       ],
       [
        -122.0808585,
        37.4166989
       ],
       [
        -122.0808958,
        37.4167032
       ],
       [
        -122.0809011,
        37.4167117
       ],
       [
        -122.0810448,
        37.416712
       ],
       [
        -122.0810501,
        37.4167206
       ],
       [
        -122.0811939,
        37.4167209
       ],
       [
        -122.0812205,
        37.4167337
       ],
       [
        -122.0813483,
        37.4167297
       ],
       [
        -122.0813536,
        37.4167467
       ],
       [
        -122.081508,
        37.4167428
       ],
       [
        -122.0815133,
        37.4167513
       ],
       [
        -122.0816145,
        37.4167515
       ],
       [
        -122.0816676,
        37.4168026
       ],
       [
        -122.0816889,
        37.4168026
       ],
       [
        -122.0816993,
        37.4168579
       ],
       [
        -122.0816833,
        37.4168706
       ],
       [
        -122.0816937,
        37.4169471
       ],
       [
        -122.081683,
        37.416964
       ],
       [
        -122.0816828,
        37.4170277
       ],
       [
        -122.0816934,
        37.417032
       ],
       [
        -122.0816984,
        37.4171212
       ],
       [
        -122.0816878,
        37.4171212
       ],
       [
        -122.0816771,
        37.4171382
       ],
       [
        -122.0816769,
        37.4171891
       ],
       [
        -122.0816875,
        37.4171976
       ],
       [
        -122.0816809,
        37.4175799
       ],
       [
        -122.0816915,
        37.4175842
       ],
       [
        -122.0816914,
        37.4176096
       ],
       [
        -122.0816701,
        37.4176351
       ],
       [
        -122.08167,
        37.4176521
       ],
       [
        -122.0816434,
        37.4176563
       ],
       [
        -122.0816166,
        37.4176817
       ]
      ]
     ]
    ]
   }
  },
  {
   "type": "Feature",
   "properties": {
    "kind": "zone",
    "category": "civic",
    "label": "Flex: community use, district systems",
    "stage": "entitled",
    "source": "traced: North Bayshore Master Plan (April 2023), Plan 4.1.2, Land use (core master plan area), p. 33",
    "note": "A flex block in the plan's legend: community use or district systems. Approximate: the plan calls its land use parcels general depictions."
   },
   "geometry": {
    "type": "MultiPolygon",
    "coordinates": [
     [
      [
       [
        -122.0708102,
        37.4196667
       ],
       [
        -122.0704108,
        37.4196616
       ],
       [
        -122.0703896,
        37.4196488
       ],
       [
        -122.0703257,
        37.4196487
       ],
       [
        -122.0703295,
        37.4185868
       ],
       [
        -122.070814,
        37.4185922
       ],
       [
        -122.0708247,
        37.4185837
       ],
       [
        -122.0711282,
        37.4185844
       ],
       [
        -122.0712294,
        37.4186016
       ],
       [
        -122.0712256,
        37.4196592
       ],
       [
        -122.0708102,
        37.4196667
       ]
      ]
     ]
    ]
   }
  }
 ]
}
