{
 "type": "FeatureCollection",
 "properties": {
  "project": "cahsr-sf-sj",
  "source": "GIS: U.S. DOT Bureau of Transportation Statistics, NTAD North American Rail Network Lines, Caltrain-owned (JPBX) main line, routed between the FRA nodes nearest Fourth and King and San José Diridon (65 arcs)",
  "sourceLabel": "U.S. DOT/BTS National Transportation Atlas (rail network); Caltrain GTFS stations",
  "sourceUrl": "https://services.arcgis.com/xOi1kZaI0eWDREZv/arcgis/rest/services/NTAD_North_American_Rail_Network_Lines/FeatureServer/0",
  "accuracy": "approximate",
  "accuracyNote": "Approximate alignment (shared Caltrain corridor): the federal rail network's centreline for Caltrain's existing tracks, 46.8 miles from Fourth and King to San José Diridon. High-speed trains would share these tracks (Final EIR/EIS Alternative A, about 49 miles to West Alma Avenue); the line is not the Authority's engineered alignment and shows one centreline for a two-to-four-track corridor. It is split at Scott Boulevard, the ROD's south limit for this section (ROD point, 'approximate'). Stations are Caltrain's GTFS station points.",
  "license": "Line: Public domain: 'a work of the United States government as defined in 17 U.S.C. § 101 ... available for unrestricted public use' (service copyright text). Stations: Peninsula Corridor Joint Powers Board developer licence: non-exclusive, limited and revocable rights to use, reproduce and redistribute the data (https://www.caltrain.com/developer-resources).",
  "otherSources": [
   "https://hsr.ca.gov/wp-content/uploads/2022/10/FJ-Final-ROD-Combined-A11Y.pdf",
   "https://www.caltrain.com/developer-resources"
  ],
  "fraArcIds": [
   343266,
   328489,
   345753,
   333486,
   345754,
   328951,
   338136,
   536108,
   536109,
   332375,
   340430,
   329788,
   337896,
   340785,
   343209,
   345868,
   535325,
   535326,
   342019,
   536461,
   536462,
   336743,
   329990,
   334095,
   535353,
   535354,
   535352,
   337692,
   330202,
   340771,
   344031,
   326720,
   345835,
   326755,
   332548,
   336453,
   324842,
   535286,
   535287,
   524250,
   535337,
   535338,
   325494,
   327641,
   323984,
   524273,
   332060,
   333117,
   343532,
   339262,
   331119,
   340393,
   327989,
   341412,
   536124,
   536125,
   329819,
   334510,
   327525,
   341261,
   343461,
   325860,
   324154,
   334753,
   327332
  ],
  "check": "Compared locally (not published) with the Authority's Alignment_Hybrid layer, section 'San Francisco to San Jose': median 3 m, 95th percentile 11 m, max 33 m apart, sampled every 100 m.",
  "lengthKm": 75.29
 },
 "features": [
  {
   "type": "Feature",
   "properties": {
    "kind": "line",
    "segment": "shared",
    "name": "Fourth and King to Scott Boulevard (shared Caltrain corridor)",
    "approval": "San Francisco to San Jose section: Board, Aug 17, 2022 (Res. HSRA 22-20); Record of Decision, Oct 14, 2022",
    "source": "GIS: U.S. DOT Bureau of Transportation Statistics, NTAD North American Rail Network Lines, Caltrain-owned (JPBX) main line, routed between the FRA nodes nearest Fourth and King and San José Diridon (65 arcs); split at the ROD's Scott Boulevard point (Biological Opinion sec. 2.3, PDF p. 250)."
   },
   "geometry": {
    "type": "LineString",
    "coordinates": [
     [
      -122.395121,
      37.776658
     ],
     [
      -122.396534,
      37.775544
     ],
     [
      -122.396748,
      37.77533
     ],
     [
      -122.396971,
      37.77509
     ],
     [
      -122.396998,
      37.775061
     ],
     [
      -122.397248,
      37.774756
     ],
     [
      -122.3973,
      37.774705
     ],
     [
      -122.397473,
      37.774537
     ],
     [
      -122.398452,
      37.773757
     ],
     [
      -122.39872,
      37.773496
     ],
     [
      -122.399127,
      37.7731
     ],
     [
      -122.399384,
      37.772888
     ],
     [
      -122.399412,
      37.772866
     ],
     [
      -122.399435,
      37.772847
     ],
     [
      -122.399438,
      37.772844
     ],
     [
      -122.399698,
      37.77263
     ],
     [
      -122.399797,
      37.772549
     ],
     [
      -122.399804,
      37.772543
     ],
     [
      -122.39981,
      37.772537
     ],
     [
      -122.399887,
      37.77246
     ],
     [
      -122.399989,
      37.772358
     ],
     [
      -122.400022,
      37.772309
     ],
     [
      -122.400113,
      37.772171
     ],
     [
      -122.400156,
      37.772106
     ],
     [
      -122.400193,
      37.772008
     ],
     [
      -122.400253,
      37.771847
     ],
     [
      -122.400259,
      37.771832
     ],
     [
      -122.400261,
      37.771827
     ],
     [
      -122.400263,
      37.771813
     ],
     [
      -122.400276,
      37.771715
     ],
     [
      -122.400279,
      37.771698
     ],
     [
      -122.400279,
      37.771698
     ],
     [
      -122.40029,
      37.771612
     ],
     [
      -122.400293,
      37.771592
     ],
     [
      -122.400292,
      37.771581
     ],
     [
      -122.400289,
      37.771549
     ],
     [
      -122.400273,
      37.771381
     ],
     [
      -122.400269,
      37.771338
     ],
     [
      -122.400266,
      37.771301
     ],
     [
      -122.400247,
      37.771249
     ],
     [
      -122.400229,
      37.771201
     ],
     [
      -122.400226,
      37.771192
     ],
     [
      -122.400219,
      37.771172
     ],
     [
      -122.400176,
      37.771055
     ],
     [
      -122.400166,
      37.771027
     ],
     [
      -122.400149,
      37.770981
     ],
     [
      -122.400113,
      37.770935
     ],
     [
      -122.400083,
      37.770896
     ],
     [
      -122.399994,
      37.770781
     ],
     [
      -122.399972,
      37.770754
     ],
     [
      -122.399898,
      37.770658
     ],
     [
      -122.399895,
      37.770654
     ],
     [
      -122.399891,
      37.770649
     ],
     [
      -122.399888,
      37.770645
     ],
     [
      -122.399885,
      37.770642
     ],
     [
      -122.399849,
      37.770614
     ],
     [
      -122.399848,
      37.770613
     ],
     [
      -122.399773,
      37.770552
     ],
     [
      -122.399525,
      37.770351
     ],
     [
      -122.399003,
      37.769929
     ],
     [
      -122.398489,
      37.769513
     ],
     [
      -122.398437,
      37.769471
     ],
     [
      -122.398359,
      37.769412
     ],
     [
      -122.397919,
      37.769077
     ],
     [
      -122.397214,
      37.768502
     ],
     [
      -122.395305,
      37.766946
     ],
     [
      -122.39526,
      37.76691
     ],
     [
      -122.394792,
      37.766528
     ],
     [
      -122.394521,
      37.766307
     ],
     [
      -122.394477,
      37.766261
     ],
     [
      -122.393964,
      37.765736
     ],
     [
      -122.393836,
      37.76556
     ],
     [
      -122.393671,
      37.765332
     ],
     [
      -122.39355,
      37.765165
     ],
     [
      -122.393494,
      37.765061
     ],
     [
      -122.393334,
      37.764762
     ],
     [
      -122.393313,
      37.764722
     ],
     [
      -122.393236,
      37.76458
     ],
     [
      -122.393227,
      37.764554
     ],
     [
      -122.393135,
      37.764282
     ],
     [
      -122.393008,
      37.763909
     ],
     [
      -122.392936,
      37.763568
     ],
     [
      -122.392851,
      37.763166
     ],
     [
      -122.392846,
      37.763126
     ],
     [
      -122.392832,
      37.763016
     ],
     [
      -122.392809,
      37.762838
     ],
     [
      -122.392732,
      37.762239
     ],
     [
      -122.392679,
      37.761824
     ],
     [
      -122.392551,
      37.760139
     ],
     [
      -122.392494,
      37.758626
     ],
     [
      -122.392489,
      37.758408
     ],
     [
      -122.392475,
      37.757713
     ],
     [
      -122.392465,
      37.757198
     ],
     [
      -122.392461,
      37.756827
     ],
     [
      -122.392456,
      37.756232
     ],
     [
      -122.392451,
      37.755756
     ],
     [
      -122.392454,
      37.755578
     ],
     [
      -122.392456,
      37.755437
     ],
     [
      -122.392461,
      37.755138
     ],
     [
      -122.392464,
      37.754934
     ],
     [
      -122.392465,
      37.754826
     ],
     [
      -122.392467,
      37.754743
     ],
     [
      -122.392522,
      37.754058
     ],
     [
      -122.392869,
      37.751774
     ],
     [
      -122.392875,
      37.751734
     ],
     [
      -122.393121,
      37.749948
     ],
     [
      -122.393432,
      37.747699
     ],
     [
      -122.393608,
      37.746429
     ],
     [
      -122.393674,
      37.745949
     ],
     [
      -122.393752,
      37.745388
     ],
     [
      -122.394272,
      37.741624
     ],
     [
      -122.394282,
      37.741549
     ],
     [
      -122.394586,
      37.739352
     ],
     [
      -122.39459,
      37.739323
     ],
     [
      -122.394797,
      37.737828
     ],
     [
      -122.394821,
      37.737653
     ],
     [
      -122.394826,
      37.737619
     ],
     [
      -122.394885,
      37.737191
     ],
     [
      -122.394893,
      37.737136
     ],
     [
      -122.39492,
      37.736935
     ],
     [
      -122.394949,
      37.736726
     ],
     [
      -122.395123,
      37.735471
     ],
     [
      -122.395189,
      37.734997
     ],
     [
      -122.395246,
      37.734585
     ],
     [
      -122.395282,
      37.734328
     ],
     [
      -122.395361,
      37.733759
     ],
     [
      -122.395642,
      37.731734
     ],
     [
      -122.395849,
      37.730244
     ],
     [
      -122.395854,
      37.73021
     ],
     [
      -122.39587,
      37.730096
     ],
     [
      -122.395963,
      37.729436
     ],
     [
      -122.395996,
      37.729201
     ],
     [
      -122.396098,
      37.728471
     ],
     [
      -122.39613,
      37.728248
     ],
     [
      -122.396235,
      37.727501
     ],
     [
      -122.396323,
      37.726886
     ],
     [
      -122.39645,
      37.725991
     ],
     [
      -122.396505,
      37.725607
     ],
     [
      -122.396513,
      37.725559
     ],
     [
      -122.39657,
      37.725237
     ],
     [
      -122.396622,
      37.724943
     ],
     [
      -122.396627,
      37.724921
     ],
     [
      -122.396716,
      37.724553
     ],
     [
      -122.396806,
      37.724177
     ],
     [
      -122.396825,
      37.724099
     ],
     [
      -122.396922,
      37.72379
     ],
     [
      -122.397054,
      37.723371
     ],
     [
      -122.397096,
      37.723239
     ],
     [
      -122.397267,
      37.722764
     ],
     [
      -122.397377,
      37.722459
     ],
     [
      -122.397458,
      37.722235
     ],
     [
      -122.397594,
      37.721858
     ],
     [
      -122.39777,
      37.721368
     ],
     [
      -122.397833,
      37.721196
     ],
     [
      -122.397841,
      37.721172
     ],
     [
      -122.399957,
      37.715272
     ],
     [
      -122.401203,
      37.711798
     ],
     [
      -122.401265,
      37.711589
     ],
     [
      -122.401377,
      37.71121
     ],
     [
      -122.401525,
      37.710714
     ],
     [
      -122.401538,
      37.710672
     ],
     [
      -122.401553,
      37.71062
     ],
     [
      -122.401608,
      37.71038
     ],
     [
      -122.401664,
      37.710137
     ],
     [
      -122.401702,
      37.709971
     ],
     [
      -122.401705,
      37.709947
     ],
     [
      -122.401733,
      37.709722
     ],
     [
      -122.401743,
      37.709647
     ],
     [
      -122.401744,
      37.709635
     ],
     [
      -122.401774,
      37.709401
     ],
     [
      -122.401785,
      37.709312
     ],
     [
      -122.401796,
      37.70913
     ],
     [
      -122.401807,
      37.708936
     ],
     [
      -122.401816,
      37.708772
     ],
     [
      -122.401821,
      37.708555
     ],
     [
      -122.401828,
      37.708277
     ],
     [
      -122.401829,
      37.708239
     ],
     [
      -122.401831,
      37.708158
     ],
     [
      -122.40183,
      37.707973
     ],
     [
      -122.401827,
      37.70646
     ],
     [
      -122.401824,
      37.70515
     ],
     [
      -122.401824,
      37.704818
     ],
     [
      -122.401821,
      37.703704
     ],
     [
      -122.401821,
      37.703703
     ],
     [
      -122.401814,
      37.700149
     ],
     [
      -122.401814,
      37.699971
     ],
     [
      -122.401812,
      37.699387
     ],
     [
      -122.401812,
      37.699333
     ],
     [
      -122.401806,
      37.696236
     ],
     [
      -122.401805,
      37.695596
     ],
     [
      -122.401804,
      37.695361
     ],
     [
      -122.401804,
      37.695337
     ],
     [
      -122.401796,
      37.695215
     ],
     [
      -122.401789,
      37.695123
     ],
     [
      -122.401773,
      37.694894
     ],
     [
      -122.401758,
      37.69467
     ],
     [
      -122.401747,
      37.694518
     ],
     [
      -122.401736,
      37.694433
     ],
     [
      -122.401706,
      37.694197
     ],
     [
      -122.401668,
      37.693907
     ],
     [
      -122.401658,
      37.693825
     ],
     [
      -122.401619,
      37.693612
     ],
     [
      -122.401547,
      37.693222
     ],
     [
      -122.401517,
      37.693059
     ],
     [
      -122.401483,
      37.692922
     ],
     [
      -122.401386,
      37.69253
     ],
     [
      -122.401324,
      37.692278
     ],
     [
      -122.401262,
      37.692077
     ],
     [
      -122.401152,
      37.691724
     ],
     [
      -122.401127,
      37.691643
     ],
     [
      -122.400972,
      37.691234
     ],
     [
      -122.400814,
      37.690815
     ],
     [
      -122.40079,
      37.690761
     ],
     [
      -122.4006,
      37.690342
     ],
     [
      -122.400447,
      37.690003
     ],
     [
      -122.400399,
      37.689909
     ],
     [
      -122.400177,
      37.689476
     ],
     [
      -122.400163,
      37.689449
     ],
     [
      -122.400014,
      37.689204
     ],
     [
      -122.399772,
      37.688807
     ],
     [
      -122.399518,
      37.68839
     ],
     [
      -122.399368,
      37.688144
     ],
     [
      -122.399261,
      37.687991
     ],
     [
      -122.399011,
      37.687635
     ],
     [
      -122.398983,
      37.687594
     ],
     [
      -122.398766,
      37.687312
     ],
     [
      -122.39855,
      37.687031
     ],
     [
      -122.398538,
      37.687015
     ],
     [
      -122.398285,
      37.686713
     ],
     [
      -122.39736,
      37.685604
     ],
     [
      -122.396217,
      37.684237
     ],
     [
      -122.396146,
      37.684151
     ],
     [
      -122.395958,
      37.683926
     ],
     [
      -122.395417,
      37.683279
     ],
     [
      -122.395236,
      37.683062
     ],
     [
      -122.39517,
      37.682983
     ],
     [
      -122.395111,
      37.682916
     ],
     [
      -122.393881,
      37.681506
     ],
     [
      -122.39316,
      37.680679
     ],
     [
      -122.393044,
      37.680546
     ],
     [
      -122.392562,
      37.679963
     ],
     [
      -122.392184,
      37.679506
     ],
     [
      -122.392055,
      37.67935
     ],
     [
      -122.391663,
      37.678916
     ],
     [
      -122.391603,
      37.678849
     ],
     [
      -122.391403,
      37.678604
     ],
     [
      -122.391138,
      37.67828
     ],
     [
      -122.391035,
      37.678154
     ],
     [
      -122.390867,
      37.677926
     ],
     [
      -122.390648,
      37.677628
     ],
     [
      -122.390611,
      37.677578
     ],
     [
      -122.390469,
      37.677348
     ],
     [
      -122.390338,
      37.677136
     ],
     [
      -122.390293,
      37.677048
     ],
     [
      -122.390128,
      37.676728
     ],
     [
      -122.390118,
      37.676708
     ],
     [
      -122.389987,
      37.676399
     ],
     [
      -122.389928,
      37.676261
     ],
     [
      -122.389849,
      37.676031
     ],
     [
      -122.389764,
      37.675784
     ],
     [
      -122.389755,
      37.675747
     ],
     [
      -122.389703,
      37.675528
     ],
     [
      -122.389658,
      37.675338
     ],
     [
      -122.389636,
      37.675187
     ],
     [
      -122.389592,
      37.674891
     ],
     [
      -122.38958,
      37.674812
     ],
     [
      -122.389579,
      37.674803
     ],
     [
      -122.389569,
      37.674619
     ],
     [
      -122.389557,
      37.674398
     ],
     [
      -122.389552,
      37.6743
     ],
     [
      -122.389567,
      37.673851
     ],
     [
      -122.389575,
      37.673778
     ],
     [
      -122.38961,
      37.673482
     ],
     [
      -122.38962,
      37.673394
     ],
     [
      -122.389632,
      37.673336
     ],
     [
      -122.389636,
      37.673315
     ],
     [
      -122.389712,
      37.672937
     ],
     [
      -122.389716,
      37.672918
     ],
     [
      -122.389821,
      37.672548
     ],
     [
      -122.389828,
      37.672523
     ],
     [
      -122.389949,
      37.672189
     ],
     [
      -122.390005,
      37.672036
     ],
     [
      -122.390019,
      37.671997
     ],
     [
      -122.390064,
      37.671903
     ],
     [
      -122.390107,
      37.671813
     ],
     [
      -122.390217,
      37.67158
     ],
     [
      -122.39031,
      37.671417
     ],
     [
      -122.390466,
      37.671144
     ],
     [
      -122.390514,
      37.671073
     ],
     [
      -122.390687,
      37.670818
     ],
     [
      -122.390777,
      37.670685
     ],
     [
      -122.390843,
      37.670602
     ],
     [
      -122.390995,
      37.67041
     ],
     [
      -122.391108,
      37.670266
     ],
     [
      -122.391169,
      37.6702
     ],
     [
      -122.391375,
      37.669976
     ],
     [
      -122.391584,
      37.669749
     ],
     [
      -122.391685,
      37.669639
     ],
     [
      -122.391987,
      37.669327
     ],
     [
      -122.393156,
      37.668119
     ],
     [
      -122.393828,
      37.667425
     ],
     [
      -122.393929,
      37.66732
     ],
     [
      -122.394897,
      37.66632
     ],
     [
      -122.396226,
      37.664947
     ],
     [
      -122.396883,
      37.664268
     ],
     [
      -122.397781,
      37.663338
     ],
     [
      -122.39855,
      37.662543
     ],
     [
      -122.398993,
      37.662085
     ],
     [
      -122.400952,
      37.660059
     ],
     [
      -122.402773,
      37.658176
     ],
     [
      -122.403248,
      37.657683
     ],
     [
      -122.403785,
      37.657128
     ],
     [
      -122.404279,
      37.656618
     ],
     [
      -122.404398,
      37.656494
     ],
     [
      -122.404988,
      37.655884
     ],
     [
      -122.405399,
      37.655458
     ],
     [
      -122.406321,
      37.654505
     ],
     [
      -122.406631,
      37.654184
     ],
     [
      -122.406786,
      37.654012
     ],
     [
      -122.407271,
      37.653475
     ],
     [
      -122.407334,
      37.653401
     ],
     [
      -122.407823,
      37.652823
     ],
     [
      -122.40809,
      37.652508
     ],
     [
      -122.408891,
      37.651525
     ],
     [
      -122.409006,
      37.651384
     ],
     [
      -122.409155,
      37.6512
     ],
     [
      -122.409182,
      37.651167
     ],
     [
      -122.409233,
      37.651104
     ],
     [
      -122.409251,
      37.651082
     ],
     [
      -122.409252,
      37.65108
     ],
     [
      -122.409443,
      37.650844
     ],
     [
      -122.409737,
      37.65048
     ],
     [
      -122.40984,
      37.650354
     ],
     [
      -122.40986,
      37.650328
     ],
     [
      -122.409897,
      37.650281
     ],
     [
      -122.410029,
      37.650115
     ],
     [
      -122.410272,
      37.649808
     ],
     [
      -122.410391,
      37.649658
     ],
     [
      -122.410445,
      37.649586
     ],
     [
      -122.410709,
      37.649231
     ],
     [
      -122.410845,
      37.649048
     ],
     [
      -122.410911,
      37.648943
     ],
     [
      -122.411126,
      37.648605
     ],
     [
      -122.411245,
      37.648417
     ],
     [
      -122.411318,
      37.648302
     ],
     [
      -122.411461,
      37.648075
     ],
     [
      -122.411469,
      37.648063
     ],
     [
      -122.411614,
      37.647781
     ],
     [
      -122.411631,
      37.647747
     ],
     [
      -122.411755,
      37.647506
     ],
     [
      -122.411904,
      37.647214
     ],
     [
      -122.411916,
      37.647192
     ],
     [
      -122.412036,
      37.646904
     ],
     [
      -122.412144,
      37.646643
     ],
     [
      -122.412273,
      37.646333
     ],
     [
      -122.412376,
      37.646083
     ],
     [
      -122.412384,
      37.646064
     ],
     [
      -122.412385,
      37.646062
     ],
     [
      -122.412438,
      37.645893
     ],
     [
      -122.412457,
      37.645835
     ],
     [
      -122.412553,
      37.645531
     ],
     [
      -122.412655,
      37.645207
     ],
     [
      -122.412674,
      37.645148
     ],
     [
      -122.412737,
      37.644873
     ],
     [
      -122.412816,
      37.644529
     ],
     [
      -122.412893,
      37.644195
     ],
     [
      -122.412898,
      37.644172
     ],
     [
      -122.412941,
      37.64388
     ],
     [
      -122.41299,
      37.643547
     ],
     [
      -122.412997,
      37.6435
     ],
     [
      -122.413027,
      37.643246
     ],
     [
      -122.413068,
      37.642905
     ],
     [
      -122.413073,
      37.642859
     ],
     [
      -122.413076,
      37.642834
     ],
     [
      -122.413083,
      37.642689
     ],
     [
      -122.413091,
      37.642512
     ],
     [
      -122.413106,
      37.642196
     ],
     [
      -122.413117,
      37.641975
     ],
     [
      -122.413116,
      37.641895
     ],
     [
      -122.413112,
      37.641525
     ],
     [
      -122.413103,
      37.640728
     ],
     [
      -122.413103,
      37.640711
     ],
     [
      -122.413074,
      37.639482
     ],
     [
      -122.41307,
      37.639294
     ],
     [
      -122.413059,
      37.638805
     ],
     [
      -122.413057,
      37.638737
     ],
     [
      -122.413024,
      37.637268
     ],
     [
      -122.412965,
      37.634724
     ],
     [
      -122.412944,
      37.633799
     ],
     [
      -122.412938,
      37.633742
     ],
     [
      -122.412906,
      37.633446
     ],
     [
      -122.412881,
      37.633215
     ],
     [
      -122.41288,
      37.633202
     ],
     [
      -122.41284,
      37.633044
     ],
     [
      -122.41283,
      37.633005
     ],
     [
      -122.412771,
      37.632778
     ],
     [
      -122.412739,
      37.632652
     ],
     [
      -122.412726,
      37.6326
     ],
     [
      -122.412724,
      37.632592
     ],
     [
      -122.412723,
      37.632589
     ],
     [
      -122.4127,
      37.632533
     ],
     [
      -122.412646,
      37.632396
     ],
     [
      -122.412612,
      37.632311
     ],
     [
      -122.41257,
      37.632207
     ],
     [
      -122.412535,
      37.63212
     ],
     [
      -122.412484,
      37.632022
     ],
     [
      -122.412377,
      37.631816
     ],
     [
      -122.412257,
      37.631586
     ],
     [
      -122.412209,
      37.631494
     ],
     [
      -122.411656,
      37.630534
     ],
     [
      -122.411478,
      37.630226
     ],
     [
      -122.411121,
      37.629607
     ],
     [
      -122.409469,
      37.626742
     ],
     [
      -122.408917,
      37.625784
     ],
     [
      -122.4087,
      37.625425
     ],
     [
      -122.408472,
      37.625049
     ],
     [
      -122.407858,
      37.624035
     ],
     [
      -122.407027,
      37.622663
     ],
     [
      -122.406825,
      37.622329
     ],
     [
      -122.406588,
      37.621989
     ],
     [
      -122.406308,
      37.621587
     ],
     [
      -122.406299,
      37.621574
     ],
     [
      -122.405762,
      37.620861
     ],
     [
      -122.405515,
      37.620533
     ],
     [
      -122.40482,
      37.619611
     ],
     [
      -122.402171,
      37.616095
     ],
     [
      -122.401028,
      37.614577
     ],
     [
      -122.401,
      37.61454
     ],
     [
      -122.399635,
      37.612754
     ],
     [
      -122.399556,
      37.612651
     ],
     [
      -122.399458,
      37.612535
     ],
     [
      -122.399279,
      37.612323
     ],
     [
      -122.399169,
      37.612192
     ],
     [
      -122.398834,
      37.611797
     ],
     [
      -122.39882,
      37.61178
     ],
     [
      -122.39872,
      37.611676
     ],
     [
      -122.398561,
      37.611513
     ],
     [
      -122.398268,
      37.61121
     ],
     [
      -122.398139,
      37.611078
     ],
     [
      -122.397376,
      37.610328
     ],
     [
      -122.396533,
      37.609499
     ],
     [
      -122.39431,
      37.607314
     ],
     [
      -122.392091,
      37.605132
     ],
     [
      -122.39028,
      37.603352
     ],
     [
      -122.386977,
      37.600104
     ],
     [
      -122.386126,
      37.599268
     ],
     [
      -122.385888,
      37.599082
     ],
     [
      -122.385719,
      37.59894
     ],
     [
      -122.385378,
      37.598599
     ],
     [
      -122.385337,
      37.598558
     ],
     [
      -122.384734,
      37.597952
     ],
     [
      -122.384282,
      37.597511
     ],
     [
      -122.384042,
      37.597285
     ],
     [
      -122.383751,
      37.597032
     ],
     [
      -122.383375,
      37.596731
     ],
     [
      -122.382964,
      37.596435
     ],
     [
      -122.382583,
      37.596186
     ],
     [
      -122.382359,
      37.596051
     ],
     [
      -122.382187,
      37.595947
     ],
     [
      -122.381732,
      37.595704
     ],
     [
      -122.381419,
      37.595548
     ],
     [
      -122.381089,
      37.595397
     ],
     [
      -122.380642,
      37.595198
     ],
     [
      -122.37964,
      37.594776
     ],
     [
      -122.379148,
      37.594568
     ],
     [
      -122.378794,
      37.594409
     ],
     [
      -122.378389,
      37.594211
     ],
     [
      -122.377812,
      37.59397
     ],
     [
      -122.376203,
      37.593291
     ],
     [
      -122.37024,
      37.590776
     ],
     [
      -122.367063,
      37.589436
     ],
     [
      -122.363623,
      37.588009
     ],
     [
      -122.362713,
      37.587632
     ],
     [
      -122.36197,
      37.587324
     ],
     [
      -122.36128,
      37.587038
     ],
     [
      -122.359743,
      37.586372
     ],
     [
      -122.357555,
      37.585453
     ],
     [
      -122.350702,
      37.582573
     ],
     [
      -122.344897,
      37.580133
     ],
     [
      -122.342815,
      37.579258
     ],
     [
      -122.340741,
      37.578386
     ],
     [
      -122.338719,
      37.577536
     ],
     [
      -122.334642,
      37.575822
     ],
     [
      -122.33309,
      37.575169
     ],
     [
      -122.333073,
      37.575162
     ],
     [
      -122.332455,
      37.574874
     ],
     [
      -122.332286,
      37.574785
     ],
     [
      -122.331685,
      37.574469
     ],
     [
      -122.331611,
      37.574429
     ],
     [
      -122.331573,
      37.57441
     ],
     [
      -122.331266,
      37.574248
     ],
     [
      -122.331106,
      37.574154
     ],
     [
      -122.330653,
      37.573885
     ],
     [
      -122.330505,
      37.573793
     ],
     [
      -122.330051,
      37.573509
     ],
     [
      -122.330033,
      37.573497
     ],
     [
      -122.329692,
      37.573264
     ],
     [
      -122.329447,
      37.573097
     ],
     [
      -122.329252,
      37.572964
     ],
     [
      -122.328718,
      37.572547
     ],
     [
      -122.328639,
      37.572481
     ],
     [
      -122.328139,
      37.572061
     ],
     [
      -122.327816,
      37.571789
     ],
     [
      -122.327308,
      37.571337
     ],
     [
      -122.327244,
      37.571279
     ],
     [
      -122.325769,
      37.569937
     ],
     [
      -122.325765,
      37.569933
     ],
     [
      -122.324503,
      37.568738
     ],
     [
      -122.323624,
      37.567935
     ],
     [
      -122.32242,
      37.566836
     ],
     [
      -122.321585,
      37.566073
     ],
     [
      -122.320761,
      37.56532
     ],
     [
      -122.319976,
      37.564604
     ],
     [
      -122.317479,
      37.562323
     ],
     [
      -122.317368,
      37.562223
     ],
     [
      -122.31591,
      37.560914
     ],
     [
      -122.315366,
      37.560425
     ],
     [
      -122.314601,
      37.559726
     ],
     [
      -122.313673,
      37.558878
     ],
     [
      -122.313116,
      37.558368
     ],
     [
      -122.313012,
      37.558273
     ],
     [
      -122.312973,
      37.558237
     ],
     [
      -122.31247,
      37.557763
     ],
     [
      -122.312333,
      37.557634
     ],
     [
      -122.312199,
      37.557495
     ],
     [
      -122.311916,
      37.557201
     ],
     [
      -122.311851,
      37.557134
     ],
     [
      -122.311628,
      37.556863
     ],
     [
      -122.31135,
      37.556525
     ],
     [
      -122.311193,
      37.556335
     ],
     [
      -122.311107,
      37.556211
     ],
     [
      -122.31091,
      37.555928
     ],
     [
      -122.310812,
      37.555767
     ],
     [
      -122.310652,
      37.555507
     ],
     [
      -122.310575,
      37.555363
     ],
     [
      -122.31041,
      37.555056
     ],
     [
      -122.310312,
      37.554874
     ],
     [
      -122.310158,
      37.554543
     ],
     [
      -122.309797,
      37.553769
     ],
     [
      -122.30953,
      37.553197
     ],
     [
      -122.309354,
      37.55282
     ],
     [
      -122.309045,
      37.552158
     ],
     [
      -122.308802,
      37.551679
     ],
     [
      -122.308642,
      37.551362
     ],
     [
      -122.308535,
      37.551186
     ],
     [
      -122.308261,
      37.550737
     ],
     [
      -122.308109,
      37.550488
     ],
     [
      -122.308017,
      37.55036
     ],
     [
      -122.307753,
      37.549995
     ],
     [
      -122.307496,
      37.549639
     ],
     [
      -122.307398,
      37.549523
     ],
     [
      -122.306562,
      37.548535
     ],
     [
      -122.305275,
      37.547014
     ],
     [
      -122.304116,
      37.545643
     ],
     [
      -122.301683,
      37.542768
     ],
     [
      -122.301148,
      37.542135
     ],
     [
      -122.300233,
      37.541052
     ],
     [
      -122.299882,
      37.540638
     ],
     [
      -122.298211,
      37.538805
     ],
     [
      -122.297515,
      37.538042
     ],
     [
      -122.296987,
      37.537462
     ],
     [
      -122.296981,
      37.537456
     ],
     [
      -122.296044,
      37.536448
     ],
     [
      -122.295672,
      37.536048
     ],
     [
      -122.295579,
      37.535955
     ],
     [
      -122.295259,
      37.535635
     ],
     [
      -122.295066,
      37.535443
     ],
     [
      -122.294843,
      37.53522
     ],
     [
      -122.294743,
      37.53512
     ],
     [
      -122.294579,
      37.534974
     ],
     [
      -122.294302,
      37.534728
     ],
     [
      -122.294177,
      37.534617
     ],
     [
      -122.293831,
      37.534334
     ],
     [
      -122.293606,
      37.53415
     ],
     [
      -122.29355,
      37.534107
     ],
     [
      -122.292831,
      37.533553
     ],
     [
      -122.292299,
      37.533142
     ],
     [
      -122.292161,
      37.533037
     ],
     [
      -122.291671,
      37.532676
     ],
     [
      -122.291311,
      37.532412
     ],
     [
      -122.291037,
      37.53221
     ],
     [
      -122.290844,
      37.532068
     ],
     [
      -122.290695,
      37.531966
     ],
     [
      -122.290317,
      37.531705
     ],
     [
      -122.289531,
      37.531165
     ],
     [
      -122.288821,
      37.530676
     ],
     [
      -122.288755,
      37.530632
     ],
     [
      -122.286821,
      37.529334
     ],
     [
      -122.284381,
      37.527697
     ],
     [
      -122.283269,
      37.52695
     ],
     [
      -122.283073,
      37.526819
     ],
     [
      -122.282898,
      37.526693
     ],
     [
      -122.282591,
      37.526473
     ],
     [
      -122.282218,
      37.526206
     ],
     [
      -122.282188,
      37.526182
     ],
     [
      -122.281792,
      37.525867
     ],
     [
      -122.281552,
      37.525676
     ],
     [
      -122.281457,
      37.525597
     ],
     [
      -122.281023,
      37.525236
     ],
     [
      -122.280484,
      37.524789
     ],
     [
      -122.280031,
      37.524413
     ],
     [
      -122.279065,
      37.52361
     ],
     [
      -122.2763,
      37.521314
     ],
     [
      -122.276175,
      37.52121
     ],
     [
      -122.275801,
      37.5209
     ],
     [
      -122.275628,
      37.520756
     ],
     [
      -122.275282,
      37.520469
     ],
     [
      -122.275165,
      37.520371
     ],
     [
      -122.274594,
      37.519897
     ],
     [
      -122.273617,
      37.519085
     ],
     [
      -122.27268,
      37.518307
     ],
     [
      -122.272102,
      37.517827
     ],
     [
      -122.271992,
      37.517736
     ],
     [
      -122.271612,
      37.517427
     ],
     [
      -122.271589,
      37.517409
     ],
     [
      -122.271123,
      37.517058
     ],
     [
      -122.271118,
      37.517055
     ],
     [
      -122.27038,
      37.516521
     ],
     [
      -122.269642,
      37.515987
     ],
     [
      -122.269068,
      37.515573
     ],
     [
      -122.268648,
      37.515269
     ],
     [
      -122.268619,
      37.515246
     ],
     [
      -122.268221,
      37.514934
     ],
     [
      -122.267653,
      37.514489
     ],
     [
      -122.267585,
      37.51443
     ],
     [
      -122.267,
      37.513928
     ],
     [
      -122.264629,
      37.511891
     ],
     [
      -122.263928,
      37.511273
     ],
     [
      -122.263341,
      37.510755
     ],
     [
      -122.262666,
      37.510171
     ],
     [
      -122.262032,
      37.509622
     ],
     [
      -122.261285,
      37.508975
     ],
     [
      -122.261282,
      37.508973
     ],
     [
      -122.260419,
      37.508222
     ],
     [
      -122.25976,
      37.50765
     ],
     [
      -122.259116,
      37.507091
     ],
     [
      -122.258969,
      37.506962
     ],
     [
      -122.258608,
      37.506642
     ],
     [
      -122.258545,
      37.506587
     ],
     [
      -122.257921,
      37.506036
     ],
     [
      -122.2572,
      37.505399
     ],
     [
      -122.256311,
      37.504614
     ],
     [
      -122.254932,
      37.503431
     ],
     [
      -122.254861,
      37.503369
     ],
     [
      -122.252131,
      37.500991
     ],
     [
      -122.252129,
      37.50099
     ],
     [
      -122.251091,
      37.50008
     ],
     [
      -122.249851,
      37.498995
     ],
     [
      -122.24985,
      37.498994
     ],
     [
      -122.248226,
      37.497571
     ],
     [
      -122.246255,
      37.495845
     ],
     [
      -122.245252,
      37.494967
     ],
     [
      -122.245073,
      37.49481
     ],
     [
      -122.244476,
      37.49431
     ],
     [
      -122.244303,
      37.494165
     ],
     [
      -122.243652,
      37.49366
     ],
     [
      -122.243417,
      37.493478
     ],
     [
      -122.243072,
      37.493232
     ],
     [
      -122.242631,
      37.492918
     ],
     [
      -122.242521,
      37.492839
     ],
     [
      -122.242178,
      37.492615
     ],
     [
      -122.241593,
      37.492231
     ],
     [
      -122.241568,
      37.492215
     ],
     [
      -122.241484,
      37.49216
     ],
     [
      -122.241467,
      37.492149
     ],
     [
      -122.239397,
      37.490844
     ],
     [
      -122.236718,
      37.489154
     ],
     [
      -122.234744,
      37.487909
     ],
     [
      -122.232839,
      37.486707
     ],
     [
      -122.231538,
      37.485887
     ],
     [
      -122.22878,
      37.484147
     ],
     [
      -122.228771,
      37.484142
     ],
     [
      -122.227185,
      37.483141
     ],
     [
      -122.226146,
      37.482486
     ],
     [
      -122.22521,
      37.481895
     ],
     [
      -122.223628,
      37.480898
     ],
     [
      -122.22287,
      37.48042
     ],
     [
      -122.221302,
      37.47943
     ],
     [
      -122.220973,
      37.479223
     ],
     [
      -122.220927,
      37.479194
     ],
     [
      -122.220874,
      37.47916
     ],
     [
      -122.220827,
      37.479131
     ],
     [
      -122.22046,
      37.4789
     ],
     [
      -122.219698,
      37.47842
     ],
     [
      -122.218816,
      37.477864
     ],
     [
      -122.217669,
      37.477142
     ],
     [
      -122.217645,
      37.477126
     ],
     [
      -122.214939,
      37.475421
     ],
     [
      -122.212255,
      37.47373
     ],
     [
      -122.212237,
      37.473718
     ],
     [
      -122.212146,
      37.473661
     ],
     [
      -122.206699,
      37.470228
     ],
     [
      -122.206458,
      37.470076
     ],
     [
      -122.206368,
      37.470019
     ],
     [
      -122.206043,
      37.469811
     ],
     [
      -122.203481,
      37.468199
     ],
     [
      -122.202948,
      37.467864
     ],
     [
      -122.202799,
      37.467771
     ],
     [
      -122.19723,
      37.464268
     ],
     [
      -122.194253,
      37.462395
     ],
     [
      -122.193291,
      37.46179
     ],
     [
      -122.19291,
      37.46155
     ],
     [
      -122.189713,
      37.459477
     ],
     [
      -122.189691,
      37.459463
     ],
     [
      -122.189484,
      37.459332
     ],
     [
      -122.18934,
      37.45924
     ],
     [
      -122.18633,
      37.45733
     ],
     [
      -122.186319,
      37.457323
     ],
     [
      -122.185938,
      37.457081
     ],
     [
      -122.185899,
      37.457056
     ],
     [
      -122.185717,
      37.456941
     ],
     [
      -122.185566,
      37.456847
     ],
     [
      -122.184737,
      37.456329
     ],
     [
      -122.184735,
      37.456328
     ],
     [
      -122.182453,
      37.454904
     ],
     [
      -122.181383,
      37.454236
     ],
     [
      -122.180633,
      37.45376
     ],
     [
      -122.180076,
      37.453406
     ],
     [
      -122.179287,
      37.452904
     ],
     [
      -122.178197,
      37.452212
     ],
     [
      -122.176396,
      37.451068
     ],
     [
      -122.174709,
      37.449996
     ],
     [
      -122.172502,
      37.448593
     ],
     [
      -122.172152,
      37.448371
     ],
     [
      -122.170328,
      37.447231
     ],
     [
      -122.170301,
      37.447213
     ],
     [
      -122.169696,
      37.446835
     ],
     [
      -122.169632,
      37.446792
     ],
     [
      -122.169239,
      37.44653
     ],
     [
      -122.168758,
      37.44621
     ],
     [
      -122.16872,
      37.446184
     ],
     [
      -122.16795,
      37.445636
     ],
     [
      -122.167047,
      37.444993
     ],
     [
      -122.166586,
      37.444665
     ],
     [
      -122.166302,
      37.444481
     ],
     [
      -122.165989,
      37.444279
     ],
     [
      -122.165,
      37.443659
     ],
     [
      -122.164707,
      37.443475
     ],
     [
      -122.164122,
      37.443108
     ],
     [
      -122.163432,
      37.442675
     ],
     [
      -122.162738,
      37.44224
     ],
     [
      -122.162395,
      37.442025
     ],
     [
      -122.162119,
      37.441871
     ],
     [
      -122.161547,
      37.441552
     ],
     [
      -122.160492,
      37.440964
     ],
     [
      -122.160453,
      37.440942
     ],
     [
      -122.159755,
      37.440545
     ],
     [
      -122.159751,
      37.440543
     ],
     [
      -122.159278,
      37.440255
     ],
     [
      -122.158803,
      37.439967
     ],
     [
      -122.158704,
      37.439904
     ],
     [
      -122.156201,
      37.438329
     ],
     [
      -122.156191,
      37.438322
     ],
     [
      -122.154149,
      37.437037
     ],
     [
      -122.152475,
      37.435983
     ],
     [
      -122.151742,
      37.435521
     ],
     [
      -122.147435,
      37.432809
     ],
     [
      -122.145825,
      37.431795
     ],
     [
      -122.144511,
      37.430967
     ],
     [
      -122.143157,
      37.430114
     ],
     [
      -122.142264,
      37.429551
     ],
     [
      -122.141792,
      37.429254
     ],
     [
      -122.140368,
      37.428357
     ],
     [
      -122.140009,
      37.428131
     ],
     [
      -122.138327,
      37.427069
     ],
     [
      -122.13672,
      37.426055
     ],
     [
      -122.135843,
      37.425501
     ],
     [
      -122.134667,
      37.424758
     ],
     [
      -122.132584,
      37.423443
     ],
     [
      -122.130424,
      37.422078
     ],
     [
      -122.127209,
      37.420049
     ],
     [
      -122.124258,
      37.418184
     ],
     [
      -122.12332,
      37.417592
     ],
     [
      -122.123288,
      37.417572
     ],
     [
      -122.121908,
      37.416701
     ],
     [
      -122.12081,
      37.416007
     ],
     [
      -122.118702,
      37.414676
     ],
     [
      -122.117175,
      37.413712
     ],
     [
      -122.116487,
      37.413278
     ],
     [
      -122.115397,
      37.412589
     ],
     [
      -122.11413,
      37.411789
     ],
     [
      -122.111977,
      37.410429
     ],
     [
      -122.110552,
      37.409529
     ],
     [
      -122.10961,
      37.408934
     ],
     [
      -122.108839,
      37.408447
     ],
     [
      -122.108649,
      37.408327
     ],
     [
      -122.108099,
      37.40798
     ],
     [
      -122.107623,
      37.407681
     ],
     [
      -122.107181,
      37.407403
     ],
     [
      -122.106948,
      37.407257
     ],
     [
      -122.106262,
      37.406826
     ],
     [
      -122.1062,
      37.406787
     ],
     [
      -122.105986,
      37.406662
     ],
     [
      -122.105654,
      37.406467
     ],
     [
      -122.105528,
      37.406393
     ],
     [
      -122.105169,
      37.406208
     ],
     [
      -122.105136,
      37.406192
     ],
     [
      -122.104693,
      37.405963
     ],
     [
      -122.104109,
      37.405663
     ],
     [
      -122.103833,
      37.405546
     ],
     [
      -122.102721,
      37.405073
     ],
     [
      -122.102522,
      37.404994
     ],
     [
      -122.101514,
      37.404595
     ],
     [
      -122.09989,
      37.403952
     ],
     [
      -122.098024,
      37.403213
     ],
     [
      -122.097517,
      37.403012
     ],
     [
      -122.094854,
      37.401957
     ],
     [
      -122.089759,
      37.399938
     ],
     [
      -122.089522,
      37.399844
     ],
     [
      -122.086694,
      37.398724
     ],
     [
      -122.08516,
      37.398116
     ],
     [
      -122.083019,
      37.397268
     ],
     [
      -122.082949,
      37.39724
     ],
     [
      -122.082758,
      37.397164
     ],
     [
      -122.081616,
      37.396712
     ],
     [
      -122.081252,
      37.396567
     ],
     [
      -122.080053,
      37.396092
     ],
     [
      -122.078436,
      37.395451
     ],
     [
      -122.076056,
      37.394508
     ],
     [
      -122.074457,
      37.393874
     ],
     [
      -122.074379,
      37.393843
     ],
     [
      -122.071266,
      37.3926
     ],
     [
      -122.068737,
      37.391591
     ],
     [
      -122.06558,
      37.39033
     ],
     [
      -122.063936,
      37.389674
     ],
     [
      -122.063232,
      37.389408
     ],
     [
      -122.06313,
      37.389369
     ],
     [
      -122.063017,
      37.389326
     ],
     [
      -122.062813,
      37.389249
     ],
     [
      -122.062612,
      37.389173
     ],
     [
      -122.062206,
      37.389039
     ],
     [
      -122.059644,
      37.388192
     ],
     [
      -122.057921,
      37.387623
     ],
     [
      -122.057148,
      37.387368
     ],
     [
      -122.055574,
      37.386848
     ],
     [
      -122.053559,
      37.386182
     ],
     [
      -122.051008,
      37.385339
     ],
     [
      -122.050589,
      37.385201
     ],
     [
      -122.050388,
      37.385135
     ],
     [
      -122.050351,
      37.385123
     ],
     [
      -122.050324,
      37.385114
     ],
     [
      -122.048378,
      37.384473
     ],
     [
      -122.044922,
      37.383336
     ],
     [
      -122.042531,
      37.382549
     ],
     [
      -122.040929,
      37.382022
     ],
     [
      -122.039296,
      37.381485
     ],
     [
      -122.037968,
      37.381047
     ],
     [
      -122.03648,
      37.380557
     ],
     [
      -122.034443,
      37.379887
     ],
     [
      -122.034428,
      37.379882
     ],
     [
      -122.034362,
      37.37986
     ],
     [
      -122.034104,
      37.379776
     ],
     [
      -122.033488,
      37.379573
     ],
     [
      -122.031379,
      37.378878
     ],
     [
      -122.030698,
      37.378654
     ],
     [
      -122.028532,
      37.37793
     ],
     [
      -122.02617,
      37.377141
     ],
     [
      -122.023813,
      37.376374
     ],
     [
      -122.022065,
      37.375805
     ],
     [
      -122.021985,
      37.375779
     ],
     [
      -122.020403,
      37.375264
     ],
     [
      -122.01828,
      37.374573
     ],
     [
      -122.018121,
      37.374521
     ],
     [
      -122.017783,
      37.374419
     ],
     [
      -122.017244,
      37.374255
     ],
     [
      -122.017089,
      37.374208
     ],
     [
      -122.016791,
      37.374137
     ],
     [
      -122.016295,
      37.374018
     ],
     [
      -122.015755,
      37.373889
     ],
     [
      -122.015483,
      37.373824
     ],
     [
      -122.014083,
      37.373539
     ],
     [
      -122.010629,
      37.372836
     ],
     [
      -122.010302,
      37.372769
     ],
     [
      -122.0078,
      37.37226
     ],
     [
      -122.006767,
      37.37205
     ],
     [
      -122.003915,
      37.371469
     ],
     [
      -122.002085,
      37.371099
     ],
     [
      -122.001523,
      37.370985
     ],
     [
      -122.001469,
      37.370977
     ],
     [
      -122.001022,
      37.370909
     ],
     [
      -122.000567,
      37.370839
     ],
     [
      -122.000271,
      37.370794
     ],
     [
      -122.000023,
      37.370775
     ],
     [
      -121.999434,
      37.37073
     ],
     [
      -121.999021,
      37.370699
     ],
     [
      -121.998818,
      37.370683
     ],
     [
      -121.998727,
      37.370679
     ],
     [
      -121.997036,
      37.370612
     ],
     [
      -121.996487,
      37.37059
     ],
     [
      -121.9956,
      37.370554
     ],
     [
      -121.995561,
      37.370553
     ],
     [
      -121.994535,
      37.370511
     ],
     [
      -121.993555,
      37.370472
     ],
     [
      -121.992978,
      37.370449
     ],
     [
      -121.992852,
      37.37045
     ],
     [
      -121.991708,
      37.370459
     ],
     [
      -121.9908,
      37.370466
     ],
     [
      -121.990665,
      37.370467
     ],
     [
      -121.990102,
      37.370471
     ],
     [
      -121.988608,
      37.370483
     ],
     [
      -121.986134,
      37.370501
     ],
     [
      -121.986094,
      37.370502
     ],
     [
      -121.985479,
      37.370506
     ],
     [
      -121.985323,
      37.370508
     ],
     [
      -121.981667,
      37.370535
     ],
     [
      -121.98128,
      37.370538
     ],
     [
      -121.979609,
      37.370543
     ],
     [
      -121.979574,
      37.370542
     ],
     [
      -121.978905,
      37.370518
     ],
     [
      -121.978622,
      37.370508
     ],
     [
      -121.978363,
      37.370489
     ],
     [
      -121.977775,
      37.370446
     ],
     [
      -121.977739,
      37.370443
     ],
     [
      -121.977128,
      37.370366
     ],
     [
      -121.976759,
      37.370319
     ],
     [
      -121.976454,
      37.370263
     ],
     [
      -121.975881,
      37.370157
     ],
     [
      -121.975217,
      37.370034
     ],
     [
      -121.975131,
      37.370011
     ],
     [
      -121.974519,
      37.369846
     ],
     [
      -121.974066,
      37.369724
     ],
     [
      -121.97404,
      37.369717
     ],
     [
      -121.973369,
      37.369499
     ],
     [
      -121.972876,
      37.369339
     ],
     [
      -121.972717,
      37.369275
     ],
     [
      -121.972119,
      37.369033
     ],
     [
      -121.971677,
      37.368854
     ],
     [
      -121.968875,
      37.367632
     ],
     [
      -121.968582,
      37.367504
     ],
     [
      -121.963588,
      37.365326
     ],
     [
      -121.962075,
      37.364666
     ],
     [
      -121.959777,
      37.363664
     ],
     [
      -121.959545,
      37.363562
     ],
     [
      -121.959516,
      37.36355
     ]
    ]
   }
  },
  {
   "type": "Feature",
   "properties": {
    "kind": "line",
    "segment": "shared",
    "name": "Scott Boulevard to San José Diridon (shared Caltrain corridor)",
    "approval": "Approved with the San Jose to Merced section (Board, Apr 28, 2022), per this section's ROD p. 1",
    "source": "GIS: U.S. DOT Bureau of Transportation Statistics, NTAD North American Rail Network Lines, Caltrain-owned (JPBX) main line, routed between the FRA nodes nearest Fourth and King and San José Diridon (65 arcs); split at the ROD's Scott Boulevard point (Biological Opinion sec. 2.3, PDF p. 250)."
   },
   "geometry": {
    "type": "LineString",
    "coordinates": [
     [
      -121.959516,
      37.36355
     ],
     [
      -121.959464,
      37.363527
     ],
     [
      -121.955779,
      37.36192
     ],
     [
      -121.949362,
      37.359121
     ],
     [
      -121.947376,
      37.358254
     ],
     [
      -121.947155,
      37.358158
     ],
     [
      -121.945144,
      37.357281
     ],
     [
      -121.943008,
      37.356354
     ],
     [
      -121.942386,
      37.356084
     ],
     [
      -121.941935,
      37.355888
     ],
     [
      -121.941617,
      37.35575
     ],
     [
      -121.940754,
      37.355375
     ],
     [
      -121.940385,
      37.355215
     ],
     [
      -121.940341,
      37.355196
     ],
     [
      -121.939547,
      37.354915
     ],
     [
      -121.939435,
      37.354803
     ],
     [
      -121.93814,
      37.35424
     ],
     [
      -121.937573,
      37.353986
     ],
     [
      -121.937489,
      37.353948
     ],
     [
      -121.937155,
      37.353799
     ],
     [
      -121.936337,
      37.35339
     ],
     [
      -121.936002,
      37.35322
     ],
     [
      -121.935899,
      37.353168
     ],
     [
      -121.935594,
      37.353014
     ],
     [
      -121.935452,
      37.352942
     ],
     [
      -121.934413,
      37.352414
     ],
     [
      -121.933349,
      37.351858
     ],
     [
      -121.932985,
      37.351674
     ],
     [
      -121.931975,
      37.351164
     ],
     [
      -121.93061,
      37.350474
     ],
     [
      -121.928877,
      37.349597
     ],
     [
      -121.926571,
      37.348432
     ],
     [
      -121.924139,
      37.347203
     ],
     [
      -121.923789,
      37.347026
     ],
     [
      -121.923763,
      37.347012
     ],
     [
      -121.922351,
      37.346298
     ],
     [
      -121.921895,
      37.346068
     ],
     [
      -121.921332,
      37.345783
     ],
     [
      -121.920762,
      37.345495
     ],
     [
      -121.920619,
      37.345423
     ],
     [
      -121.918252,
      37.344226
     ],
     [
      -121.916872,
      37.343528
     ],
     [
      -121.915487,
      37.342827
     ],
     [
      -121.914644,
      37.342402
     ],
     [
      -121.914445,
      37.342301
     ],
     [
      -121.914288,
      37.342221
     ],
     [
      -121.914203,
      37.342178
     ],
     [
      -121.91409,
      37.342121
     ],
     [
      -121.914008,
      37.34208
     ],
     [
      -121.914,
      37.342076
     ],
     [
      -121.91399,
      37.342071
     ],
     [
      -121.913105,
      37.341623
     ],
     [
      -121.91305,
      37.3416
     ],
     [
      -121.912816,
      37.341504
     ],
     [
      -121.912702,
      37.341458
     ],
     [
      -121.912602,
      37.341417
     ],
     [
      -121.912592,
      37.341413
     ],
     [
      -121.912438,
      37.341349
     ],
     [
      -121.912393,
      37.341335
     ],
     [
      -121.912222,
      37.341281
     ],
     [
      -121.912182,
      37.341268
     ],
     [
      -121.912081,
      37.341236
     ],
     [
      -121.912035,
      37.341221
     ],
     [
      -121.911828,
      37.341155
     ],
     [
      -121.91148,
      37.341044
     ],
     [
      -121.911253,
      37.340972
     ],
     [
      -121.911244,
      37.340969
     ],
     [
      -121.911242,
      37.340968
     ],
     [
      -121.911227,
      37.340963
     ],
     [
      -121.911165,
      37.340944
     ],
     [
      -121.911128,
      37.340932
     ],
     [
      -121.911037,
      37.340903
     ],
     [
      -121.910843,
      37.340817
     ],
     [
      -121.910799,
      37.340797
     ],
     [
      -121.910733,
      37.340768
     ],
     [
      -121.910604,
      37.340711
     ],
     [
      -121.910556,
      37.340684
     ],
     [
      -121.910435,
      37.340617
     ],
     [
      -121.910431,
      37.340615
     ],
     [
      -121.910338,
      37.340563
     ],
     [
      -121.910233,
      37.340505
     ],
     [
      -121.910075,
      37.340401
     ],
     [
      -121.909841,
      37.340246
     ],
     [
      -121.909834,
      37.340241
     ],
     [
      -121.909708,
      37.340139
     ],
     [
      -121.909697,
      37.340131
     ],
     [
      -121.909564,
      37.340024
     ],
     [
      -121.909542,
      37.340004
     ],
     [
      -121.909213,
      37.339706
     ],
     [
      -121.909163,
      37.33966
     ],
     [
      -121.909161,
      37.339658
     ],
     [
      -121.909108,
      37.33961
     ],
     [
      -121.909063,
      37.33957
     ],
     [
      -121.908981,
      37.339495
     ],
     [
      -121.908937,
      37.339448
     ],
     [
      -121.908833,
      37.339337
     ],
     [
      -121.90868,
      37.339174
     ],
     [
      -121.908625,
      37.339116
     ],
     [
      -121.908545,
      37.339001
     ],
     [
      -121.9084,
      37.338792
     ],
     [
      -121.908312,
      37.338664
     ],
     [
      -121.908291,
      37.338624
     ],
     [
      -121.908147,
      37.338346
     ],
     [
      -121.90804,
      37.338141
     ],
     [
      -121.908004,
      37.33807
     ],
     [
      -121.907846,
      37.337766
     ],
     [
      -121.907737,
      37.337557
     ],
     [
      -121.907733,
      37.337549
     ],
     [
      -121.907713,
      37.33751
     ],
     [
      -121.907623,
      37.337383
     ],
     [
      -121.907613,
      37.33737
     ],
     [
      -121.907605,
      37.337358
     ],
     [
      -121.907496,
      37.337204
     ],
     [
      -121.907432,
      37.33713
     ],
     [
      -121.907301,
      37.336978
     ],
     [
      -121.907255,
      37.336935
     ],
     [
      -121.907251,
      37.336932
     ],
     [
      -121.906909,
      37.336615
     ],
     [
      -121.90612,
      37.335886
     ],
     [
      -121.905658,
      37.335459
     ],
     [
      -121.905487,
      37.335301
     ],
     [
      -121.905479,
      37.335293
     ],
     [
      -121.905088,
      37.334931
     ],
     [
      -121.905083,
      37.334927
     ],
     [
      -121.904719,
      37.334591
     ],
     [
      -121.904596,
      37.334477
     ],
     [
      -121.904328,
      37.334229
     ],
     [
      -121.904299,
      37.334198
     ],
     [
      -121.904131,
      37.334016
     ],
     [
      -121.903931,
      37.333799
     ],
     [
      -121.903916,
      37.333782
     ],
     [
      -121.903881,
      37.333745
     ],
     [
      -121.903814,
      37.333651
     ],
     [
      -121.903763,
      37.333579
     ],
     [
      -121.90369,
      37.333476
     ],
     [
      -121.903636,
      37.333401
     ],
     [
      -121.903635,
      37.333399
     ],
     [
      -121.903537,
      37.33323
     ],
     [
      -121.903481,
      37.333136
     ],
     [
      -121.903451,
      37.333051
     ],
     [
      -121.903396,
      37.332898
     ],
     [
      -121.903388,
      37.332862
     ],
     [
      -121.903348,
      37.33269
     ],
     [
      -121.903339,
      37.33265
     ],
     [
      -121.903317,
      37.332361
     ],
     [
      -121.903314,
      37.332324
     ],
     [
      -121.903305,
      37.332203
     ],
     [
      -121.90328,
      37.331872
     ],
     [
      -121.903265,
      37.331681
     ],
     [
      -121.903197,
      37.3314
     ],
     [
      -121.903127,
      37.331217
     ],
     [
      -121.903084,
      37.331103
     ],
     [
      -121.902982,
      37.330817
     ],
     [
      -121.902931,
      37.330619
     ],
     [
      -121.902883,
      37.329925
     ]
    ]
   }
  },
  {
   "type": "Feature",
   "properties": {
    "kind": "station",
    "status": "rebuilt",
    "name": "Fourth and King",
    "note": "Interim San Francisco terminus until The Portal reaches the Salesforce Transit Center; existing Caltrain station modified for high-speed rail (ROD p. 1).",
    "source": "GIS: Caltrain GTFS, parent station 'san_francisco' (https://www.caltrain.com/developer-resources)."
   },
   "geometry": {
    "type": "Point",
    "coordinates": [
     -122.394911,
     37.776404
    ]
   }
  },
  {
   "type": "Feature",
   "properties": {
    "kind": "station",
    "status": "rebuilt",
    "name": "Millbrae",
    "note": "Existing Caltrain and BART station modified for high-speed rail, for SFO (ROD p. 1).",
    "source": "GIS: Caltrain GTFS, parent station 'place_MLBR' (https://www.caltrain.com/developer-resources)."
   },
   "geometry": {
    "type": "Point",
    "coordinates": [
     -122.38675,
     37.5999
    ]
   }
  },
  {
   "type": "Feature",
   "properties": {
    "kind": "station",
    "status": "rebuilt",
    "name": "San José Diridon",
    "note": "Existing station; its high-speed rail work was approved with the San Jose to Merced section (ROD p. 1).",
    "source": "GIS: Caltrain GTFS, parent station 'sj_diridon' (https://www.caltrain.com/developer-resources)."
   },
   "geometry": {
    "type": "Point",
    "coordinates": [
     -121.903208,
     37.329694
    ]
   }
  }
 ]
}
