{
 "type": "FeatureCollection",
 "properties": {
  "project": "sf-waterfront-flood-defense",
  "source": "Port of San Francisco, USACE Flood Study Update and Next Steps (Port Commission, Aug 11, 2026), slide 13, Draft Phasing and Implementation Strategy, georeferenced to DataSF street centrelines",
  "sourceLabel": "Port Commission presentation (Aug 11, 2026), phasing map",
  "sourceUrl": "https://www.sfport.com/media/11441/download",
  "accuracy": "approximate",
  "accuracyNote": "Approximate alignment: the shoreline stretches the Port's phasing map marks as flood-impact segments, which the Recommended Plan defends ('indicates approximately where to build flood defenses', Recommended Plan Highlights, p. 18). 11.3 miles as drawn, because the line follows the water's edge into Mission Creek and Islais Creek (both banks) and around the Pier 80-96 terminals; the Port describes its jurisdiction as '7.5 miles' of shoreline. The map is small-scale (about 7 m per pixel) and fitted to DataSF streets with a trimmed RMS of 2.58 m, so the line is good to roughly 20-40 m. Where each defense sits (bayward, at the shoreline or inland) is decided in design. Reaches split at the map's dashed boundaries.",
  "license": "Traced facts from a public Port of San Francisco presentation (the PDF is not redistributed). Georeference: DataSF Streets - Active and Retired (3psu-pn9h), Open Data Commons Public Domain Dedication and License (PDDL) 1.0; City and County of San Francisco. Check: DataSF SF Shoreline and Islands (txuc-3kzm), ODC PDDL 1.0.",
  "otherSources": [
   "https://www.sfport.com/sites/default/files/2026-08/260817_Highlights%20Document_Rec%20Plan.pdf",
   "https://data.sf.gov/d/3psu-pn9h",
   "https://data.sf.gov/d/txuc-3kzm"
  ],
  "georeference": {
   "scale_m_per_unit": 6.6021,
   "rotation_deg": -63.163,
   "rms_m": 2.58,
   "controls": [
    {
     "label": "street casings vs DataSF street centrelines: trimmed RMS over the closest 50% of 25000 points",
     "residual_m": 2.58
    }
   ],
   "method": "trimmed ICP",
   "points": 25000,
   "inlier_share": 0.5,
   "median_m": 4.67,
   "p90_m": 45.52,
   "coarse_correlation": 0.543
  },
  "check": "Sampled every 25 m, the traced line lies a median 16 m (90th percentile 153 m) from the DataSF shoreline (https://data.sf.gov/d/txuc-3kzm).",
  "lengthKm": 18.25
 },
 "features": [
  {
   "type": "Feature",
   "properties": {
    "kind": "line",
    "segment": "new",
    "name": "Reach 1, Fisherman's Wharf (Aquatic Park to Telegraph Hill)",
    "source": "traced: Port of San Francisco, USACE Flood Study Update and Next Steps (Port Commission, Aug 11, 2026), slide 13, Draft Phasing and Implementation Strategy: the 'Flood Impact Segments' line between the dashed reach boundaries (trimmed RMS 2.58 m georeference)."
   },
   "geometry": {
    "type": "LineString",
    "coordinates": [
     [
      -122.403319,
      37.805661
     ],
     [
      -122.403351,
      37.805696
     ],
     [
      -122.403887,
      37.806016
     ],
     [
      -122.404155,
      37.806309
     ],
     [
      -122.406634,
      37.807589
     ],
     [
      -122.408578,
      37.808417
     ],
     [
      -122.409583,
      37.808684
     ],
     [
      -122.411964,
      37.809006
     ],
     [
      -122.413742,
      37.809035
     ],
     [
      -122.415352,
      37.809197
     ],
     [
      -122.415788,
      37.809091
     ],
     [
      -122.416057,
      37.808453
     ],
     [
      -122.416561,
      37.80832
     ],
     [
      -122.417265,
      37.808241
     ],
     [
      -122.4176,
      37.808375
     ],
     [
      -122.417734,
      37.808588
     ],
     [
      -122.418036,
      37.808668
     ],
     [
      -122.418807,
      37.808562
     ],
     [
      -122.419345,
      37.80835
     ],
     [
      -122.420049,
      37.808271
     ],
     [
      -122.420854,
      37.808352
     ],
     [
      -122.42213,
      37.807448
     ],
     [
      -122.423842,
      37.806705
     ],
     [
      -122.424814,
      37.806786
     ],
     [
      -122.425753,
      37.807213
     ]
    ]
   }
  },
  {
   "type": "Feature",
   "properties": {
    "kind": "line",
    "segment": "new",
    "name": "Reach 2, Embarcadero (Telegraph Hill to the Bay Bridge)",
    "source": "traced: Port of San Francisco, USACE Flood Study Update and Next Steps (Port Commission, Aug 11, 2026), slide 13, Draft Phasing and Implementation Strategy: the 'Flood Impact Segments' line between the dashed reach boundaries (trimmed RMS 2.58 m georeference)."
   },
   "geometry": {
    "type": "LineString",
    "coordinates": [
     [
      -122.387827,
      37.789498
     ],
     [
      -122.387992,
      37.789762
     ],
     [
      -122.388327,
      37.790028
     ],
     [
      -122.389028,
      37.791413
     ],
     [
      -122.391405,
      37.793332
     ],
     [
      -122.391872,
      37.794078
     ],
     [
      -122.392509,
      37.794558
     ],
     [
      -122.392709,
      37.794877
     ],
     [
      -122.393747,
      37.795864
     ],
     [
      -122.394416,
      37.796264
     ],
     [
      -122.39465,
      37.796636
     ],
     [
      -122.394918,
      37.796797
     ],
     [
      -122.395152,
      37.797169
     ],
     [
      -122.396524,
      37.798555
     ],
     [
      -122.396892,
      37.799141
     ],
     [
      -122.397227,
      37.799408
     ],
     [
      -122.398063,
      37.800473
     ],
     [
      -122.398331,
      37.800633
     ],
     [
      -122.398598,
      37.801059
     ],
     [
      -122.3989,
      37.801273
     ],
     [
      -122.399769,
      37.802391
     ],
     [
      -122.400037,
      37.802551
     ],
     [
      -122.400271,
      37.802924
     ],
     [
      -122.400572,
      37.803138
     ],
     [
      -122.40171,
      37.804416
     ],
     [
      -122.401945,
      37.804523
     ],
     [
      -122.402748,
      37.805269
     ],
     [
      -122.403083,
      37.805403
     ],
     [
      -122.403319,
      37.805661
     ]
    ]
   }
  },
  {
   "type": "Feature",
   "properties": {
    "kind": "line",
    "segment": "new",
    "name": "Reach 3, South Beach / Mission Bay (Bay Bridge to Potrero Point)",
    "source": "traced: Port of San Francisco, USACE Flood Study Update and Next Steps (Port Commission, Aug 11, 2026), slide 13, Draft Phasing and Implementation Strategy: the 'Flood Impact Segments' line between the dashed reach boundaries (trimmed RMS 2.58 m georeference)."
   },
   "geometry": {
    "type": "LineString",
    "coordinates": [
     [
      -122.381452,
      37.757244
     ],
     [
      -122.381395,
      37.757606
     ],
     [
      -122.381495,
      37.757899
     ],
     [
      -122.381225,
      37.758537
     ],
     [
      -122.381257,
      37.759255
     ],
     [
      -122.381858,
      37.760081
     ],
     [
      -122.381857,
      37.760613
     ],
     [
      -122.38199,
      37.76096
     ],
     [
      -122.382291,
      37.761173
     ],
     [
      -122.382492,
      37.761493
     ],
     [
      -122.383061,
      37.761733
     ],
     [
      -122.383295,
      37.761973
     ],
     [
      -122.38487,
      37.762348
     ],
     [
      -122.385137,
      37.762774
     ],
     [
      -122.385103,
      37.762987
     ],
     [
      -122.385236,
      37.7632
     ],
     [
      -122.385772,
      37.763387
     ],
     [
      -122.386477,
      37.763308
     ],
     [
      -122.386945,
      37.763521
     ],
     [
      -122.387046,
      37.763681
     ],
     [
      -122.386541,
      37.764612
     ],
     [
      -122.386505,
      37.765357
     ],
     [
      -122.386202,
      37.766075
     ],
     [
      -122.38526,
      37.767644
     ],
     [
      -122.385293,
      37.767963
     ],
     [
      -122.384922,
      37.768841
     ],
     [
      -122.385088,
      37.769373
     ],
     [
      -122.385456,
      37.769959
     ],
     [
      -122.385522,
      37.770332
     ],
     [
      -122.386357,
      37.771664
     ],
     [
      -122.386924,
      37.772968
     ],
     [
      -122.387221,
      37.774911
     ],
     [
      -122.387251,
      37.776428
     ],
     [
      -122.387385,
      37.776641
     ],
     [
      -122.38829,
      37.776749
     ],
     [
      -122.388726,
      37.776643
     ],
     [
      -122.389497,
      37.776671
     ],
     [
      -122.389765,
      37.776565
     ],
     [
      -122.390807,
      37.775688
     ],
     [
      -122.391579,
      37.775184
     ],
     [
      -122.392889,
      37.773802
     ],
     [
      -122.394031,
      37.773218
     ],
     [
      -122.397959,
      37.770269
     ],
     [
      -122.398295,
      37.770137
     ],
     [
      -122.39863,
      37.77027
     ],
     [
      -122.398864,
      37.77051
     ],
     [
      -122.398729,
      37.770829
     ],
     [
      -122.395909,
      37.772874
     ],
     [
      -122.394095,
      37.774389
     ],
     [
      -122.393491,
      37.774761
     ],
     [
      -122.392752,
      37.775451
     ],
     [
      -122.391946,
      37.775903
     ],
     [
      -122.391812,
      37.776089
     ],
     [
      -122.390468,
      37.777018
     ],
     [
      -122.390199,
      37.77739
     ],
     [
      -122.387683,
      37.778451
     ],
     [
      -122.38748,
      37.77893
     ],
     [
      -122.387746,
      37.780155
     ],
     [
      -122.387678,
      37.78058
     ],
     [
      -122.38781,
      37.781326
     ],
     [
      -122.387708,
      37.782097
     ],
     [
      -122.387807,
      37.782789
     ],
     [
      -122.387705,
      37.783162
     ],
     [
      -122.387805,
      37.783454
     ],
     [
      -122.387635,
      37.784519
     ],
     [
      -122.3877,
      37.785424
     ],
     [
      -122.387498,
      37.786035
     ],
     [
      -122.387393,
      37.787738
     ],
     [
      -122.387758,
      37.789389
     ],
     [
      -122.387827,
      37.789498
     ]
    ]
   }
  },
  {
   "type": "Feature",
   "properties": {
    "kind": "line",
    "segment": "new",
    "name": "Reach 4, Islais Creek / Bayview (Potrero Point to Heron's Head Park)",
    "source": "traced: Port of San Francisco, USACE Flood Study Update and Next Steps (Port Commission, Aug 11, 2026), slide 13, Draft Phasing and Implementation Strategy: the 'Flood Impact Segments' line between the dashed reach boundaries (trimmed RMS 2.58 m georeference)."
   },
   "geometry": {
    "type": "LineString",
    "coordinates": [
     [
      -122.367701,
      37.738425
     ],
     [
      -122.368137,
      37.738319
     ],
     [
      -122.369142,
      37.73832
     ],
     [
      -122.371019,
      37.738111
     ],
     [
      -122.372259,
      37.738219
     ],
     [
      -122.372861,
      37.73838
     ],
     [
      -122.373799,
      37.738807
     ],
     [
      -122.374099,
      37.739419
     ],
     [
      -122.374031,
      37.739712
     ],
     [
      -122.373528,
      37.739844
     ],
     [
      -122.368903,
      37.740076
     ],
     [
      -122.368434,
      37.740129
     ],
     [
      -122.368065,
      37.740341
     ],
     [
      -122.368966,
      37.741514
     ],
     [
      -122.371206,
      37.743752
     ],
     [
      -122.372443,
      37.745191
     ],
     [
      -122.37271,
      37.745351
     ],
     [
      -122.372911,
      37.745405
     ],
     [
      -122.373515,
      37.745166
     ],
     [
      -122.373918,
      37.744874
     ],
     [
      -122.374186,
      37.744901
     ],
     [
      -122.375594,
      37.744611
     ],
     [
      -122.375795,
      37.744664
     ],
     [
      -122.376296,
      37.74533
     ],
     [
      -122.376194,
      37.745836
     ],
     [
      -122.376561,
      37.746821
     ],
     [
      -122.377331,
      37.746982
     ],
     [
      -122.379007,
      37.746851
     ],
     [
      -122.379811,
      37.747065
     ],
     [
      -122.380582,
      37.74696
     ],
     [
      -122.382961,
      37.746884
     ],
     [
      -122.383163,
      37.746804
     ],
     [
      -122.383699,
      37.746858
     ],
     [
      -122.3839,
      37.746779
     ],
     [
      -122.384704,
      37.746993
     ],
     [
      -122.386581,
      37.746916
     ],
     [
      -122.386782,
      37.746836
     ],
     [
      -122.387519,
      37.747077
     ],
     [
      -122.388726,
      37.746865
     ],
     [
      -122.389664,
      37.746893
     ],
     [
      -122.390435,
      37.746788
     ],
     [
      -122.393014,
      37.747563
     ],
     [
      -122.393214,
      37.747883
     ],
     [
      -122.393045,
      37.748681
     ],
     [
      -122.392542,
      37.748813
     ],
     [
      -122.391437,
      37.748519
     ],
     [
      -122.390198,
      37.748012
     ],
     [
      -122.388187,
      37.748142
     ],
     [
      -122.387182,
      37.747874
     ],
     [
      -122.385404,
      37.748511
     ],
     [
      -122.383863,
      37.748455
     ],
     [
      -122.383661,
      37.748535
     ],
     [
      -122.380142,
      37.748663
     ],
     [
      -122.379539,
      37.748768
     ],
     [
      -122.37917,
      37.748714
     ],
     [
      -122.377997,
      37.748846
     ],
     [
      -122.377293,
      37.748791
     ],
     [
      -122.37679,
      37.748924
     ],
     [
      -122.376254,
      37.74887
     ],
     [
      -122.375851,
      37.749029
     ],
     [
      -122.375784,
      37.749188
     ],
     [
      -122.376146,
      37.752169
     ],
     [
      -122.37695,
      37.75225
     ],
     [
      -122.379765,
      37.752068
     ],
     [
      -122.3803,
      37.752921
     ],
     [
      -122.380601,
      37.753001
     ],
     [
      -122.381138,
      37.752922
     ],
     [
      -122.382075,
      37.753349
     ],
     [
      -122.382745,
      37.753483
     ],
     [
      -122.382912,
      37.753882
     ],
     [
      -122.382843,
      37.754441
     ],
     [
      -122.383445,
      37.755001
     ],
     [
      -122.382774,
      37.755266
     ],
     [
      -122.380998,
      37.75537
     ],
     [
      -122.38093,
      37.755662
     ],
     [
      -122.381331,
      37.756169
     ],
     [
      -122.38143,
      37.756728
     ],
     [
      -122.381363,
      37.75702
     ],
     [
      -122.381463,
      37.75718
     ],
     [
      -122.381452,
      37.757244
     ]
    ]
   }
  }
 ]
}
