{
 "type": "FeatureCollection",
 "properties": {
  "project": "the-portal",
  "source": "traced: TJPA, The Portal Monthly Status Report, September 2026, p. 4, Figure 1, The Portal Alignment and Major Components (drawing MP-05b-AL-20260512), georeferenced on 35 DataSF street intersections",
  "sourceLabel": "TJPA, The Portal Monthly Status Report (Sept 2026), Figure 1",
  "sourceUrl": "https://www.tjpa.org/media/40591?inline=",
  "accuracy": "traced",
  "accuracyNote": "Approximate alignment traced from TJPA's map of the current (2026) design: 1.76 miles from the tunnel's west end to the east end of the train box, which includes the below-grade approach at the west end (U-wall and tunnel stub box), so it is longer than TJPA's '1.3-mile tunnel'; plus 0.39 miles of trackwork on existing tracks to 16th Street (2.15 miles in all; TJPA: 'total project length is 2.2 miles'). Georeferenced on 35 street intersections (DataSF centrelines), RMS 1.18 m; the map draws the line about 37 m wide, so the centreline is good to several metres. Stations are the centres of the station shapes in the map.",
  "license": "Traced facts from a public TJPA report (the PDF is not redistributed). Georeference: Open Data Commons Public Domain Dedication and License (PDDL) 1.0; City and County of San Francisco. Trackwork: Public domain: 'a work of the United States government as defined in 17 U.S.C. § 101 ... available for unrestricted public use' (service copyright text).",
  "otherSources": [
   "https://data.sf.gov/d/3psu-pn9h",
   "https://services.arcgis.com/xOi1kZaI0eWDREZv/arcgis/rest/services/NTAD_North_American_Rail_Network_Lines/FeatureServer/0",
   "https://www.sfcta.org/sites/default/files/2026-01/SFCTA_CAC_Item9_TJPAPortalProjectFiscalYear2026MEMO_2026-01-28.pdf"
  ],
  "georeference": {
   "scale_m_per_unit": 2.07896,
   "rotation_deg": 45.492,
   "rms_m": 1.18,
   "controls": [
    {
     "label": "07TH ST & TOWNSEND ST",
     "residual_m": 2.01
    },
    {
     "label": "07TH ST & KING ST",
     "residual_m": 0.72
    },
    {
     "label": "06TH ST & BRANNAN ST",
     "residual_m": 1.5
    },
    {
     "label": "05TH ST & BRANNAN ST",
     "residual_m": 0.75
    },
    {
     "label": "03RD ST & BRANNAN ST",
     "residual_m": 0.89
    },
    {
     "label": "03RD ST & BRYANT ST",
     "residual_m": 2.12
    },
    {
     "label": "03RD ST & HARRISON ST",
     "residual_m": 0.88
    },
    {
     "label": "03RD ST & FOLSOM ST",
     "residual_m": 0.61
    },
    {
     "label": "03RD ST & BERRY ST",
     "residual_m": 1.72
    },
    {
     "label": "02ND ST & MISSION ST",
     "residual_m": 0.95
    },
    {
     "label": "01ST ST & FOLSOM ST",
     "residual_m": 0.44
    },
    {
     "label": "01ST ST & HOWARD ST",
     "residual_m": 0.53
    },
    {
     "label": "01ST ST & MISSION ST",
     "residual_m": 0.55
    },
    {
     "label": "FREMONT ST & HARRISON ST",
     "residual_m": 0.85
    },
    {
     "label": "FREMONT ST & FOLSOM ST",
     "residual_m": 0.87
    },
    {
     "label": "FREMONT ST & HOWARD ST",
     "residual_m": 1.17
    },
    {
     "label": "FREMONT ST & MISSION ST",
     "residual_m": 0.91
    },
    {
     "label": "BEALE ST & BRYANT ST",
     "residual_m": 1.88
    },
    {
     "label": "BEALE ST & HARRISON ST",
     "residual_m": 0.91
    },
    {
     "label": "BEALE ST & FOLSOM ST",
     "residual_m": 1.11
    },
    {
     "label": "BEALE ST & HOWARD ST",
     "residual_m": 0.72
    },
    {
     "label": "MAIN ST & HARRISON ST",
     "residual_m": 2.51
    },
    {
     "label": "MAIN ST & FOLSOM ST",
     "residual_m": 0.99
    },
    {
     "label": "MAIN ST & HOWARD ST",
     "residual_m": 1.63
    },
    {
     "label": "MAIN ST & MISSION ST",
     "residual_m": 1.05
    },
    {
     "label": "SPEAR ST & HARRISON ST",
     "residual_m": 0.61
    },
    {
     "label": "SPEAR ST & FOLSOM ST",
     "residual_m": 1.17
    },
    {
     "label": "SPEAR ST & HOWARD ST",
     "residual_m": 0.11
    },
    {
     "label": "SPEAR ST & MISSION ST",
     "residual_m": 0.82
    },
    {
     "label": "NEW MONTGOMERY ST & HOWARD ST",
     "residual_m": 1.1
    },
    {
     "label": "HAWTHORNE ST & FOLSOM ST",
     "residual_m": 0.81
    },
    {
     "label": "HAWTHORNE ST & HOWARD ST",
     "residual_m": 0.81
    },
    {
     "label": "STEUART ST & HOWARD ST",
     "residual_m": 2.0
    },
    {
     "label": "STEUART ST & MISSION ST",
     "residual_m": 0.55
    },
    {
     "label": "ESSEX ST & FOLSOM ST",
     "residual_m": 0.57
    }
   ]
  },
  "check": "Compared locally (not published) with the Authority's 'DTX (Downtown Extension)' line (1.32 mi, which predates the 2026 changes), sampled every 20 m. Its points lie median 7 m, 95th percentile 58 m, max 142 m from ours; ours lie median 20 m, 95th percentile 713 m, max 781 m from it (the far points are our approach south along Seventh Street, which its line doesn't include).",
  "lengthKm": 3.46
 },
 "features": [
  {
   "type": "Feature",
   "properties": {
    "kind": "line",
    "segment": "tunnel",
    "name": "Tunnel, from the Caltrain tracks at Seventh Street to the Salesforce Transit Center",
    "source": "traced: TJPA, The Portal Monthly Status Report, September 2026, p. 4, Figure 1, The Portal Alignment and Major Components (drawing MP-05b-AL-20260512); orange alignment, centreline (RMS 1.18 m georeference)."
   },
   "geometry": {
    "type": "LineString",
    "coordinates": [
     [
      -122.399865,
      37.770602
     ],
     [
      -122.400032,
      37.770761
     ],
     [
      -122.4003,
      37.771158
     ],
     [
      -122.400435,
      37.771555
     ],
     [
      -122.400436,
      37.771926
     ],
     [
      -122.400254,
      37.772443
     ],
     [
      -122.399855,
      37.773
     ],
     [
      -122.399339,
      37.773465
     ],
     [
      -122.399139,
      37.77373
     ],
     [
      -122.39779,
      37.774832
     ],
     [
      -122.394292,
      37.777621
     ],
     [
      -122.392276,
      37.779148
     ],
     [
      -122.391827,
      37.779745
     ],
     [
      -122.391595,
      37.780328
     ],
     [
      -122.39158,
      37.780818
     ],
     [
      -122.391664,
      37.781149
     ],
     [
      -122.391899,
      37.781599
     ],
     [
      -122.392284,
      37.782036
     ],
     [
      -122.394576,
      37.783847
     ],
     [
      -122.395044,
      37.784165
     ],
     [
      -122.395128,
      37.784284
     ],
     [
      -122.396065,
      37.785051
     ],
     [
      -122.39747,
      37.786135
     ],
     [
      -122.397839,
      37.786584
     ],
     [
      -122.397956,
      37.786836
     ],
     [
      -122.39804,
      37.787114
     ],
     [
      -122.398053,
      37.787386
     ]
    ]
   }
  },
  {
   "type": "Feature",
   "properties": {
    "kind": "line",
    "segment": "tunnel",
    "name": "Salesforce Transit Center train box (existing, fitted out)",
    "source": "traced: TJPA, The Portal Monthly Status Report, September 2026, p. 4, Figure 1, The Portal Alignment and Major Components (drawing MP-05b-AL-20260512); dark orange train box, centreline."
   },
   "geometry": {
    "type": "LineString",
    "coordinates": [
     [
      -122.398053,
      37.787386
     ],
     [
      -122.398058,
      37.787498
     ],
     [
      -122.398209,
      37.787723
     ],
     [
      -122.398226,
      37.787922
     ],
     [
      -122.397876,
      37.78828
     ],
     [
      -122.395244,
      37.790378
     ]
    ]
   }
  },
  {
   "type": "Feature",
   "properties": {
    "kind": "line",
    "segment": "shared",
    "name": "Trackwork to 16th Street (existing Caltrain tracks)",
    "source": "GIS: U.S. DOT Bureau of Transportation Statistics, NTAD North American Rail Network Lines, Caltrain main line from the point nearest the tunnel's west end (2 m away) to DataSF's 16th Street centreline; extent from the figure and the SFCTA memo (Jan 2026): 'trackwork to 16th Street'."
   },
   "geometry": {
    "type": "LineString",
    "coordinates": [
     [
      -122.39985,
      37.770614
     ],
     [
      -122.399849,
      37.770614
     ],
     [
      -122.399848,
      37.770613
     ],
     [
      -122.399773,
      37.770552
     ],
     [
      -122.399525,
      37.770351
     ],
     [
      -122.399003,
      37.769929
     ],
     [
      -122.398489,
      37.769513
     ],
     [
      -122.398437,
      37.769471
     ],
     [
      -122.398359,
      37.769412
     ],
     [
      -122.397919,
      37.769077
     ],
     [
      -122.397214,
      37.768502
     ],
     [
      -122.395305,
      37.766946
     ],
     [
      -122.39526,
      37.76691
     ],
     [
      -122.39483,
      37.766559
     ]
    ]
   }
  },
  {
   "type": "Feature",
   "properties": {
    "kind": "station",
    "status": "new",
    "name": "Fourth and Townsend Street Station",
    "note": "New underground station under Townsend Street between Fourth and Fifth Streets (Caltrain).",
    "source": "traced: TJPA, The Portal Monthly Status Report, September 2026, p. 4, Figure 1, The Portal Alignment and Major Components (drawing MP-05b-AL-20260512); centroid of the dark orange station box."
   },
   "geometry": {
    "type": "Point",
    "coordinates": [
     -122.396558,
     37.77579
    ]
   }
  },
  {
   "type": "Feature",
   "properties": {
    "kind": "station",
    "status": "rebuilt",
    "name": "Salesforce Transit Center",
    "note": "The existing two-level train box under the Transit Center, built in Phase 1 and fitted out by The Portal.",
    "source": "traced: TJPA, The Portal Monthly Status Report, September 2026, p. 4, Figure 1, The Portal Alignment and Major Components (drawing MP-05b-AL-20260512); centroid of the dark orange train box."
   },
   "geometry": {
    "type": "Point",
    "coordinates": [
     -122.396877,
     37.789023
    ]
   }
  }
 ]
}
